<?xml version="1.0" encoding="utf-8"?>
<gpx xmlns="http://www.topografix.com/GPX/1/1" version="1.1" creator="https://mapy.com/">
	<wpt lat="64.014145" lon="-16.969435">
		<ele>85.000000</ele>
		<name>New marker</name>
	</wpt>
	<wpt lat="64.013990" lon="-16.970722">
		<ele>86.000000</ele>
		<name>New marker</name>
	</wpt>
	<wpt lat="64.013830" lon="-16.970936">
		<ele>85.531685</ele>
		<name>New marker</name>
	</wpt>
	<wpt lat="64.014720" lon="-16.975464">
		<ele>87.000000</ele>
		<name>New marker</name>
	</wpt>
	<wpt lat="64.016840" lon="-16.984186">
		<ele>90.000000</ele>
		<name>New marker</name>
	</wpt>
	<wpt lat="64.017080" lon="-16.983580">
		<ele>90.119522</ele>
		<name>New marker</name>
	</wpt>
	<wpt lat="64.017200" lon="-16.982899">
		<ele>92.063759</ele>
		<name>New marker</name>
	</wpt>
	<wpt lat="64.017500" lon="-16.982443">
		<ele>95.682877</ele>
		<name>New marker</name>
	</wpt>
	<wpt lat="64.017550" lon="-16.982141">
		<ele>97.668365</ele>
		<name>New marker</name>
	</wpt>
	<wpt lat="64.017494" lon="-16.982437">
		<ele>95.529770</ele>
		<name>New marker</name>
	</wpt>
	<wpt lat="64.017815" lon="-16.981650">
		<ele>105.480019</ele>
		<name>New marker</name>
	</wpt>
	<wpt lat="64.018000" lon="-16.981310">
		<ele>104.091980</ele>
		<name>New marker</name>
	</wpt>
	<wpt lat="64.019510" lon="-16.981144">
		<ele>137.400330</ele>
		<name>New marker</name>
	</wpt>
	<wpt lat="64.019510" lon="-16.980886">
		<ele>131.751343</ele>
		<name>New marker</name>
	</wpt>
	<wpt lat="64.019500" lon="-16.981129">
		<ele>136.847107</ele>
		<name>New marker</name>
	</wpt>
	<wpt lat="64.020140" lon="-16.980764">
		<ele>148.670700</ele>
		<name>New marker</name>
	</wpt>
	<wpt lat="64.020410" lon="-16.980736">
		<ele>157.973907</ele>
		<name>New marker</name>
	</wpt>
	<wpt lat="64.020750" lon="-16.980135">
		<ele>164.798157</ele>
		<name>New marker</name>
	</wpt>
	<wpt lat="64.020390" lon="-16.980736">
		<ele>157.437515</ele>
		<name>New marker</name>
	</wpt>
	<wpt lat="64.021080" lon="-16.981080">
		<ele>170.642715</ele>
		<name>New marker</name>
	</wpt>
	<wpt lat="64.021270" lon="-16.980892">
		<ele>171.466125</ele>
		<name>New marker</name>
	</wpt>
	<wpt lat="64.021570" lon="-16.980211">
		<ele>171.316238</ele>
		<name>New marker</name>
	</wpt>
	<wpt lat="64.021324" lon="-16.979418">
		<ele>176.805786</ele>
		<name>New marker</name>
	</wpt>
	<wpt lat="64.021560" lon="-16.980194">
		<ele>171.343887</ele>
		<name>New marker</name>
	</wpt>
	<wpt lat="64.021260" lon="-16.980913">
		<ele>171.623398</ele>
		<name>New marker</name>
	</wpt>
	<wpt lat="64.021060" lon="-16.981117">
		<ele>170.530975</ele>
		<name>New marker</name>
	</wpt>
	<wpt lat="64.020850" lon="-16.981836">
		<ele>170.156540</ele>
		<name>New marker</name>
	</wpt>
	<wpt lat="64.023260" lon="-16.991177">
		<ele>189.094147</ele>
		<name>New marker</name>
	</wpt>
	<wpt lat="64.023125" lon="-16.991364">
		<ele>185.985352</ele>
		<name>New marker</name>
	</wpt>
	<wpt lat="64.023200" lon="-16.991692">
		<ele>186.354065</ele>
		<name>New marker</name>
	</wpt>
	<wpt lat="64.023360" lon="-16.991524">
		<ele>190.119965</ele>
		<name>New marker</name>
	</wpt>
	<wpt lat="64.023400" lon="-16.991660">
		<ele>190.505508</ele>
		<name>New marker</name>
	</wpt>
	<wpt lat="64.023470" lon="-16.990973">
		<ele>193.318298</ele>
		<name>New marker</name>
	</wpt>
	<wpt lat="64.024185" lon="-16.981852">
		<ele>233.884094</ele>
		<name>New marker</name>
	</wpt>
	<wpt lat="64.025040" lon="-16.982088">
		<ele>244.058105</ele>
		<name>New marker</name>
	</wpt>
	<wpt lat="64.025870" lon="-16.981478">
		<ele>251.600021</ele>
		<name>New marker</name>
	</wpt>
	<wpt lat="64.027790" lon="-16.982380">
		<ele>284.639465</ele>
		<name>New marker</name>
	</wpt>
	<wpt lat="64.025870" lon="-16.981499">
		<ele>251.600021</ele>
		<name>New marker</name>
	</wpt>
	<wpt lat="64.026930" lon="-16.974733">
		<ele>213.971405</ele>
		<name>New marker</name>
	</wpt>
	<wpt lat="64.027350" lon="-16.974955">
		<ele>221.018005</ele>
		<name>New marker</name>
	</wpt>
	<wpt lat="64.026920" lon="-16.974724">
		<ele>214.032867</ele>
		<name>New marker</name>
	</wpt>
	<wpt lat="64.025710" lon="-16.973783">
		<ele>231.584320</ele>
		<name>New marker</name>
	</wpt>
	<wpt lat="64.024940" lon="-16.963560">
		<ele>257.270355</ele>
		<name>New marker</name>
	</wpt>
	<wpt lat="64.027200" lon="-16.960175">
		<ele>282.656372</ele>
		<name>New marker</name>
	</wpt>
	<wpt lat="64.031235" lon="-16.944810">
		<ele>351.883820</ele>
		<name>New marker</name>
	</wpt>
	<wpt lat="64.031490" lon="-16.944178">
		<ele>353.731445</ele>
		<name>New marker</name>
	</wpt>
	<wpt lat="64.031190" lon="-16.944231">
		<ele>351.309998</ele>
		<name>New marker</name>
	</wpt>
	<wpt lat="64.030670" lon="-16.938267">
		<ele>329.554901</ele>
		<name>New marker</name>
	</wpt>
	<wpt lat="64.030470" lon="-16.936660">
		<ele>288.917847</ele>
		<name>New marker</name>
	</wpt>
	<wpt lat="64.030660" lon="-16.938234">
		<ele>328.919983</ele>
		<name>New marker</name>
	</wpt>
	<wpt lat="64.025770" lon="-16.949070">
		<ele>290.346283</ele>
		<name>New marker</name>
	</wpt>
	<wpt lat="64.023770" lon="-16.951359">
		<ele>214.857727</ele>
		<name>New marker</name>
	</wpt>
	<wpt lat="64.016860" lon="-16.972020">
		<ele>93.346039</ele>
		<name>New marker</name>
	</wpt>
	<wpt lat="64.016710" lon="-16.972288">
		<ele>89.559944</ele>
		<name>New marker</name>
	</wpt>
	<wpt lat="64.016600" lon="-16.971504">
		<ele>88.006332</ele>
		<name>New marker</name>
	</wpt>
	<wpt lat="64.016440" lon="-16.967793">
		<ele>86.175392</ele>
		<name>New marker</name>
	</wpt>
	<wpt lat="64.016340" lon="-16.967234">
		<ele>86.884842</ele>
		<name>New marker</name>
	</wpt>
	<wpt lat="64.016160" lon="-16.967857">
		<ele>86.000008</ele>
		<name>New marker</name>
	</wpt>
	<wpt lat="64.016335" lon="-16.967224">
		<ele>86.862495</ele>
		<name>New marker</name>
	</wpt>
	<wpt lat="64.016390" lon="-16.966658">
		<ele>87.018944</ele>
		<name>New marker</name>
	</wpt>
	<wpt lat="64.016670" lon="-16.966326">
		<ele>87.162003</ele>
		<name>New marker</name>
	</wpt>
	<wpt lat="64.016390" lon="-16.966658">
		<ele>87.018944</ele>
		<name>New marker</name>
	</wpt>
	<wpt lat="64.016290" lon="-16.967405">
		<ele>86.470505</ele>
		<name>New marker</name>
	</wpt>
	<wpt lat="64.015540" lon="-16.967094">
		<ele>86.000000</ele>
		<name>New marker</name>
	</wpt>
	<wpt lat="64.015070" lon="-16.967289">
		<ele>86.002014</ele>
		<name>New marker</name>
	</wpt>
	<wpt lat="64.014140" lon="-16.969380">
		<ele>85.000000</ele>
		<name>New marker</name>
	</wpt>
</gpx>

