<?xml version="1.0" encoding="utf-8"?>
<gpx xmlns="http://www.topografix.com/GPX/1/1" version="1.1" creator="https://mapy.com/">
	<wpt lat="65.579830" lon="-16.951292">
		<ele>281.992310</ele>
		<name>New marker</name>
	</wpt>
	<wpt lat="65.579636" lon="-16.951227">
		<ele>282.019287</ele>
		<name>New marker</name>
	</wpt>
	<wpt lat="65.578865" lon="-16.952402">
		<ele>283.201965</ele>
		<name>New marker</name>
	</wpt>
	<wpt lat="65.578740" lon="-16.952557">
		<ele>282.382233</ele>
		<name>New marker</name>
	</wpt>
	<wpt lat="65.578320" lon="-16.954391">
		<ele>287.106323</ele>
		<name>New marker</name>
	</wpt>
	<wpt lat="65.577280" lon="-16.955818">
		<ele>284.413971</ele>
		<name>New marker</name>
	</wpt>
	<wpt lat="65.576590" lon="-16.955486">
		<ele>280.400665</ele>
		<name>New marker</name>
	</wpt>
	<wpt lat="65.576410" lon="-16.955812">
		<ele>279.114532</ele>
		<name>New marker</name>
	</wpt>
	<wpt lat="65.576580" lon="-16.955513">
		<ele>280.333160</ele>
		<name>New marker</name>
	</wpt>
	<wpt lat="65.577270" lon="-16.955814">
		<ele>284.436279</ele>
		<name>New marker</name>
	</wpt>
	<wpt lat="65.578010" lon="-16.957384">
		<ele>284.932861</ele>
		<name>New marker</name>
	</wpt>
	<wpt lat="65.578674" lon="-16.957336">
		<ele>289.142426</ele>
		<name>New marker</name>
	</wpt>
	<wpt lat="65.578606" lon="-16.957653">
		<ele>287.017517</ele>
		<name>New marker</name>
	</wpt>
	<wpt lat="65.578674" lon="-16.957342">
		<ele>289.125610</ele>
		<name>New marker</name>
	</wpt>
	<wpt lat="65.578960" lon="-16.957413">
		<ele>288.293915</ele>
		<name>New marker</name>
	</wpt>
	<wpt lat="65.579140" lon="-16.958023">
		<ele>283.261780</ele>
		<name>New marker</name>
	</wpt>
	<wpt lat="65.578926" lon="-16.958332">
		<ele>280.223175</ele>
		<name>New marker</name>
	</wpt>
	<wpt lat="65.579124" lon="-16.958023">
		<ele>283.263153</ele>
		<name>New marker</name>
	</wpt>
	<wpt lat="65.579260" lon="-16.957884">
		<ele>284.077545</ele>
		<name>New marker</name>
	</wpt>
	<wpt lat="65.579440" lon="-16.957005">
		<ele>289.203491</ele>
		<name>New marker</name>
	</wpt>
	<wpt lat="65.579550" lon="-16.956795">
		<ele>289.729248</ele>
		<name>New marker</name>
	</wpt>
	<wpt lat="65.579020" lon="-16.955904">
		<ele>290.805054</ele>
		<name>New marker</name>
	</wpt>
	<wpt lat="65.579636" lon="-16.954918">
		<ele>294.931396</ele>
		<name>New marker</name>
	</wpt>
	<wpt lat="65.580010" lon="-16.954557">
		<ele>296.021881</ele>
		<name>New marker</name>
	</wpt>
	<wpt lat="65.580040" lon="-16.954445">
		<ele>295.338013</ele>
		<name>New marker</name>
	</wpt>
	<wpt lat="65.579980" lon="-16.954456">
		<ele>296.219818</ele>
		<name>New marker</name>
	</wpt>
	<wpt lat="65.579420" lon="-16.953270">
		<ele>295.205658</ele>
		<name>New marker</name>
	</wpt>
	<wpt lat="65.579346" lon="-16.953026">
		<ele>291.270996</ele>
		<name>New marker</name>
	</wpt>
	<wpt lat="65.579410" lon="-16.953287">
		<ele>295.265259</ele>
		<name>New marker</name>
	</wpt>
	<wpt lat="65.579185" lon="-16.953260">
		<ele>292.416870</ele>
		<name>New marker</name>
	</wpt>
	<wpt lat="65.578860" lon="-16.952390">
		<ele>283.085266</ele>
		<name>New marker</name>
	</wpt>
	<wpt lat="65.579630" lon="-16.951220">
		<ele>282.028900</ele>
		<name>New marker</name>
	</wpt>
	<wpt lat="65.579830" lon="-16.951262">
		<ele>281.996857</ele>
		<name>New marker</name>
	</wpt>
</gpx>

