<?xml version="1.0" encoding="utf-8"?>
<gpx xmlns="http://www.topografix.com/GPX/1/1" version="1.1" creator="https://mapy.com/">
	<wpt lat="65.660050" lon="-20.268042">
		<ele>29.245537</ele>
		<name>New marker</name>
	</wpt>
	<wpt lat="65.660030" lon="-20.267140">
		<ele>27.543772</ele>
		<name>New marker</name>
	</wpt>
	<wpt lat="65.659520" lon="-20.267859">
		<ele>18.960453</ele>
		<name>New marker</name>
	</wpt>
	<wpt lat="65.659550" lon="-20.266592">
		<ele>13.962574</ele>
		<name>New marker</name>
	</wpt>
	<wpt lat="65.659150" lon="-20.267130">
		<ele>10.557194</ele>
		<name>New marker</name>
	</wpt>
	<wpt lat="65.658780" lon="-20.267044">
		<ele>13.413111</ele>
		<name>New marker</name>
	</wpt>
	<wpt lat="65.658485" lon="-20.267612">
		<ele>15.263987</ele>
		<name>New marker</name>
	</wpt>
	<wpt lat="65.658260" lon="-20.267365">
		<ele>16.983253</ele>
		<name>New marker</name>
	</wpt>
	<wpt lat="65.658200" lon="-20.267591">
		<ele>17.468367</ele>
		<name>New marker</name>
	</wpt>
	<wpt lat="65.658250" lon="-20.267784">
		<ele>17.898605</ele>
		<name>New marker</name>
	</wpt>
	<wpt lat="65.658070" lon="-20.268030">
		<ele>19.650391</ele>
		<name>New marker</name>
	</wpt>
	<wpt lat="65.657900" lon="-20.268267">
		<ele>20.857706</ele>
		<name>New marker</name>
	</wpt>
	<wpt lat="65.658040" lon="-20.268133">
		<ele>20.362244</ele>
		<name>New marker</name>
	</wpt>
	<wpt lat="65.658250" lon="-20.267763">
		<ele>17.837141</ele>
		<name>New marker</name>
	</wpt>
	<wpt lat="65.658615" lon="-20.269747">
		<ele>20.500603</ele>
		<name>New marker</name>
	</wpt>
	<wpt lat="65.656730" lon="-20.273464">
		<ele>13.810328</ele>
		<name>New marker</name>
	</wpt>
	<wpt lat="65.656080" lon="-20.271137">
		<ele>12.567417</ele>
		<name>New marker</name>
	</wpt>
	<wpt lat="65.655800" lon="-20.270798">
		<ele>8.946636</ele>
		<name>New marker</name>
	</wpt>
	<wpt lat="65.655785" lon="-20.269773">
		<ele>9.481356</ele>
		<name>New marker</name>
	</wpt>
	<wpt lat="65.656100" lon="-20.270096">
		<ele>14.140460</ele>
		<name>New marker</name>
	</wpt>
	<wpt lat="65.656950" lon="-20.268744">
		<ele>16.470455</ele>
		<name>New marker</name>
	</wpt>
	<wpt lat="65.656840" lon="-20.267376">
		<ele>8.816126</ele>
		<name>New marker</name>
	</wpt>
	<wpt lat="65.657860" lon="-20.266277">
		<ele>10.173380</ele>
		<name>New marker</name>
	</wpt>
	<wpt lat="65.658250" lon="-20.267387">
		<ele>17.009888</ele>
		<name>New marker</name>
	</wpt>
	<wpt lat="65.658485" lon="-20.267622">
		<ele>15.291924</ele>
		<name>New marker</name>
	</wpt>
	<wpt lat="65.658745" lon="-20.267693">
		<ele>12.598661</ele>
		<name>New marker</name>
	</wpt>
	<wpt lat="65.659030" lon="-20.267930">
		<ele>10.449759</ele>
		<name>New marker</name>
	</wpt>
	<wpt lat="65.659180" lon="-20.267666">
		<ele>11.888544</ele>
		<name>New marker</name>
	</wpt>
	<wpt lat="65.659240" lon="-20.268120">
		<ele>14.593183</ele>
		<name>New marker</name>
	</wpt>
	<wpt lat="65.659515" lon="-20.267939">
		<ele>19.182449</ele>
		<name>New marker</name>
	</wpt>
	<wpt lat="65.660030" lon="-20.267162">
		<ele>27.677488</ele>
		<name>New marker</name>
	</wpt>
	<wpt lat="65.660034" lon="-20.268068">
		<ele>29.066734</ele>
		<name>New marker</name>
	</wpt>
</gpx>

