<?xml version="1.0" encoding="utf-8"?>
<gpx xmlns="http://www.topografix.com/GPX/1/1" version="1.1" creator="https://mapy.com/">
	<wpt lat="63.407036" lon="-19.048502">
		<ele>4.945628</ele>
		<name>New marker</name>
	</wpt>
	<wpt lat="63.406680" lon="-19.048267">
		<ele>3.985159</ele>
		<name>New marker</name>
	</wpt>
	<wpt lat="63.406334" lon="-19.048126">
		<ele>4.226801</ele>
		<name>New marker</name>
	</wpt>
	<wpt lat="63.405860" lon="-19.048010">
		<ele>4.000000</ele>
		<name>New marker</name>
	</wpt>
	<wpt lat="63.405437" lon="-19.047709">
		<ele>4.000000</ele>
		<name>New marker</name>
	</wpt>
	<wpt lat="63.405083" lon="-19.047377">
		<ele>4.775976</ele>
		<name>New marker</name>
	</wpt>
	<wpt lat="63.404766" lon="-19.046797">
		<ele>5.000000</ele>
		<name>New marker</name>
	</wpt>
	<wpt lat="63.404533" lon="-19.046024">
		<ele>5.385177</ele>
		<name>New marker</name>
	</wpt>
	<wpt lat="63.404050" lon="-19.044490">
		<ele>6.981375</ele>
		<name>New marker</name>
	</wpt>
	<wpt lat="63.403904" lon="-19.043814">
		<ele>8.659289</ele>
		<name>New marker</name>
	</wpt>
	<wpt lat="63.403450" lon="-19.043396">
		<ele>8.024715</ele>
		<name>New marker</name>
	</wpt>
	<wpt lat="63.403010" lon="-19.043438">
		<ele>3.466282</ele>
		<name>New marker</name>
	</wpt>
	<wpt lat="63.402800" lon="-19.043879">
		<ele>2.082740</ele>
		<name>New marker</name>
	</wpt>
	<wpt lat="63.402670" lon="-19.042494">
		<ele>3.443299</ele>
		<name>New marker</name>
	</wpt>
	<wpt lat="63.402490" lon="-19.040821">
		<ele>10.599330</ele>
		<name>New marker</name>
	</wpt>
	<wpt lat="63.402630" lon="-19.039993">
		<ele>39.562145</ele>
		<name>New marker</name>
	</wpt>
	<wpt lat="63.402450" lon="-19.040993">
		<ele>7.981061</ele>
		<name>New marker</name>
	</wpt>
	<wpt lat="63.402637" lon="-19.042494">
		<ele>3.014378</ele>
		<name>New marker</name>
	</wpt>
	<wpt lat="63.402756" lon="-19.043911">
		<ele>1.814539</ele>
		<name>New marker</name>
	</wpt>
	<wpt lat="63.402943" lon="-19.045809">
		<ele>1.954845</ele>
		<name>New marker</name>
	</wpt>
	<wpt lat="63.403126" lon="-19.047740">
		<ele>2.491245</ele>
		<name>New marker</name>
	</wpt>
	<wpt lat="63.403330" lon="-19.050230">
		<ele>1.367358</ele>
		<name>New marker</name>
	</wpt>
	<wpt lat="63.403564" lon="-19.052130">
		<ele>2.552742</ele>
		<name>New marker</name>
	</wpt>
	<wpt lat="63.404175" lon="-19.052322">
		<ele>5.564372</ele>
		<name>New marker</name>
	</wpt>
	<wpt lat="63.404713" lon="-19.051560">
		<ele>5.859951</ele>
		<name>New marker</name>
	</wpt>
	<wpt lat="63.405144" lon="-19.050627">
		<ele>4.597176</ele>
		<name>New marker</name>
	</wpt>
	<wpt lat="63.405407" lon="-19.049522">
		<ele>3.826100</ele>
		<name>New marker</name>
	</wpt>
	<wpt lat="63.405647" lon="-19.048310">
		<ele>4.000000</ele>
		<name>New marker</name>
	</wpt>
	<wpt lat="63.405766" lon="-19.047869">
		<ele>4.000000</ele>
		<name>New marker</name>
	</wpt>
	<wpt lat="63.406216" lon="-19.048170">
		<ele>4.068682</ele>
		<name>New marker</name>
	</wpt>
	<wpt lat="63.406586" lon="-19.048223">
		<ele>3.988822</ele>
		<name>New marker</name>
	</wpt>
	<wpt lat="63.406980" lon="-19.048460">
		<ele>4.778003</ele>
		<name>New marker</name>
	</wpt>
</gpx>

