<?xml version="1.0" encoding="utf-8"?>
<gpx xmlns="http://www.topografix.com/GPX/1/1" version="1.1" creator="https://mapy.com/">
	<wpt lat="64.770065" lon="-23.621634">
		<ele>15.112518</ele>
		<name>New marker</name>
	</wpt>
	<wpt lat="64.770070" lon="-23.620903">
		<ele>15.090169</ele>
		<name>New marker</name>
	</wpt>
	<wpt lat="64.770090" lon="-23.618715">
		<ele>15.103018</ele>
		<name>New marker</name>
	</wpt>
	<wpt lat="64.770134" lon="-23.617937">
		<ele>14.828223</ele>
		<name>New marker</name>
	</wpt>
	<wpt lat="64.769780" lon="-23.617609">
		<ele>14.939468</ele>
		<name>New marker</name>
	</wpt>
	<wpt lat="64.769420" lon="-23.617245">
		<ele>9.812848</ele>
		<name>New marker</name>
	</wpt>
	<wpt lat="64.769110" lon="-23.618029">
		<ele>7.833582</ele>
		<name>New marker</name>
	</wpt>
	<wpt lat="64.767715" lon="-23.617754">
		<ele>16.996321</ele>
		<name>New marker</name>
	</wpt>
	<wpt lat="64.767680" lon="-23.617002">
		<ele>14.756369</ele>
		<name>New marker</name>
	</wpt>
	<wpt lat="64.767660" lon="-23.616428">
		<ele>12.236140</ele>
		<name>New marker</name>
	</wpt>
	<wpt lat="64.767340" lon="-23.616772">
		<ele>9.286311</ele>
		<name>New marker</name>
	</wpt>
	<wpt lat="64.767685" lon="-23.617765">
		<ele>16.657114</ele>
		<name>New marker</name>
	</wpt>
	<wpt lat="64.765910" lon="-23.622667">
		<ele>16.996380</ele>
		<name>New marker</name>
	</wpt>
	<wpt lat="64.765470" lon="-23.622270">
		<ele>13.570969</ele>
		<name>New marker</name>
	</wpt>
	<wpt lat="64.765520" lon="-23.621890">
		<ele>7.000063</ele>
		<name>New marker</name>
	</wpt>
	<wpt lat="64.765465" lon="-23.622293">
		<ele>13.950918</ele>
		<name>New marker</name>
	</wpt>
	<wpt lat="64.765900" lon="-23.622652">
		<ele>16.858660</ele>
		<name>New marker</name>
	</wpt>
	<wpt lat="64.767680" lon="-23.617754">
		<ele>16.567713</ele>
		<name>New marker</name>
	</wpt>
	<wpt lat="64.768270" lon="-23.617834">
		<ele>15.699219</ele>
		<name>New marker</name>
	</wpt>
	<wpt lat="64.768420" lon="-23.617230">
		<ele>15.199515</ele>
		<name>New marker</name>
	</wpt>
	<wpt lat="64.768260" lon="-23.617872">
		<ele>15.786375</ele>
		<name>New marker</name>
	</wpt>
	<wpt lat="64.769104" lon="-23.618017">
		<ele>7.608004</ele>
		<name>New marker</name>
	</wpt>
	<wpt lat="64.770090" lon="-23.618752">
		<ele>15.204354</ele>
		<name>New marker</name>
	</wpt>
	<wpt lat="64.770065" lon="-23.620882">
		<ele>15.112517</ele>
		<name>New marker</name>
	</wpt>
	<wpt lat="64.770065" lon="-23.621637">
		<ele>15.112517</ele>
		<name>New marker</name>
	</wpt>
</gpx>

