<?xml version="1.0" encoding="utf-8"?>
<gpx xmlns="http://www.topografix.com/GPX/1/1" version="1.1" creator="https://mapy.com/">
	<wpt lat="50.678646" lon="7.193414">
		<ele>61.732674</ele>
		<name>New marker</name>
	</wpt>
	<wpt lat="50.678440" lon="7.193085">
		<ele>61.877651</ele>
		<name>New marker</name>
	</wpt>
	<wpt lat="50.677876" lon="7.191250">
		<ele>59.954254</ele>
		<name>New marker</name>
	</wpt>
	<wpt lat="50.677467" lon="7.191170">
		<ele>60.327194</ele>
		<name>New marker</name>
	</wpt>
	<wpt lat="50.677353" lon="7.191138">
		<ele>59.841751</ele>
		<name>New marker</name>
	</wpt>
	<wpt lat="50.677210" lon="7.191181">
		<ele>59.186485</ele>
		<name>New marker</name>
	</wpt>
	<wpt lat="50.676888" lon="7.191460">
		<ele>60.344090</ele>
		<name>New marker</name>
	</wpt>
	<wpt lat="50.676410" lon="7.191889">
		<ele>61.321724</ele>
		<name>New marker</name>
	</wpt>
	<wpt lat="50.676254" lon="7.192093">
		<ele>62.090816</ele>
		<name>New marker</name>
	</wpt>
	<wpt lat="50.675830" lon="7.192715">
		<ele>62.000015</ele>
		<name>New marker</name>
	</wpt>
	<wpt lat="50.675625" lon="7.192927">
		<ele>61.853279</ele>
		<name>New marker</name>
	</wpt>
	<wpt lat="50.675354" lon="7.193089">
		<ele>61.732994</ele>
		<name>New marker</name>
	</wpt>
	<wpt lat="50.675360" lon="7.192973">
		<ele>61.800003</ele>
		<name>New marker</name>
	</wpt>
	<wpt lat="50.675350" lon="7.193077">
		<ele>61.744186</ele>
		<name>New marker</name>
	</wpt>
	<wpt lat="50.675260" lon="7.193171">
		<ele>61.600021</ele>
		<name>New marker</name>
	</wpt>
	<wpt lat="50.674904" lon="7.193434">
		<ele>61.535034</ele>
		<name>New marker</name>
	</wpt>
	<wpt lat="50.674810" lon="7.193528">
		<ele>61.794804</ele>
		<name>New marker</name>
	</wpt>
	<wpt lat="50.674660" lon="7.193718">
		<ele>62.000015</ele>
		<name>New marker</name>
	</wpt>
	<wpt lat="50.674520" lon="7.193847">
		<ele>61.346863</ele>
		<name>New marker</name>
	</wpt>
	<wpt lat="50.674397" lon="7.193977">
		<ele>60.963577</ele>
		<name>New marker</name>
	</wpt>
	<wpt lat="50.674070" lon="7.194287">
		<ele>61.078506</ele>
		<name>New marker</name>
	</wpt>
	<wpt lat="50.673832" lon="7.193440">
		<ele>59.686665</ele>
		<name>New marker</name>
	</wpt>
	<wpt lat="50.673645" lon="7.192618">
		<ele>58.379795</ele>
		<name>New marker</name>
	</wpt>
	<wpt lat="50.673510" lon="7.192071">
		<ele>53.331295</ele>
		<name>New marker</name>
	</wpt>
	<wpt lat="50.673504" lon="7.191996">
		<ele>53.063015</ele>
		<name>New marker</name>
	</wpt>
	<wpt lat="50.673470" lon="7.191800">
		<ele>50.847080</ele>
		<name>New marker</name>
	</wpt>
	<wpt lat="50.673466" lon="7.191721">
		<ele>49.962971</ele>
		<name>New marker</name>
	</wpt>
	<wpt lat="50.673473" lon="7.191849">
		<ele>51.368587</ele>
		<name>New marker</name>
	</wpt>
	<wpt lat="50.673500" lon="7.192023">
		<ele>53.030766</ele>
		<name>New marker</name>
	</wpt>
	<wpt lat="50.673520" lon="7.192120">
		<ele>53.806526</ele>
		<name>New marker</name>
	</wpt>
	<wpt lat="50.673590" lon="7.192377">
		<ele>56.404697</ele>
		<name>New marker</name>
	</wpt>
	<wpt lat="50.673634" lon="7.192608">
		<ele>58.250164</ele>
		<name>New marker</name>
	</wpt>
	<wpt lat="50.673817" lon="7.193412">
		<ele>59.699142</ele>
		<name>New marker</name>
	</wpt>
	<wpt lat="50.674030" lon="7.194228">
		<ele>60.885738</ele>
		<name>New marker</name>
	</wpt>
	<wpt lat="50.674152" lon="7.194979">
		<ele>61.229950</ele>
		<name>New marker</name>
	</wpt>
	<wpt lat="50.674260" lon="7.195360">
		<ele>61.631897</ele>
		<name>New marker</name>
	</wpt>
	<wpt lat="50.674477" lon="7.196548">
		<ele>62.154945</ele>
		<name>New marker</name>
	</wpt>
	<wpt lat="50.674187" lon="7.198262">
		<ele>73.194633</ele>
		<name>New marker</name>
	</wpt>
	<wpt lat="50.674286" lon="7.198257">
		<ele>74.591743</ele>
		<name>New marker</name>
	</wpt>
	<wpt lat="50.674114" lon="7.198369">
		<ele>75.242592</ele>
		<name>New marker</name>
	</wpt>
	<wpt lat="50.671840" lon="7.199377">
		<ele>123.662270</ele>
		<name>New marker</name>
	</wpt>
	<wpt lat="50.671234" lon="7.200097">
		<ele>136.047348</ele>
		<name>New marker</name>
	</wpt>
	<wpt lat="50.670677" lon="7.200906">
		<ele>142.316025</ele>
		<name>New marker</name>
	</wpt>
	<wpt lat="50.670810" lon="7.202073">
		<ele>153.407257</ele>
		<name>New marker</name>
	</wpt>
	<wpt lat="50.670956" lon="7.203221">
		<ele>159.458145</ele>
		<name>New marker</name>
	</wpt>
	<wpt lat="50.670910" lon="7.203425">
		<ele>161.582932</ele>
		<name>New marker</name>
	</wpt>
	<wpt lat="50.670800" lon="7.203645">
		<ele>163.290359</ele>
		<name>New marker</name>
	</wpt>
	<wpt lat="50.670635" lon="7.203854">
		<ele>165.186371</ele>
		<name>New marker</name>
	</wpt>
	<wpt lat="50.670560" lon="7.203924">
		<ele>166.774231</ele>
		<name>New marker</name>
	</wpt>
	<wpt lat="50.669980" lon="7.205286">
		<ele>181.637344</ele>
		<name>New marker</name>
	</wpt>
	<wpt lat="50.670017" lon="7.206265">
		<ele>180.085419</ele>
		<name>New marker</name>
	</wpt>
	<wpt lat="50.669582" lon="7.207167">
		<ele>190.897079</ele>
		<name>New marker</name>
	</wpt>
	<wpt lat="50.668175" lon="7.208355">
		<ele>211.591064</ele>
		<name>New marker</name>
	</wpt>
	<wpt lat="50.666460" lon="7.207987">
		<ele>247.593643</ele>
		<name>New marker</name>
	</wpt>
	<wpt lat="50.664455" lon="7.209897">
		<ele>286.689697</ele>
		<name>New marker</name>
	</wpt>
	<wpt lat="50.664356" lon="7.209739">
		<ele>281.002228</ele>
		<name>New marker</name>
	</wpt>
	<wpt lat="50.664436" lon="7.209943">
		<ele>286.776917</ele>
		<name>New marker</name>
	</wpt>
	<wpt lat="50.664845" lon="7.210391">
		<ele>298.744202</ele>
		<name>New marker</name>
	</wpt>
	<wpt lat="50.664837" lon="7.210620">
		<ele>295.395813</ele>
		<name>New marker</name>
	</wpt>
	<wpt lat="50.665436" lon="7.210361">
		<ele>310.817749</ele>
		<name>New marker</name>
	</wpt>
	<wpt lat="50.665222" lon="7.210356">
		<ele>309.486786</ele>
		<name>New marker</name>
	</wpt>
	<wpt lat="50.665363" lon="7.210222">
		<ele>311.899353</ele>
		<name>New marker</name>
	</wpt>
	<wpt lat="50.665337" lon="7.210112">
		<ele>312.248322</ele>
		<name>New marker</name>
	</wpt>
	<wpt lat="50.665123" lon="7.210268">
		<ele>306.887177</ele>
		<name>New marker</name>
	</wpt>
	<wpt lat="50.665170" lon="7.210199">
		<ele>308.864227</ele>
		<name>New marker</name>
	</wpt>
	<wpt lat="50.665210" lon="7.210254">
		<ele>309.637939</ele>
		<name>New marker</name>
	</wpt>
	<wpt lat="50.665337" lon="7.210133">
		<ele>312.187836</ele>
		<name>New marker</name>
	</wpt>
	<wpt lat="50.665203" lon="7.209952">
		<ele>308.887451</ele>
		<name>New marker</name>
	</wpt>
	<wpt lat="50.665222" lon="7.210053">
		<ele>310.042664</ele>
		<name>New marker</name>
	</wpt>
	<wpt lat="50.665306" lon="7.210061">
		<ele>311.859436</ele>
		<name>New marker</name>
	</wpt>
	<wpt lat="50.665356" lon="7.210195">
		<ele>311.985046</ele>
		<name>New marker</name>
	</wpt>
	<wpt lat="50.665450" lon="7.209882">
		<ele>310.868988</ele>
		<name>New marker</name>
	</wpt>
	<wpt lat="50.665430" lon="7.210369">
		<ele>310.833893</ele>
		<name>New marker</name>
	</wpt>
	<wpt lat="50.664837" lon="7.210620">
		<ele>295.395813</ele>
		<name>New marker</name>
	</wpt>
	<wpt lat="50.664566" lon="7.210597">
		<ele>290.031494</ele>
		<name>New marker</name>
	</wpt>
	<wpt lat="50.664463" lon="7.210627">
		<ele>287.877563</ele>
		<name>New marker</name>
	</wpt>
	<wpt lat="50.664320" lon="7.210656">
		<ele>284.009949</ele>
		<name>New marker</name>
	</wpt>
	<wpt lat="50.664270" lon="7.210654">
		<ele>281.336365</ele>
		<name>New marker</name>
	</wpt>
	<wpt lat="50.664238" lon="7.210297">
		<ele>280.767395</ele>
		<name>New marker</name>
	</wpt>
	<wpt lat="50.664130" lon="7.210463">
		<ele>277.516602</ele>
		<name>New marker</name>
	</wpt>
	<wpt lat="50.663982" lon="7.210445">
		<ele>272.256226</ele>
		<name>New marker</name>
	</wpt>
	<wpt lat="50.663720" lon="7.211161">
		<ele>249.108688</ele>
		<name>New marker</name>
	</wpt>
	<wpt lat="50.663544" lon="7.211184">
		<ele>235.254654</ele>
		<name>New marker</name>
	</wpt>
	<wpt lat="50.663475" lon="7.211209">
		<ele>229.415665</ele>
		<name>New marker</name>
	</wpt>
	<wpt lat="50.663643" lon="7.211184">
		<ele>242.849976</ele>
		<name>New marker</name>
	</wpt>
	<wpt lat="50.664430" lon="7.211635">
		<ele>256.878113</ele>
		<name>New marker</name>
	</wpt>
	<wpt lat="50.664640" lon="7.211549">
		<ele>264.883850</ele>
		<name>New marker</name>
	</wpt>
	<wpt lat="50.664932" lon="7.211727">
		<ele>267.842926</ele>
		<name>New marker</name>
	</wpt>
	<wpt lat="50.664510" lon="7.211740">
		<ele>253.729660</ele>
		<name>New marker</name>
	</wpt>
	<wpt lat="50.665215" lon="7.212206">
		<ele>259.417480</ele>
		<name>New marker</name>
	</wpt>
	<wpt lat="50.665150" lon="7.212303">
		<ele>256.138611</ele>
		<name>New marker</name>
	</wpt>
	<wpt lat="50.664680" lon="7.213253">
		<ele>226.150452</ele>
		<name>New marker</name>
	</wpt>
	<wpt lat="50.664497" lon="7.213438">
		<ele>221.510498</ele>
		<name>New marker</name>
	</wpt>
	<wpt lat="50.664270" lon="7.214109">
		<ele>208.466003</ele>
		<name>New marker</name>
	</wpt>
	<wpt lat="50.663994" lon="7.214317">
		<ele>198.664948</ele>
		<name>New marker</name>
	</wpt>
	<wpt lat="50.662870" lon="7.214358">
		<ele>188.439850</ele>
		<name>New marker</name>
	</wpt>
	<wpt lat="50.663530" lon="7.213717">
		<ele>183.414658</ele>
		<name>New marker</name>
	</wpt>
	<wpt lat="50.662468" lon="7.213759">
		<ele>167.586090</ele>
		<name>New marker</name>
	</wpt>
	<wpt lat="50.662052" lon="7.213631">
		<ele>153.757355</ele>
		<name>New marker</name>
	</wpt>
	<wpt lat="50.661713" lon="7.213416">
		<ele>139.643951</ele>
		<name>New marker</name>
	</wpt>
	<wpt lat="50.661644" lon="7.213360">
		<ele>137.318069</ele>
		<name>New marker</name>
	</wpt>
	<wpt lat="50.661366" lon="7.213119">
		<ele>133.273590</ele>
		<name>New marker</name>
	</wpt>
	<wpt lat="50.661026" lon="7.212792">
		<ele>119.116608</ele>
		<name>New marker</name>
	</wpt>
	<wpt lat="50.661070" lon="7.212628">
		<ele>119.210144</ele>
		<name>New marker</name>
	</wpt>
	<wpt lat="50.661020" lon="7.212794">
		<ele>118.896614</ele>
		<name>New marker</name>
	</wpt>
	<wpt lat="50.660847" lon="7.212874">
		<ele>113.942337</ele>
		<name>New marker</name>
	</wpt>
	<wpt lat="50.660780" lon="7.212968">
		<ele>110.007629</ele>
		<name>New marker</name>
	</wpt>
	<wpt lat="50.660706" lon="7.212652">
		<ele>104.678619</ele>
		<name>New marker</name>
	</wpt>
	<wpt lat="50.660774" lon="7.212974">
		<ele>109.470192</ele>
		<name>New marker</name>
	</wpt>
	<wpt lat="50.660860" lon="7.213381">
		<ele>115.180893</ele>
		<name>New marker</name>
	</wpt>
	<wpt lat="50.660767" lon="7.214068">
		<ele>100.928802</ele>
		<name>New marker</name>
	</wpt>
	<wpt lat="50.660080" lon="7.213162">
		<ele>79.764061</ele>
		<name>New marker</name>
	</wpt>
	<wpt lat="50.659634" lon="7.213521">
		<ele>69.224525</ele>
		<name>New marker</name>
	</wpt>
	<wpt lat="50.659367" lon="7.212944">
		<ele>67.747520</ele>
		<name>New marker</name>
	</wpt>
	<wpt lat="50.658740" lon="7.212003">
		<ele>66.592484</ele>
		<name>New marker</name>
	</wpt>
	<wpt lat="50.658592" lon="7.211770">
		<ele>65.731178</ele>
		<name>New marker</name>
	</wpt>
	<wpt lat="50.658180" lon="7.211024">
		<ele>60.799637</ele>
		<name>New marker</name>
	</wpt>
	<wpt lat="50.657986" lon="7.211032">
		<ele>60.055084</ele>
		<name>New marker</name>
	</wpt>
	<wpt lat="50.657955" lon="7.210758">
		<ele>59.149548</ele>
		<name>New marker</name>
	</wpt>
	<wpt lat="50.657856" lon="7.210496">
		<ele>57.760181</ele>
		<name>New marker</name>
	</wpt>
	<wpt lat="50.658024" lon="7.210240">
		<ele>57.737816</ele>
		<name>New marker</name>
	</wpt>
</gpx>

