<?xml version="1.0" encoding="utf-8"?>
<gpx xmlns="http://www.topografix.com/GPX/1/1" version="1.1" creator="https://mapy.com/">
	<wpt lat="63.420630" lon="-19.150753">
		<ele>5.000000</ele>
		<name>New marker</name>
	</wpt>
	<wpt lat="63.421215" lon="-19.149738">
		<ele>3.516870</ele>
		<name>New marker</name>
	</wpt>
	<wpt lat="63.421326" lon="-19.149320">
		<ele>3.036633</ele>
		<name>New marker</name>
	</wpt>
	<wpt lat="63.421402" lon="-19.149578">
		<ele>3.092116</ele>
		<name>New marker</name>
	</wpt>
	<wpt lat="63.421524" lon="-19.150060">
		<ele>3.776611</ele>
		<name>New marker</name>
	</wpt>
	<wpt lat="63.421627" lon="-19.150549">
		<ele>4.380062</ele>
		<name>New marker</name>
	</wpt>
	<wpt lat="63.421707" lon="-19.150957">
		<ele>4.849411</ele>
		<name>New marker</name>
	</wpt>
	<wpt lat="63.421764" lon="-19.151197">
		<ele>5.340528</ele>
		<name>New marker</name>
	</wpt>
	<wpt lat="63.421974" lon="-19.151740">
		<ele>10.612432</ele>
		<name>New marker</name>
	</wpt>
	<wpt lat="63.421760" lon="-19.151165">
		<ele>5.291604</ele>
		<name>New marker</name>
	</wpt>
	<wpt lat="63.421840" lon="-19.150887">
		<ele>5.877173</ele>
		<name>New marker</name>
	</wpt>
	<wpt lat="63.421980" lon="-19.150532">
		<ele>6.267588</ele>
		<name>New marker</name>
	</wpt>
	<wpt lat="63.421867" lon="-19.150259">
		<ele>5.418070</ele>
		<name>New marker</name>
	</wpt>
	<wpt lat="63.421753" lon="-19.150028">
		<ele>5.102148</ele>
		<name>New marker</name>
	</wpt>
	<wpt lat="63.421623" lon="-19.149712">
		<ele>4.808847</ele>
		<name>New marker</name>
	</wpt>
	<wpt lat="63.421555" lon="-19.149353">
		<ele>4.433117</ele>
		<name>New marker</name>
	</wpt>
	<wpt lat="63.421486" lon="-19.149190">
		<ele>3.587196</ele>
		<name>New marker</name>
	</wpt>
	<wpt lat="63.421490" lon="-19.149340">
		<ele>3.863192</ele>
		<name>New marker</name>
	</wpt>
	<wpt lat="63.421356" lon="-19.149387">
		<ele>3.039866</ele>
		<name>New marker</name>
	</wpt>
	<wpt lat="63.421185" lon="-19.149770">
		<ele>3.606270</ele>
		<name>New marker</name>
	</wpt>
	<wpt lat="63.420708" lon="-19.150667">
		<ele>5.000000</ele>
		<name>New marker</name>
	</wpt>
</gpx>

