<?xml version="1.0" encoding="utf-8"?>
<gpx xmlns="http://www.topografix.com/GPX/1/1" version="1.1" creator="https://mapy.com/">
	<wpt lat="63.770610" lon="-18.172457">
		<ele>53.024399</ele>
		<name>New marker</name>
	</wpt>
	<wpt lat="63.771070" lon="-18.172907">
		<ele>54.701950</ele>
		<name>New marker</name>
	</wpt>
	<wpt lat="63.771100" lon="-18.173283">
		<ele>54.398640</ele>
		<name>New marker</name>
	</wpt>
	<wpt lat="63.771070" lon="-18.172907">
		<ele>54.701950</ele>
		<name>New marker</name>
	</wpt>
	<wpt lat="63.771090" lon="-18.171894">
		<ele>57.953949</ele>
		<name>New marker</name>
	</wpt>
	<wpt lat="63.771378" lon="-18.171930">
		<ele>60.848553</ele>
		<name>New marker</name>
	</wpt>
	<wpt lat="63.773506" lon="-18.173433">
		<ele>80.441902</ele>
		<name>New marker</name>
	</wpt>
	<wpt lat="63.773518" lon="-18.173733">
		<ele>77.660347</ele>
		<name>New marker</name>
	</wpt>
	<wpt lat="63.773540" lon="-18.174050">
		<ele>73.374962</ele>
		<name>New marker</name>
	</wpt>
	<wpt lat="63.773624" lon="-18.173733">
		<ele>80.628738</ele>
		<name>New marker</name>
	</wpt>
	<wpt lat="63.773693" lon="-18.173513">
		<ele>83.625053</ele>
		<name>New marker</name>
	</wpt>
	<wpt lat="63.774776" lon="-18.172918">
		<ele>107.877563</ele>
		<name>New marker</name>
	</wpt>
	<wpt lat="63.775030" lon="-18.174620">
		<ele>91.518600</ele>
		<name>New marker</name>
	</wpt>
	<wpt lat="63.774776" lon="-18.172913">
		<ele>107.911072</ele>
		<name>New marker</name>
	</wpt>
	<wpt lat="63.778390" lon="-18.174904">
		<ele>120.660072</ele>
		<name>New marker</name>
	</wpt>
	<wpt lat="63.778970" lon="-18.176662">
		<ele>101.629333</ele>
		<name>New marker</name>
	</wpt>
	<wpt lat="63.778960" lon="-18.176765">
		<ele>98.609406</ele>
		<name>New marker</name>
	</wpt>
	<wpt lat="63.778970" lon="-18.176641">
		<ele>102.147957</ele>
		<name>New marker</name>
	</wpt>
	<wpt lat="63.779087" lon="-18.176807">
		<ele>104.141037</ele>
		<name>New marker</name>
	</wpt>
	<wpt lat="63.778965" lon="-18.176610">
		<ele>102.726608</ele>
		<name>New marker</name>
	</wpt>
	<wpt lat="63.778362" lon="-18.174868">
		<ele>120.876045</ele>
		<name>New marker</name>
	</wpt>
	<wpt lat="63.774742" lon="-18.172884">
		<ele>107.374687</ele>
		<name>New marker</name>
	</wpt>
	<wpt lat="63.773620" lon="-18.173485">
		<ele>82.362595</ele>
		<name>New marker</name>
	</wpt>
	<wpt lat="63.773308" lon="-18.173077">
		<ele>79.406021</ele>
		<name>New marker</name>
	</wpt>
	<wpt lat="63.771347" lon="-18.171934">
		<ele>60.569183</ele>
		<name>New marker</name>
	</wpt>
	<wpt lat="63.771060" lon="-18.171902">
		<ele>57.572102</ele>
		<name>New marker</name>
	</wpt>
	<wpt lat="63.771057" lon="-18.172905">
		<ele>54.569389</ele>
		<name>New marker</name>
	</wpt>
	<wpt lat="63.770600" lon="-18.172401">
		<ele>52.990864</ele>
		<name>New marker</name>
	</wpt>
</gpx>

