<?xml version="1.0" encoding="utf-8"?>
<gpx xmlns="http://www.topografix.com/GPX/1/1" version="1.1" creator="https://mapy.com/">
	<wpt lat="56.821100" lon="-5.104369">
		<ele>5.604317</ele>
		<name>New marker</name>
	</wpt>
	<wpt lat="56.820896" lon="-5.105436">
		<ele>5.894434</ele>
		<name>New marker</name>
	</wpt>
	<wpt lat="56.821290" lon="-5.105661">
		<ele>5.000000</ele>
		<name>New marker</name>
	</wpt>
	<wpt lat="56.821274" lon="-5.105028">
		<ele>4.996068</ele>
		<name>New marker</name>
	</wpt>
	<wpt lat="56.821274" lon="-5.105693">
		<ele>5.000000</ele>
		<name>New marker</name>
	</wpt>
	<wpt lat="56.820890" lon="-5.105447">
		<ele>5.916784</ele>
		<name>New marker</name>
	</wpt>
	<wpt lat="56.820724" lon="-5.106284">
		<ele>6.000000</ele>
		<name>New marker</name>
	</wpt>
	<wpt lat="56.820625" lon="-5.106241">
		<ele>6.000000</ele>
		<name>New marker</name>
	</wpt>
	<wpt lat="56.820570" lon="-5.106520">
		<ele>6.000000</ele>
		<name>New marker</name>
	</wpt>
	<wpt lat="56.820500" lon="-5.106637">
		<ele>6.056634</ele>
		<name>New marker</name>
	</wpt>
	<wpt lat="56.820396" lon="-5.106831">
		<ele>6.526235</ele>
		<name>New marker</name>
	</wpt>
	<wpt lat="56.820160" lon="-5.107281">
		<ele>7.000000</ele>
		<name>New marker</name>
	</wpt>
	<wpt lat="56.820060" lon="-5.107459">
		<ele>7.000001</ele>
		<name>New marker</name>
	</wpt>
	<wpt lat="56.819878" lon="-5.107780">
		<ele>6.950402</ele>
		<name>New marker</name>
	</wpt>
	<wpt lat="56.819534" lon="-5.108408">
		<ele>6.781463</ele>
		<name>New marker</name>
	</wpt>
	<wpt lat="56.819280" lon="-5.108853">
		<ele>7.146855</ele>
		<name>New marker</name>
	</wpt>
	<wpt lat="56.819180" lon="-5.109025">
		<ele>7.209322</ele>
		<name>New marker</name>
	</wpt>
	<wpt lat="56.818900" lon="-5.109529">
		<ele>7.572407</ele>
		<name>New marker</name>
	</wpt>
	<wpt lat="56.818787" lon="-5.109669">
		<ele>7.646800</ele>
		<name>New marker</name>
	</wpt>
	<wpt lat="56.818607" lon="-5.109969">
		<ele>8.525047</ele>
		<name>New marker</name>
	</wpt>
	<wpt lat="56.818320" lon="-5.110511">
		<ele>9.251274</ele>
		<name>New marker</name>
	</wpt>
	<wpt lat="56.818060" lon="-5.110956">
		<ele>9.652658</ele>
		<name>New marker</name>
	</wpt>
	<wpt lat="56.817837" lon="-5.111380">
		<ele>10.125749</ele>
		<name>New marker</name>
	</wpt>
	<wpt lat="56.817600" lon="-5.111852">
		<ele>10.273169</ele>
		<name>New marker</name>
	</wpt>
	<wpt lat="56.817640" lon="-5.111946">
		<ele>9.290264</ele>
		<name>New marker</name>
	</wpt>
	<wpt lat="56.817590" lon="-5.111846">
		<ele>10.447942</ele>
		<name>New marker</name>
	</wpt>
	<wpt lat="56.817410" lon="-5.112163">
		<ele>10.135426</ele>
		<name>New marker</name>
	</wpt>
	<wpt lat="56.817000" lon="-5.112893">
		<ele>10.170111</ele>
		<name>New marker</name>
	</wpt>
	<wpt lat="56.816433" lon="-5.114154">
		<ele>10.191326</ele>
		<name>New marker</name>
	</wpt>
	<wpt lat="56.816760" lon="-5.114137">
		<ele>7.358461</ele>
		<name>New marker</name>
	</wpt>
	<wpt lat="56.816840" lon="-5.114507">
		<ele>5.796993</ele>
		<name>New marker</name>
	</wpt>
	<wpt lat="56.816750" lon="-5.114802">
		<ele>5.484786</ele>
		<name>New marker</name>
	</wpt>
	<wpt lat="56.816807" lon="-5.114753">
		<ele>5.421927</ele>
		<name>New marker</name>
	</wpt>
	<wpt lat="56.816746" lon="-5.114810">
		<ele>5.486441</ele>
		<name>New marker</name>
	</wpt>
	<wpt lat="56.816830" lon="-5.115108">
		<ele>5.000000</ele>
		<name>New marker</name>
	</wpt>
	<wpt lat="56.816740" lon="-5.114800">
		<ele>5.573767</ele>
		<name>New marker</name>
	</wpt>
	<wpt lat="56.816840" lon="-5.114483">
		<ele>5.868234</ele>
		<name>New marker</name>
	</wpt>
	<wpt lat="56.816757" lon="-5.114126">
		<ele>7.424114</ele>
		<name>New marker</name>
	</wpt>
	<wpt lat="56.816420" lon="-5.114102">
		<ele>10.446530</ele>
		<name>New marker</name>
	</wpt>
	<wpt lat="56.816784" lon="-5.113260">
		<ele>9.727562</ele>
		<name>New marker</name>
	</wpt>
	<wpt lat="56.816990" lon="-5.112893">
		<ele>10.303536</ele>
		<name>New marker</name>
	</wpt>
	<wpt lat="56.817406" lon="-5.112142">
		<ele>10.419879</ele>
		<name>New marker</name>
	</wpt>
	<wpt lat="56.817585" lon="-5.111852">
		<ele>10.453277</ele>
		<name>New marker</name>
	</wpt>
	<wpt lat="56.817640" lon="-5.111946">
		<ele>9.290264</ele>
		<name>New marker</name>
	</wpt>
	<wpt lat="56.817580" lon="-5.111871">
		<ele>10.363218</ele>
		<name>New marker</name>
	</wpt>
	<wpt lat="56.817837" lon="-5.111407">
		<ele>10.046127</ele>
		<name>New marker</name>
	</wpt>
	<wpt lat="56.818050" lon="-5.110951">
		<ele>9.771207</ele>
		<name>New marker</name>
	</wpt>
	<wpt lat="56.818320" lon="-5.110524">
		<ele>9.195047</ele>
		<name>New marker</name>
	</wpt>
	<wpt lat="56.818626" lon="-5.110020">
		<ele>8.302410</ele>
		<name>New marker</name>
	</wpt>
	<wpt lat="56.818780" lon="-5.109687">
		<ele>7.659370</ele>
		<name>New marker</name>
	</wpt>
	<wpt lat="56.818928" lon="-5.109486">
		<ele>7.619901</ele>
		<name>New marker</name>
	</wpt>
	<wpt lat="56.819180" lon="-5.108987">
		<ele>7.311199</ele>
		<name>New marker</name>
	</wpt>
	<wpt lat="56.819320" lon="-5.108212">
		<ele>8.019424</ele>
		<name>New marker</name>
	</wpt>
	<wpt lat="56.819460" lon="-5.107579">
		<ele>7.781505</ele>
		<name>New marker</name>
	</wpt>
	<wpt lat="56.819590" lon="-5.106989">
		<ele>8.510482</ele>
		<name>New marker</name>
	</wpt>
	<wpt lat="56.819650" lon="-5.106901">
		<ele>8.337897</ele>
		<name>New marker</name>
	</wpt>
	<wpt lat="56.819640" lon="-5.106332">
		<ele>9.142023</ele>
		<name>New marker</name>
	</wpt>
	<wpt lat="56.819620" lon="-5.106010">
		<ele>9.327660</ele>
		<name>New marker</name>
	</wpt>
	<wpt lat="56.819702" lon="-5.105382">
		<ele>9.776844</ele>
		<name>New marker</name>
	</wpt>
	<wpt lat="56.819702" lon="-5.105192">
		<ele>10.323851</ele>
		<name>New marker</name>
	</wpt>
	<wpt lat="56.819744" lon="-5.104685">
		<ele>10.838712</ele>
		<name>New marker</name>
	</wpt>
	<wpt lat="56.819805" lon="-5.104366">
		<ele>11.317035</ele>
		<name>New marker</name>
	</wpt>
	<wpt lat="56.820007" lon="-5.103475">
		<ele>13.062814</ele>
		<name>New marker</name>
	</wpt>
	<wpt lat="56.820156" lon="-5.102893">
		<ele>14.146028</ele>
		<name>New marker</name>
	</wpt>
	<wpt lat="56.820396" lon="-5.102032">
		<ele>16.076742</ele>
		<name>New marker</name>
	</wpt>
	<wpt lat="56.821144" lon="-5.099447">
		<ele>10.106047</ele>
		<name>New marker</name>
	</wpt>
	<wpt lat="56.821310" lon="-5.098867">
		<ele>9.687534</ele>
		<name>New marker</name>
	</wpt>
	<wpt lat="56.821728" lon="-5.097231">
		<ele>10.000000</ele>
		<name>New marker</name>
	</wpt>
	<wpt lat="56.821606" lon="-5.095769">
		<ele>10.121835</ele>
		<name>New marker</name>
	</wpt>
	<wpt lat="56.821420" lon="-5.094611">
		<ele>11.921767</ele>
		<name>New marker</name>
	</wpt>
	<wpt lat="56.821380" lon="-5.094305">
		<ele>12.630676</ele>
		<name>New marker</name>
	</wpt>
	<wpt lat="56.822174" lon="-5.093130">
		<ele>10.270178</ele>
		<name>New marker</name>
	</wpt>
	<wpt lat="56.822502" lon="-5.092591">
		<ele>13.998035</ele>
		<name>New marker</name>
	</wpt>
	<wpt lat="56.822620" lon="-5.092392">
		<ele>16.137486</ele>
		<name>New marker</name>
	</wpt>
	<wpt lat="56.822860" lon="-5.091970">
		<ele>20.272001</ele>
		<name>New marker</name>
	</wpt>
	<wpt lat="56.823135" lon="-5.091430">
		<ele>16.625477</ele>
		<name>New marker</name>
	</wpt>
	<wpt lat="56.823220" lon="-5.091215">
		<ele>15.401334</ele>
		<name>New marker</name>
	</wpt>
	<wpt lat="56.823467" lon="-5.090633">
		<ele>14.827603</ele>
		<name>New marker</name>
	</wpt>
	<wpt lat="56.823920" lon="-5.089590">
		<ele>14.130613</ele>
		<name>New marker</name>
	</wpt>
	<wpt lat="56.824112" lon="-5.089069">
		<ele>14.121677</ele>
		<name>New marker</name>
	</wpt>
	<wpt lat="56.824184" lon="-5.088887">
		<ele>14.565781</ele>
		<name>New marker</name>
	</wpt>
	<wpt lat="56.824253" lon="-5.088728">
		<ele>14.828393</ele>
		<name>New marker</name>
	</wpt>
	<wpt lat="56.824947" lon="-5.087457">
		<ele>18.478962</ele>
		<name>New marker</name>
	</wpt>
	<wpt lat="56.826138" lon="-5.086301">
		<ele>16.958012</ele>
		<name>New marker</name>
	</wpt>
	<wpt lat="56.826760" lon="-5.085724">
		<ele>13.839998</ele>
		<name>New marker</name>
	</wpt>
	<wpt lat="56.827600" lon="-5.084815">
		<ele>14.000000</ele>
		<name>New marker</name>
	</wpt>
	<wpt lat="56.828262" lon="-5.083710">
		<ele>13.852131</ele>
		<name>New marker</name>
	</wpt>
	<wpt lat="56.828476" lon="-5.083246">
		<ele>14.000000</ele>
		<name>New marker</name>
	</wpt>
	<wpt lat="56.828760" lon="-5.082788">
		<ele>13.828358</ele>
		<name>New marker</name>
	</wpt>
	<wpt lat="56.829150" lon="-5.081996">
		<ele>11.797826</ele>
		<name>New marker</name>
	</wpt>
	<wpt lat="56.829110" lon="-5.081669">
		<ele>11.091160</ele>
		<name>New marker</name>
	</wpt>
	<wpt lat="56.829193" lon="-5.081272">
		<ele>10.389086</ele>
		<name>New marker</name>
	</wpt>
	<wpt lat="56.828910" lon="-5.080478">
		<ele>11.936712</ele>
		<name>New marker</name>
	</wpt>
	<wpt lat="56.828793" lon="-5.079749">
		<ele>12.056350</ele>
		<name>New marker</name>
	</wpt>
	<wpt lat="56.829987" lon="-5.077123">
		<ele>11.559704</ele>
		<name>New marker</name>
	</wpt>
	<wpt lat="56.829920" lon="-5.075798">
		<ele>15.262548</ele>
		<name>New marker</name>
	</wpt>
	<wpt lat="56.830536" lon="-5.072305">
		<ele>17.265640</ele>
		<name>New marker</name>
	</wpt>
	<wpt lat="56.830044" lon="-5.068438">
		<ele>21.209227</ele>
		<name>New marker</name>
	</wpt>
	<wpt lat="56.829716" lon="-5.066249">
		<ele>26.678703</ele>
		<name>New marker</name>
	</wpt>
	<wpt lat="56.830566" lon="-5.062816">
		<ele>33.244183</ele>
		<name>New marker</name>
	</wpt>
	<wpt lat="56.831284" lon="-5.061061">
		<ele>39.932007</ele>
		<name>New marker</name>
	</wpt>
	<wpt lat="56.831450" lon="-5.056298">
		<ele>83.901482</ele>
		<name>New marker</name>
	</wpt>
	<wpt lat="56.829727" lon="-5.054737">
		<ele>130.077362</ele>
		<name>New marker</name>
	</wpt>
	<wpt lat="56.828266" lon="-5.048541">
		<ele>206.073975</ele>
		<name>New marker</name>
	</wpt>
	<wpt lat="56.828250" lon="-5.047060">
		<ele>225.122437</ele>
		<name>New marker</name>
	</wpt>
	<wpt lat="56.826940" lon="-5.047833">
		<ele>253.457932</ele>
		<name>New marker</name>
	</wpt>
	<wpt lat="56.831030" lon="-5.038821">
		<ele>253.648651</ele>
		<name>New marker</name>
	</wpt>
	<wpt lat="56.831085" lon="-5.038359">
		<ele>254.798340</ele>
		<name>New marker</name>
	</wpt>
	<wpt lat="56.830650" lon="-5.038070">
		<ele>260.981201</ele>
		<name>New marker</name>
	</wpt>
	<wpt lat="56.830120" lon="-5.037072">
		<ele>269.726074</ele>
		<name>New marker</name>
	</wpt>
	<wpt lat="56.824238" lon="-5.029830">
		<ele>342.063599</ele>
		<name>New marker</name>
	</wpt>
	<wpt lat="56.823875" lon="-5.028028">
		<ele>359.590820</ele>
		<name>New marker</name>
	</wpt>
	<wpt lat="56.823627" lon="-5.027105">
		<ele>370.661743</ele>
		<name>New marker</name>
	</wpt>
	<wpt lat="56.823547" lon="-5.025989">
		<ele>381.937164</ele>
		<name>New marker</name>
	</wpt>
	<wpt lat="56.823322" lon="-5.024723">
		<ele>400.189606</ele>
		<name>New marker</name>
	</wpt>
	<wpt lat="56.823055" lon="-5.023328">
		<ele>427.699890</ele>
		<name>New marker</name>
	</wpt>
	<wpt lat="56.822796" lon="-5.022427">
		<ele>443.632843</ele>
		<name>New marker</name>
	</wpt>
	<wpt lat="56.822468" lon="-5.021268">
		<ele>463.818939</ele>
		<name>New marker</name>
	</wpt>
	<wpt lat="56.822210" lon="-5.020303">
		<ele>481.460266</ele>
		<name>New marker</name>
	</wpt>
	<wpt lat="56.821896" lon="-5.019309">
		<ele>501.805237</ele>
		<name>New marker</name>
	</wpt>
	<wpt lat="56.821705" lon="-5.018372">
		<ele>524.165283</ele>
		<name>New marker</name>
	</wpt>
	<wpt lat="56.821410" lon="-5.017664">
		<ele>544.123657</ele>
		<name>New marker</name>
	</wpt>
	<wpt lat="56.814750" lon="-5.000240">
		<ele>970.839294</ele>
		<name>New marker</name>
	</wpt>
	<wpt lat="56.810486" lon="-4.991399">
		<ele>1146.481201</ele>
		<name>New marker</name>
	</wpt>
	<wpt lat="56.809760" lon="-4.989361">
		<ele>1155.695923</ele>
		<name>New marker</name>
	</wpt>
	<wpt lat="56.809680" lon="-4.989154">
		<ele>1147.963623</ele>
		<name>New marker</name>
	</wpt>
	<wpt lat="56.809685" lon="-4.989291">
		<ele>1151.984619</ele>
		<name>New marker</name>
	</wpt>
	<wpt lat="56.809605" lon="-4.989436">
		<ele>1153.098145</ele>
		<name>New marker</name>
	</wpt>
	<wpt lat="56.809520" lon="-4.989522">
		<ele>1151.827515</ele>
		<name>New marker</name>
	</wpt>
	<wpt lat="56.808010" lon="-4.989424">
		<ele>1143.140869</ele>
		<name>New marker</name>
	</wpt>
	<wpt lat="56.805256" lon="-4.986657">
		<ele>1191.536499</ele>
		<name>New marker</name>
	</wpt>
	<wpt lat="56.800316" lon="-4.986917">
		<ele>1105.284912</ele>
		<name>New marker</name>
	</wpt>
	<wpt lat="56.799393" lon="-4.987460">
		<ele>1083.658569</ele>
		<name>New marker</name>
	</wpt>
	<wpt lat="56.795240" lon="-4.993841">
		<ele>1095.011353</ele>
		<name>New marker</name>
	</wpt>
	<wpt lat="56.794548" lon="-4.997092">
		<ele>1135.755859</ele>
		<name>New marker</name>
	</wpt>
	<wpt lat="56.796772" lon="-5.003438">
		<ele>1340.179688</ele>
		<name>New marker</name>
	</wpt>
	<wpt lat="56.796860" lon="-5.003525">
		<ele>1339.373413</ele>
		<name>New marker</name>
	</wpt>
	<wpt lat="56.796760" lon="-5.003508">
		<ele>1340.312378</ele>
		<name>New marker</name>
	</wpt>
	<wpt lat="56.796684" lon="-5.003465">
		<ele>1340.938721</ele>
		<name>New marker</name>
	</wpt>
	<wpt lat="56.796660" lon="-5.003568">
		<ele>1341.368896</ele>
		<name>New marker</name>
	</wpt>
	<wpt lat="56.796715" lon="-5.003662">
		<ele>1340.895386</ele>
		<name>New marker</name>
	</wpt>
	<wpt lat="56.796480" lon="-5.004494">
		<ele>1339.069580</ele>
		<name>New marker</name>
	</wpt>
	<wpt lat="56.795440" lon="-5.017846">
		<ele>1220.457397</ele>
		<name>New marker</name>
	</wpt>
	<wpt lat="56.798900" lon="-5.022556">
		<ele>1128.225586</ele>
		<name>New marker</name>
	</wpt>
	<wpt lat="56.796550" lon="-5.028810">
		<ele>947.260559</ele>
		<name>New marker</name>
	</wpt>
	<wpt lat="56.798203" lon="-5.036117">
		<ele>758.411560</ele>
		<name>New marker</name>
	</wpt>
	<wpt lat="56.806168" lon="-5.036289">
		<ele>633.533630</ele>
		<name>New marker</name>
	</wpt>
	<wpt lat="56.803055" lon="-5.041814">
		<ele>506.442810</ele>
		<name>New marker</name>
	</wpt>
	<wpt lat="56.802128" lon="-5.058776">
		<ele>176.834061</ele>
		<name>New marker</name>
	</wpt>
	<wpt lat="56.809288" lon="-5.071222">
		<ele>49.911415</ele>
		<name>New marker</name>
	</wpt>
	<wpt lat="56.810345" lon="-5.071694">
		<ele>39.878906</ele>
		<name>New marker</name>
	</wpt>
	<wpt lat="56.815876" lon="-5.075460">
		<ele>17.399256</ele>
		<name>New marker</name>
	</wpt>
	<wpt lat="56.819640" lon="-5.077294">
		<ele>15.834663</ele>
		<name>New marker</name>
	</wpt>
	<wpt lat="56.820180" lon="-5.077552">
		<ele>16.516293</ele>
		<name>New marker</name>
	</wpt>
	<wpt lat="56.820415" lon="-5.078442">
		<ele>16.697515</ele>
		<name>New marker</name>
	</wpt>
	<wpt lat="56.820667" lon="-5.079783">
		<ele>11.912241</ele>
		<name>New marker</name>
	</wpt>
	<wpt lat="56.820840" lon="-5.080266">
		<ele>8.578259</ele>
		<name>New marker</name>
	</wpt>
	<wpt lat="56.820946" lon="-5.080556">
		<ele>7.283693</ele>
		<name>New marker</name>
	</wpt>
	<wpt lat="56.821262" lon="-5.081758">
		<ele>7.356733</ele>
		<name>New marker</name>
	</wpt>
	<wpt lat="56.821632" lon="-5.082927">
		<ele>8.026097</ele>
		<name>New marker</name>
	</wpt>
	<wpt lat="56.821710" lon="-5.083174">
		<ele>7.526016</ele>
		<name>New marker</name>
	</wpt>
	<wpt lat="56.821720" lon="-5.083506">
		<ele>7.070722</ele>
		<name>New marker</name>
	</wpt>
	<wpt lat="56.821766" lon="-5.086714">
		<ele>9.267338</ele>
		<name>New marker</name>
	</wpt>
	<wpt lat="56.822002" lon="-5.087218">
		<ele>12.385273</ele>
		<name>New marker</name>
	</wpt>
	<wpt lat="56.821926" lon="-5.088377">
		<ele>9.614090</ele>
		<name>New marker</name>
	</wpt>
	<wpt lat="56.821910" lon="-5.088710">
		<ele>9.390590</ele>
		<name>New marker</name>
	</wpt>
	<wpt lat="56.821888" lon="-5.091864">
		<ele>7.083919</ele>
		<name>New marker</name>
	</wpt>
	<wpt lat="56.821373" lon="-5.091800">
		<ele>15.368811</ele>
		<name>New marker</name>
	</wpt>
	<wpt lat="56.821365" lon="-5.094267">
		<ele>12.841438</ele>
		<name>New marker</name>
	</wpt>
	<wpt lat="56.821600" lon="-5.095769">
		<ele>10.166534</ele>
		<name>New marker</name>
	</wpt>
	<wpt lat="56.821724" lon="-5.097271">
		<ele>9.999999</ele>
		<name>New marker</name>
	</wpt>
	<wpt lat="56.821304" lon="-5.098902">
		<ele>9.698709</ele>
		<name>New marker</name>
	</wpt>
	<wpt lat="56.821120" lon="-5.099460">
		<ele>10.157552</ele>
		<name>New marker</name>
	</wpt>
	<wpt lat="56.820362" lon="-5.102035">
		<ele>16.655739</ele>
		<name>New marker</name>
	</wpt>
	<wpt lat="56.820156" lon="-5.102872">
		<ele>14.338527</ele>
		<name>New marker</name>
	</wpt>
	<wpt lat="56.820004" lon="-5.103526">
		<ele>12.946873</ele>
		<name>New marker</name>
	</wpt>
	<wpt lat="56.819782" lon="-5.104384">
		<ele>11.519413</ele>
		<name>New marker</name>
	</wpt>
	<wpt lat="56.819740" lon="-5.104717">
		<ele>10.821560</ele>
		<name>New marker</name>
	</wpt>
	<wpt lat="56.819695" lon="-5.105211">
		<ele>10.312676</ele>
		<name>New marker</name>
	</wpt>
	<wpt lat="56.819700" lon="-5.105404">
		<ele>9.773621</ele>
		<name>New marker</name>
	</wpt>
	<wpt lat="56.819614" lon="-5.106037">
		<ele>9.320979</ele>
		<name>New marker</name>
	</wpt>
	<wpt lat="56.819640" lon="-5.106273">
		<ele>9.142022</ele>
		<name>New marker</name>
	</wpt>
	<wpt lat="56.819633" lon="-5.106858">
		<ele>8.454594</ele>
		<name>New marker</name>
	</wpt>
	<wpt lat="56.819584" lon="-5.107013">
		<ele>8.530424</ele>
		<name>New marker</name>
	</wpt>
	<wpt lat="56.819458" lon="-5.107582">
		<ele>7.802702</ele>
		<name>New marker</name>
	</wpt>
	<wpt lat="56.819313" lon="-5.108231">
		<ele>8.064124</ele>
		<name>New marker</name>
	</wpt>
	<wpt lat="56.819183" lon="-5.109024">
		<ele>7.198505</ele>
		<name>New marker</name>
	</wpt>
	<wpt lat="56.818893" lon="-5.109491">
		<ele>7.705110</ele>
		<name>New marker</name>
	</wpt>
	<wpt lat="56.818770" lon="-5.109712">
		<ele>7.655180</ele>
		<name>New marker</name>
	</wpt>
	<wpt lat="56.818600" lon="-5.109980">
		<ele>8.562800</ele>
		<name>New marker</name>
	</wpt>
	<wpt lat="56.818302" lon="-5.110511">
		<ele>9.416512</ele>
		<name>New marker</name>
	</wpt>
	<wpt lat="56.818043" lon="-5.110983">
		<ele>9.797699</ele>
		<name>New marker</name>
	</wpt>
	<wpt lat="56.817802" lon="-5.111374">
		<ele>10.342264</ele>
		<name>New marker</name>
	</wpt>
	<wpt lat="56.817574" lon="-5.111863">
		<ele>10.504995</ele>
		<name>New marker</name>
	</wpt>
	<wpt lat="56.817640" lon="-5.111946">
		<ele>9.290264</ele>
		<name>New marker</name>
	</wpt>
	<wpt lat="56.817570" lon="-5.111873">
		<ele>10.479624</ele>
		<name>New marker</name>
	</wpt>
	<wpt lat="56.817390" lon="-5.112158">
		<ele>10.590783</ele>
		<name>New marker</name>
	</wpt>
	<wpt lat="56.817070" lon="-5.112748">
		<ele>10.667115</ele>
		<name>New marker</name>
	</wpt>
	<wpt lat="56.817383" lon="-5.112093">
		<ele>11.389271</ele>
		<name>New marker</name>
	</wpt>
	<wpt lat="56.817570" lon="-5.111782">
		<ele>11.171600</ele>
		<name>New marker</name>
	</wpt>
	<wpt lat="56.817802" lon="-5.111332">
		<ele>10.467983</ele>
		<name>New marker</name>
	</wpt>
	<wpt lat="56.818035" lon="-5.110929">
		<ele>9.955108</ele>
		<name>New marker</name>
	</wpt>
	<wpt lat="56.818295" lon="-5.110452">
		<ele>9.745161</ele>
		<name>New marker</name>
	</wpt>
	<wpt lat="56.818596" lon="-5.109953">
		<ele>8.640402</ele>
		<name>New marker</name>
	</wpt>
	<wpt lat="56.818893" lon="-5.109470">
		<ele>7.766381</ele>
		<name>New marker</name>
	</wpt>
	<wpt lat="56.819160" lon="-5.108987">
		<ele>7.390558</ele>
		<name>New marker</name>
	</wpt>
	<wpt lat="56.819275" lon="-5.108832">
		<ele>7.207583</ele>
		<name>New marker</name>
	</wpt>
	<wpt lat="56.819520" lon="-5.108376">
		<ele>6.872393</ele>
		<name>New marker</name>
	</wpt>
	<wpt lat="56.819862" lon="-5.107769">
		<ele>6.986984</ele>
		<name>New marker</name>
	</wpt>
	<wpt lat="56.820053" lon="-5.107474">
		<ele>7.000000</ele>
		<name>New marker</name>
	</wpt>
	<wpt lat="56.820152" lon="-5.107281">
		<ele>7.000000</ele>
		<name>New marker</name>
	</wpt>
	<wpt lat="56.820390" lon="-5.106820">
		<ele>6.523706</ele>
		<name>New marker</name>
	</wpt>
	<wpt lat="56.820490" lon="-5.106637">
		<ele>6.078985</ele>
		<name>New marker</name>
	</wpt>
	<wpt lat="56.820568" lon="-5.106509">
		<ele>6.000000</ele>
		<name>New marker</name>
	</wpt>
	<wpt lat="56.820620" lon="-5.106241">
		<ele>6.000000</ele>
		<name>New marker</name>
	</wpt>
	<wpt lat="56.820717" lon="-5.106284">
		<ele>6.000000</ele>
		<name>New marker</name>
	</wpt>
	<wpt lat="56.820885" lon="-5.105449">
		<ele>5.927959</ele>
		<name>New marker</name>
	</wpt>
	<wpt lat="56.821117" lon="-5.104264">
		<ele>5.686836</ele>
		<name>New marker</name>
	</wpt>
	<wpt lat="56.820957" lon="-5.105104">
		<ele>6.286602</ele>
		<name>New marker</name>
	</wpt>
	<wpt lat="56.821010" lon="-5.104848">
		<ele>6.118367</ele>
		<name>New marker</name>
	</wpt>
</gpx>

