<?xml version="1.0" encoding="utf-8"?>
<gpx xmlns="http://www.topografix.com/GPX/1/1" version="1.1" creator="https://mapy.com/">
	<wpt lat="50.871500" lon="18.843160">
		<ele>288.587463</ele>
		<name>New marker</name>
	</wpt>
	<wpt lat="50.871887" lon="18.842838">
		<ele>288.410370</ele>
		<name>New marker</name>
	</wpt>
	<wpt lat="50.872150" lon="18.843418">
		<ele>290.981720</ele>
		<name>New marker</name>
	</wpt>
	<wpt lat="50.872290" lon="18.843763">
		<ele>292.576538</ele>
		<name>New marker</name>
	</wpt>
	<wpt lat="50.872440" lon="18.844210">
		<ele>295.072540</ele>
		<name>New marker</name>
	</wpt>
	<wpt lat="50.872640" lon="18.844635">
		<ele>297.595093</ele>
		<name>New marker</name>
	</wpt>
	<wpt lat="50.872800" lon="18.845049">
		<ele>300.985352</ele>
		<name>New marker</name>
	</wpt>
	<wpt lat="50.872920" lon="18.844872">
		<ele>301.104828</ele>
		<name>New marker</name>
	</wpt>
	<wpt lat="50.873055" lon="18.844687">
		<ele>301.277283</ele>
		<name>New marker</name>
	</wpt>
	<wpt lat="50.873165" lon="18.844793">
		<ele>302.424377</ele>
		<name>New marker</name>
	</wpt>
	<wpt lat="50.873250" lon="18.845024">
		<ele>303.524963</ele>
		<name>New marker</name>
	</wpt>
	<wpt lat="50.873325" lon="18.845167">
		<ele>304.475342</ele>
		<name>New marker</name>
	</wpt>
	<wpt lat="50.873430" lon="18.845385">
		<ele>304.761047</ele>
		<name>New marker</name>
	</wpt>
	<wpt lat="50.873493" lon="18.845596">
		<ele>304.096069</ele>
		<name>New marker</name>
	</wpt>
	<wpt lat="50.873432" lon="18.845829">
		<ele>303.879364</ele>
		<name>New marker</name>
	</wpt>
	<wpt lat="50.873340" lon="18.845955">
		<ele>303.776123</ele>
		<name>New marker</name>
	</wpt>
	<wpt lat="50.873295" lon="18.846024">
		<ele>303.622467</ele>
		<name>New marker</name>
	</wpt>
	<wpt lat="50.873363" lon="18.846140">
		<ele>303.434021</ele>
		<name>New marker</name>
	</wpt>
	<wpt lat="50.873400" lon="18.846237">
		<ele>303.400024</ele>
		<name>New marker</name>
	</wpt>
	<wpt lat="50.873344" lon="18.846106">
		<ele>303.464111</ele>
		<name>New marker</name>
	</wpt>
	<wpt lat="50.873295" lon="18.846025">
		<ele>303.621216</ele>
		<name>New marker</name>
	</wpt>
	<wpt lat="50.873394" lon="18.845882">
		<ele>303.799988</ele>
		<name>New marker</name>
	</wpt>
	<wpt lat="50.873512" lon="18.845694">
		<ele>304.000000</ele>
		<name>New marker</name>
	</wpt>
	<wpt lat="50.873486" lon="18.845503">
		<ele>304.427002</ele>
		<name>New marker</name>
	</wpt>
	<wpt lat="50.873543" lon="18.845339">
		<ele>304.108368</ele>
		<name>New marker</name>
	</wpt>
	<wpt lat="50.873554" lon="18.845133">
		<ele>303.843323</ele>
		<name>New marker</name>
	</wpt>
	<wpt lat="50.873558" lon="18.845036">
		<ele>303.732056</ele>
		<name>New marker</name>
	</wpt>
	<wpt lat="50.873570" lon="18.844929">
		<ele>303.600037</ele>
		<name>New marker</name>
	</wpt>
	<wpt lat="50.873535" lon="18.845024">
		<ele>303.764282</ele>
		<name>New marker</name>
	</wpt>
	<wpt lat="50.873480" lon="18.845083">
		<ele>304.055206</ele>
		<name>New marker</name>
	</wpt>
	<wpt lat="50.873430" lon="18.845148">
		<ele>304.233521</ele>
		<name>New marker</name>
	</wpt>
	<wpt lat="50.873356" lon="18.845242">
		<ele>304.865417</ele>
		<name>New marker</name>
	</wpt>
	<wpt lat="50.873300" lon="18.845087">
		<ele>303.931915</ele>
		<name>New marker</name>
	</wpt>
	<wpt lat="50.873226" lon="18.844880">
		<ele>303.099792</ele>
		<name>New marker</name>
	</wpt>
	<wpt lat="50.873127" lon="18.844744">
		<ele>301.945557</ele>
		<name>New marker</name>
	</wpt>
	<wpt lat="50.873013" lon="18.844751">
		<ele>301.343628</ele>
		<name>New marker</name>
	</wpt>
	<wpt lat="50.872875" lon="18.844963">
		<ele>301.129547</ele>
		<name>New marker</name>
	</wpt>
	<wpt lat="50.872790" lon="18.845060">
		<ele>301.030090</ele>
		<name>New marker</name>
	</wpt>
	<wpt lat="50.872665" lon="18.844719">
		<ele>298.243439</ele>
		<name>New marker</name>
	</wpt>
	<wpt lat="50.872528" lon="18.844355">
		<ele>295.975433</ele>
		<name>New marker</name>
	</wpt>
	<wpt lat="50.872380" lon="18.843973">
		<ele>293.802307</ele>
		<name>New marker</name>
	</wpt>
	<wpt lat="50.872220" lon="18.843588">
		<ele>291.831940</ele>
		<name>New marker</name>
	</wpt>
	<wpt lat="50.872130" lon="18.843407">
		<ele>290.931152</ele>
		<name>New marker</name>
	</wpt>
	<wpt lat="50.871872" lon="18.842833">
		<ele>288.351257</ele>
		<name>New marker</name>
	</wpt>
	<wpt lat="50.871494" lon="18.843153">
		<ele>288.575897</ele>
		<name>New marker</name>
	</wpt>
</gpx>

