<?xml version="1.0" encoding="utf-8"?>
<gpx xmlns="http://www.topografix.com/GPX/1/1" version="1.1" creator="https://mapy.com/">
	<wpt lat="64.146996" lon="-21.951680">
		<ele>20.257433</ele>
		<name>New marker</name>
	</wpt>
	<wpt lat="64.146866" lon="-21.952002">
		<ele>19.866863</ele>
		<name>New marker</name>
	</wpt>
	<wpt lat="64.147180" lon="-21.952720">
		<ele>19.429430</ele>
		<name>New marker</name>
	</wpt>
	<wpt lat="64.146810" lon="-21.953703">
		<ele>18.433058</ele>
		<name>New marker</name>
	</wpt>
	<wpt lat="64.146760" lon="-21.953884">
		<ele>18.057636</ele>
		<name>New marker</name>
	</wpt>
	<wpt lat="64.146416" lon="-21.954840">
		<ele>15.199588</ele>
		<name>New marker</name>
	</wpt>
	<wpt lat="64.146330" lon="-21.954824">
		<ele>15.387735</ele>
		<name>New marker</name>
	</wpt>
	<wpt lat="64.146225" lon="-21.955109">
		<ele>16.028843</ele>
		<name>New marker</name>
	</wpt>
	<wpt lat="64.146240" lon="-21.955242">
		<ele>16.167618</ele>
		<name>New marker</name>
	</wpt>
	<wpt lat="64.145880" lon="-21.956224">
		<ele>15.303029</ele>
		<name>New marker</name>
	</wpt>
	<wpt lat="64.145480" lon="-21.957361">
		<ele>13.764200</ele>
		<name>New marker</name>
	</wpt>
	<wpt lat="64.145060" lon="-21.958498">
		<ele>15.509310</ele>
		<name>New marker</name>
	</wpt>
	<wpt lat="64.144680" lon="-21.959620">
		<ele>13.413549</ele>
		<name>New marker</name>
	</wpt>
	<wpt lat="64.144630" lon="-21.959743">
		<ele>13.149375</ele>
		<name>New marker</name>
	</wpt>
	<wpt lat="64.144560" lon="-21.959984">
		<ele>13.042251</ele>
		<name>New marker</name>
	</wpt>
	<wpt lat="64.144240" lon="-21.960890">
		<ele>13.748299</ele>
		<name>New marker</name>
	</wpt>
	<wpt lat="64.144090" lon="-21.961170">
		<ele>12.674723</ele>
		<name>New marker</name>
	</wpt>
	<wpt lat="64.144060" lon="-21.960955">
		<ele>13.255713</ele>
		<name>New marker</name>
	</wpt>
	<wpt lat="64.144090" lon="-21.961197">
		<ele>12.587620</ele>
		<name>New marker</name>
	</wpt>
	<wpt lat="64.144066" lon="-21.961342">
		<ele>12.107866</ele>
		<name>New marker</name>
	</wpt>
	<wpt lat="64.144035" lon="-21.961449">
		<ele>12.000000</ele>
		<name>New marker</name>
	</wpt>
	<wpt lat="64.143870" lon="-21.961916">
		<ele>12.888201</ele>
		<name>New marker</name>
	</wpt>
	<wpt lat="64.143790" lon="-21.962156">
		<ele>13.621388</ele>
		<name>New marker</name>
	</wpt>
	<wpt lat="64.143530" lon="-21.962837">
		<ele>10.588728</ele>
		<name>New marker</name>
	</wpt>
	<wpt lat="64.143290" lon="-21.963263">
		<ele>9.598587</ele>
		<name>New marker</name>
	</wpt>
	<wpt lat="64.143140" lon="-21.963509">
		<ele>9.657915</ele>
		<name>New marker</name>
	</wpt>
	<wpt lat="64.143105" lon="-21.963959">
		<ele>9.639992</ele>
		<name>New marker</name>
	</wpt>
	<wpt lat="64.142880" lon="-21.964672">
		<ele>8.347298</ele>
		<name>New marker</name>
	</wpt>
	<wpt lat="64.142390" lon="-21.965912">
		<ele>5.715421</ele>
		<name>New marker</name>
	</wpt>
	<wpt lat="64.142310" lon="-21.966314">
		<ele>4.485994</ele>
		<name>New marker</name>
	</wpt>
	<wpt lat="64.141304" lon="-21.965687">
		<ele>3.928052</ele>
		<name>New marker</name>
	</wpt>
	<wpt lat="64.140680" lon="-21.965054">
		<ele>3.381099</ele>
		<name>New marker</name>
	</wpt>
	<wpt lat="64.139830" lon="-21.964420">
		<ele>3.727027</ele>
		<name>New marker</name>
	</wpt>
	<wpt lat="64.138920" lon="-21.963840">
		<ele>3.783450</ele>
		<name>New marker</name>
	</wpt>
	<wpt lat="64.138350" lon="-21.963192">
		<ele>4.780229</ele>
		<name>New marker</name>
	</wpt>
	<wpt lat="64.137870" lon="-21.962751">
		<ele>4.872139</ele>
		<name>New marker</name>
	</wpt>
	<wpt lat="64.136500" lon="-21.962355">
		<ele>4.119131</ele>
		<name>New marker</name>
	</wpt>
	<wpt lat="64.135570" lon="-21.961662">
		<ele>3.288486</ele>
		<name>New marker</name>
	</wpt>
	<wpt lat="64.133940" lon="-21.961008">
		<ele>2.437476</ele>
		<name>New marker</name>
	</wpt>
	<wpt lat="64.133835" lon="-21.961084">
		<ele>2.074141</ele>
		<name>New marker</name>
	</wpt>
	<wpt lat="64.133760" lon="-21.961058">
		<ele>2.000000</ele>
		<name>New marker</name>
	</wpt>
	<wpt lat="64.133835" lon="-21.961090">
		<ele>2.074013</ele>
		<name>New marker</name>
	</wpt>
	<wpt lat="64.133934" lon="-21.961018">
		<ele>2.399211</ele>
		<name>New marker</name>
	</wpt>
	<wpt lat="64.132450" lon="-21.959171">
		<ele>4.000000</ele>
		<name>New marker</name>
	</wpt>
	<wpt lat="64.132340" lon="-21.959106">
		<ele>4.000000</ele>
		<name>New marker</name>
	</wpt>
	<wpt lat="64.130710" lon="-21.959091">
		<ele>6.392668</ele>
		<name>New marker</name>
	</wpt>
	<wpt lat="64.128910" lon="-21.958437">
		<ele>3.249805</ele>
		<name>New marker</name>
	</wpt>
	<wpt lat="64.127150" lon="-21.952932">
		<ele>4.738383</ele>
		<name>New marker</name>
	</wpt>
	<wpt lat="64.126060" lon="-21.950378">
		<ele>4.454349</ele>
		<name>New marker</name>
	</wpt>
	<wpt lat="64.125570" lon="-21.950138">
		<ele>4.848151</ele>
		<name>New marker</name>
	</wpt>
	<wpt lat="64.124800" lon="-21.949247">
		<ele>2.000000</ele>
		<name>New marker</name>
	</wpt>
	<wpt lat="64.124960" lon="-21.946634">
		<ele>3.000000</ele>
		<name>New marker</name>
	</wpt>
	<wpt lat="64.124695" lon="-21.942493">
		<ele>2.918289</ele>
		<name>New marker</name>
	</wpt>
	<wpt lat="64.122970" lon="-21.940851">
		<ele>2.129631</ele>
		<name>New marker</name>
	</wpt>
	<wpt lat="64.120926" lon="-21.938572">
		<ele>3.613396</ele>
		<name>New marker</name>
	</wpt>
	<wpt lat="64.121320" lon="-21.932484">
		<ele>4.992815</ele>
		<name>New marker</name>
	</wpt>
	<wpt lat="64.121940" lon="-21.931175">
		<ele>4.560461</ele>
		<name>New marker</name>
	</wpt>
	<wpt lat="64.121940" lon="-21.930548">
		<ele>4.325293</ele>
		<name>New marker</name>
	</wpt>
	<wpt lat="64.121735" lon="-21.930525">
		<ele>2.741152</ele>
		<name>New marker</name>
	</wpt>
	<wpt lat="64.121925" lon="-21.930548">
		<ele>4.129805</ele>
		<name>New marker</name>
	</wpt>
	<wpt lat="64.121956" lon="-21.930187">
		<ele>4.828282</ele>
		<name>New marker</name>
	</wpt>
	<wpt lat="64.121956" lon="-21.929924">
		<ele>4.828282</ele>
		<name>New marker</name>
	</wpt>
	<wpt lat="64.121970" lon="-21.929083">
		<ele>6.641589</ele>
		<name>New marker</name>
	</wpt>
	<wpt lat="64.121956" lon="-21.928616">
		<ele>6.552188</ele>
		<name>New marker</name>
	</wpt>
	<wpt lat="64.121960" lon="-21.928444">
		<ele>6.596889</ele>
		<name>New marker</name>
	</wpt>
	<wpt lat="64.121960" lon="-21.928230">
		<ele>6.668548</ele>
		<name>New marker</name>
	</wpt>
	<wpt lat="64.122000" lon="-21.927715">
		<ele>7.410194</ele>
		<name>New marker</name>
	</wpt>
	<wpt lat="64.122210" lon="-21.926458">
		<ele>9.306579</ele>
		<name>New marker</name>
	</wpt>
	<wpt lat="64.122360" lon="-21.925571">
		<ele>11.941277</ele>
		<name>New marker</name>
	</wpt>
	<wpt lat="64.122410" lon="-21.925140">
		<ele>12.094972</ele>
		<name>New marker</name>
	</wpt>
	<wpt lat="64.122284" lon="-21.922548">
		<ele>15.474290</ele>
		<name>New marker</name>
	</wpt>
	<wpt lat="64.122154" lon="-21.921840">
		<ele>14.714388</ele>
		<name>New marker</name>
	</wpt>
	<wpt lat="64.122240" lon="-21.921717">
		<ele>15.328040</ele>
		<name>New marker</name>
	</wpt>
	<wpt lat="64.122460" lon="-21.920982">
		<ele>19.256176</ele>
		<name>New marker</name>
	</wpt>
	<wpt lat="64.122826" lon="-21.920773">
		<ele>24.245264</ele>
		<name>New marker</name>
	</wpt>
	<wpt lat="64.123200" lon="-21.920633">
		<ele>28.085732</ele>
		<name>New marker</name>
	</wpt>
	<wpt lat="64.123520" lon="-21.922000">
		<ele>27.924473</ele>
		<name>New marker</name>
	</wpt>
	<wpt lat="64.123604" lon="-21.922014">
		<ele>28.383181</ele>
		<name>New marker</name>
	</wpt>
	<wpt lat="64.124040" lon="-21.921162">
		<ele>30.683329</ele>
		<name>New marker</name>
	</wpt>
	<wpt lat="64.124340" lon="-21.920640">
		<ele>34.918938</ele>
		<name>New marker</name>
	</wpt>
	<wpt lat="64.125120" lon="-21.919466">
		<ele>39.979595</ele>
		<name>New marker</name>
	</wpt>
	<wpt lat="64.125160" lon="-21.919285">
		<ele>40.326202</ele>
		<name>New marker</name>
	</wpt>
	<wpt lat="64.125310" lon="-21.919290">
		<ele>41.142117</ele>
		<name>New marker</name>
	</wpt>
	<wpt lat="64.126870" lon="-21.918507">
		<ele>45.805920</ele>
		<name>New marker</name>
	</wpt>
	<wpt lat="64.128010" lon="-21.918179">
		<ele>52.138462</ele>
		<name>New marker</name>
	</wpt>
	<wpt lat="64.128174" lon="-21.918129">
		<ele>53.179619</ele>
		<name>New marker</name>
	</wpt>
	<wpt lat="64.128480" lon="-21.917997">
		<ele>55.204693</ele>
		<name>New marker</name>
	</wpt>
	<wpt lat="64.128610" lon="-21.918268">
		<ele>56.295918</ele>
		<name>New marker</name>
	</wpt>
	<wpt lat="64.128710" lon="-21.918468">
		<ele>57.145344</ele>
		<name>New marker</name>
	</wpt>
	<wpt lat="64.128815" lon="-21.918716">
		<ele>58.475029</ele>
		<name>New marker</name>
	</wpt>
	<wpt lat="64.128870" lon="-21.918453">
		<ele>58.319649</ele>
		<name>New marker</name>
	</wpt>
	<wpt lat="64.128870" lon="-21.918304">
		<ele>58.050419</ele>
		<name>New marker</name>
	</wpt>
	<wpt lat="64.128914" lon="-21.918196">
		<ele>58.318615</ele>
		<name>New marker</name>
	</wpt>
	<wpt lat="64.128980" lon="-21.918040">
		<ele>58.720913</ele>
		<name>New marker</name>
	</wpt>
	<wpt lat="64.129100" lon="-21.917912">
		<ele>58.734154</ele>
		<name>New marker</name>
	</wpt>
	<wpt lat="64.129166" lon="-21.917880">
		<ele>58.743347</ele>
		<name>New marker</name>
	</wpt>
	<wpt lat="64.129210" lon="-21.918080">
		<ele>59.256714</ele>
		<name>New marker</name>
	</wpt>
	<wpt lat="64.129310" lon="-21.918083">
		<ele>59.424732</ele>
		<name>New marker</name>
	</wpt>
	<wpt lat="64.129456" lon="-21.918165">
		<ele>59.890079</ele>
		<name>New marker</name>
	</wpt>
	<wpt lat="64.129555" lon="-21.918327">
		<ele>60.649555</ele>
		<name>New marker</name>
	</wpt>
	<wpt lat="64.129580" lon="-21.918404">
		<ele>61.169586</ele>
		<name>New marker</name>
	</wpt>
	<wpt lat="64.129616" lon="-21.918499">
		<ele>61.851292</ele>
		<name>New marker</name>
	</wpt>
	<wpt lat="64.129654" lon="-21.918758">
		<ele>63.943203</ele>
		<name>New marker</name>
	</wpt>
	<wpt lat="64.129670" lon="-21.919003">
		<ele>65.869850</ele>
		<name>New marker</name>
	</wpt>
	<wpt lat="64.129670" lon="-21.919132">
		<ele>66.042046</ele>
		<name>New marker</name>
	</wpt>
	<wpt lat="64.129650" lon="-21.919360">
		<ele>65.657410</ele>
		<name>New marker</name>
	</wpt>
	<wpt lat="64.129610" lon="-21.919556">
		<ele>64.799652</ele>
		<name>New marker</name>
	</wpt>
	<wpt lat="64.129570" lon="-21.919697">
		<ele>64.080566</ele>
		<name>New marker</name>
	</wpt>
	<wpt lat="64.129540" lon="-21.919783">
		<ele>63.486965</ele>
		<name>New marker</name>
	</wpt>
	<wpt lat="64.129470" lon="-21.919888">
		<ele>62.719063</ele>
		<name>New marker</name>
	</wpt>
	<wpt lat="64.129410" lon="-21.919947">
		<ele>62.321312</ele>
		<name>New marker</name>
	</wpt>
	<wpt lat="64.129360" lon="-21.919981">
		<ele>61.915405</ele>
		<name>New marker</name>
	</wpt>
	<wpt lat="64.129250" lon="-21.920027">
		<ele>60.368359</ele>
		<name>New marker</name>
	</wpt>
	<wpt lat="64.129180" lon="-21.920004">
		<ele>59.904312</ele>
		<name>New marker</name>
	</wpt>
	<wpt lat="64.129105" lon="-21.920004">
		<ele>59.143948</ele>
		<name>New marker</name>
	</wpt>
	<wpt lat="64.129166" lon="-21.920012">
		<ele>59.689800</ele>
		<name>New marker</name>
	</wpt>
	<wpt lat="64.129326" lon="-21.920000">
		<ele>61.390720</ele>
		<name>New marker</name>
	</wpt>
	<wpt lat="64.129410" lon="-21.919954">
		<ele>62.234417</ele>
		<name>New marker</name>
	</wpt>
	<wpt lat="64.129470" lon="-21.919912">
		<ele>62.449638</ele>
		<name>New marker</name>
	</wpt>
	<wpt lat="64.129640" lon="-21.920510">
		<ele>58.156639</ele>
		<name>New marker</name>
	</wpt>
	<wpt lat="64.130060" lon="-21.922132">
		<ele>52.987782</ele>
		<name>New marker</name>
	</wpt>
	<wpt lat="64.130440" lon="-21.922543">
		<ele>50.581562</ele>
		<name>New marker</name>
	</wpt>
	<wpt lat="64.130050" lon="-21.922146">
		<ele>53.009762</ele>
		<name>New marker</name>
	</wpt>
	<wpt lat="64.129740" lon="-21.923130">
		<ele>51.043125</ele>
		<name>New marker</name>
	</wpt>
	<wpt lat="64.129590" lon="-21.923325">
		<ele>49.780060</ele>
		<name>New marker</name>
	</wpt>
	<wpt lat="64.129550" lon="-21.923563">
		<ele>48.549530</ele>
		<name>New marker</name>
	</wpt>
	<wpt lat="64.129670" lon="-21.924114">
		<ele>44.695045</ele>
		<name>New marker</name>
	</wpt>
	<wpt lat="64.130220" lon="-21.923609">
		<ele>47.800167</ele>
		<name>New marker</name>
	</wpt>
	<wpt lat="64.130260" lon="-21.923391">
		<ele>48.962368</ele>
		<name>New marker</name>
	</wpt>
	<wpt lat="64.130280" lon="-21.923069">
		<ele>50.561966</ele>
		<name>New marker</name>
	</wpt>
	<wpt lat="64.130295" lon="-21.922916">
		<ele>50.964268</ele>
		<name>New marker</name>
	</wpt>
	<wpt lat="64.130440" lon="-21.922562">
		<ele>50.574341</ele>
		<name>New marker</name>
	</wpt>
	<wpt lat="64.130730" lon="-21.921982">
		<ele>50.847694</ele>
		<name>New marker</name>
	</wpt>
	<wpt lat="64.130990" lon="-21.921028">
		<ele>50.098396</ele>
		<name>New marker</name>
	</wpt>
	<wpt lat="64.131230" lon="-21.920382">
		<ele>46.636719</ele>
		<name>New marker</name>
	</wpt>
	<wpt lat="64.131430" lon="-21.922718">
		<ele>38.825939</ele>
		<name>New marker</name>
	</wpt>
	<wpt lat="64.131540" lon="-21.922728">
		<ele>37.261436</ele>
		<name>New marker</name>
	</wpt>
	<wpt lat="64.132330" lon="-21.920639">
		<ele>29.196108</ele>
		<name>New marker</name>
	</wpt>
	<wpt lat="64.132390" lon="-21.920633">
		<ele>28.198437</ele>
		<name>New marker</name>
	</wpt>
	<wpt lat="64.132484" lon="-21.920633">
		<ele>27.118942</ele>
		<name>New marker</name>
	</wpt>
	<wpt lat="64.132590" lon="-21.920797">
		<ele>26.012615</ele>
		<name>New marker</name>
	</wpt>
	<wpt lat="64.132590" lon="-21.920853">
		<ele>25.850578</ele>
		<name>New marker</name>
	</wpt>
	<wpt lat="64.132706" lon="-21.921038">
		<ele>24.638092</ele>
		<name>New marker</name>
	</wpt>
	<wpt lat="64.132710" lon="-21.921106">
		<ele>24.386238</ele>
		<name>New marker</name>
	</wpt>
	<wpt lat="64.133224" lon="-21.921661">
		<ele>21.000000</ele>
		<name>New marker</name>
	</wpt>
	<wpt lat="64.133446" lon="-21.921913">
		<ele>21.784090</ele>
		<name>New marker</name>
	</wpt>
	<wpt lat="64.133640" lon="-21.922104">
		<ele>21.492607</ele>
		<name>New marker</name>
	</wpt>
	<wpt lat="64.133850" lon="-21.922342">
		<ele>20.493719</ele>
		<name>New marker</name>
	</wpt>
	<wpt lat="64.134740" lon="-21.923538">
		<ele>17.582121</ele>
		<name>New marker</name>
	</wpt>
	<wpt lat="64.134880" lon="-21.923477">
		<ele>18.000000</ele>
		<name>New marker</name>
	</wpt>
	<wpt lat="64.135030" lon="-21.923510">
		<ele>17.971386</ele>
		<name>New marker</name>
	</wpt>
	<wpt lat="64.135110" lon="-21.923565">
		<ele>17.955572</ele>
		<name>New marker</name>
	</wpt>
	<wpt lat="64.135220" lon="-21.923640">
		<ele>18.142769</ele>
		<name>New marker</name>
	</wpt>
	<wpt lat="64.135250" lon="-21.923775">
		<ele>18.209820</ele>
		<name>New marker</name>
	</wpt>
	<wpt lat="64.135540" lon="-21.923721">
		<ele>19.040733</ele>
		<name>New marker</name>
	</wpt>
	<wpt lat="64.135790" lon="-21.923777">
		<ele>19.677998</ele>
		<name>New marker</name>
	</wpt>
	<wpt lat="64.136120" lon="-21.923770">
		<ele>20.485067</ele>
		<name>New marker</name>
	</wpt>
	<wpt lat="64.136350" lon="-21.923857">
		<ele>21.815434</ele>
		<name>New marker</name>
	</wpt>
	<wpt lat="64.136810" lon="-21.923948">
		<ele>22.926235</ele>
		<name>New marker</name>
	</wpt>
	<wpt lat="64.136860" lon="-21.923998">
		<ele>22.974051</ele>
		<name>New marker</name>
	</wpt>
	<wpt lat="64.136990" lon="-21.923857">
		<ele>23.000000</ele>
		<name>New marker</name>
	</wpt>
	<wpt lat="64.137130" lon="-21.923626">
		<ele>23.000000</ele>
		<name>New marker</name>
	</wpt>
	<wpt lat="64.137620" lon="-21.922700">
		<ele>24.091389</ele>
		<name>New marker</name>
	</wpt>
	<wpt lat="64.137840" lon="-21.922495">
		<ele>23.363956</ele>
		<name>New marker</name>
	</wpt>
	<wpt lat="64.137920" lon="-21.922422">
		<ele>22.939104</ele>
		<name>New marker</name>
	</wpt>
	<wpt lat="64.137960" lon="-21.922281">
		<ele>22.755283</ele>
		<name>New marker</name>
	</wpt>
	<wpt lat="64.137920" lon="-21.922090">
		<ele>22.882215</ele>
		<name>New marker</name>
	</wpt>
	<wpt lat="64.137880" lon="-21.921894">
		<ele>22.362869</ele>
		<name>New marker</name>
	</wpt>
	<wpt lat="64.138275" lon="-21.921452">
		<ele>22.079475</ele>
		<name>New marker</name>
	</wpt>
	<wpt lat="64.138170" lon="-21.920912">
		<ele>22.105537</ele>
		<name>New marker</name>
	</wpt>
	<wpt lat="64.139450" lon="-21.919537">
		<ele>19.922514</ele>
		<name>New marker</name>
	</wpt>
	<wpt lat="64.139404" lon="-21.919037">
		<ele>19.198179</ele>
		<name>New marker</name>
	</wpt>
	<wpt lat="64.139305" lon="-21.918282">
		<ele>17.924635</ele>
		<name>New marker</name>
	</wpt>
	<wpt lat="64.139786" lon="-21.917734">
		<ele>18.418221</ele>
		<name>New marker</name>
	</wpt>
	<wpt lat="64.140190" lon="-21.917343">
		<ele>18.998652</ele>
		<name>New marker</name>
	</wpt>
	<wpt lat="64.140600" lon="-21.916891">
		<ele>18.100471</ele>
		<name>New marker</name>
	</wpt>
	<wpt lat="64.141000" lon="-21.916403">
		<ele>17.922852</ele>
		<name>New marker</name>
	</wpt>
	<wpt lat="64.141410" lon="-21.915974">
		<ele>16.470179</ele>
		<name>New marker</name>
	</wpt>
	<wpt lat="64.141650" lon="-21.915740">
		<ele>15.771740</ele>
		<name>New marker</name>
	</wpt>
	<wpt lat="64.141540" lon="-21.915089">
		<ele>18.351418</ele>
		<name>New marker</name>
	</wpt>
	<wpt lat="64.141500" lon="-21.914810">
		<ele>20.684313</ele>
		<name>New marker</name>
	</wpt>
	<wpt lat="64.142044" lon="-21.914494">
		<ele>21.068783</ele>
		<name>New marker</name>
	</wpt>
	<wpt lat="64.142270" lon="-21.914303">
		<ele>22.067612</ele>
		<name>New marker</name>
	</wpt>
	<wpt lat="64.142720" lon="-21.914042">
		<ele>20.219584</ele>
		<name>New marker</name>
	</wpt>
	<wpt lat="64.142920" lon="-21.913946">
		<ele>19.359108</ele>
		<name>New marker</name>
	</wpt>
	<wpt lat="64.143110" lon="-21.914574">
		<ele>18.934343</ele>
		<name>New marker</name>
	</wpt>
	<wpt lat="64.143360" lon="-21.914420">
		<ele>15.041997</ele>
		<name>New marker</name>
	</wpt>
	<wpt lat="64.143240" lon="-21.913866">
		<ele>14.504831</ele>
		<name>New marker</name>
	</wpt>
	<wpt lat="64.143050" lon="-21.914005">
		<ele>18.725780</ele>
		<name>New marker</name>
	</wpt>
	<wpt lat="64.143100" lon="-21.914590">
		<ele>19.143778</ele>
		<name>New marker</name>
	</wpt>
	<wpt lat="64.143120" lon="-21.916243">
		<ele>20.347490</ele>
		<name>New marker</name>
	</wpt>
	<wpt lat="64.143140" lon="-21.916462">
		<ele>20.870462</ele>
		<name>New marker</name>
	</wpt>
	<wpt lat="64.143200" lon="-21.916660">
		<ele>20.473110</ele>
		<name>New marker</name>
	</wpt>
	<wpt lat="64.143290" lon="-21.917100">
		<ele>19.226013</ele>
		<name>New marker</name>
	</wpt>
	<wpt lat="64.143280" lon="-21.917246">
		<ele>19.535528</ele>
		<name>New marker</name>
	</wpt>
	<wpt lat="64.143320" lon="-21.917202">
		<ele>19.505899</ele>
		<name>New marker</name>
	</wpt>
	<wpt lat="64.143370" lon="-21.917460">
		<ele>20.349569</ele>
		<name>New marker</name>
	</wpt>
	<wpt lat="64.143670" lon="-21.919010">
		<ele>23.089802</ele>
		<name>New marker</name>
	</wpt>
	<wpt lat="64.143684" lon="-21.919090">
		<ele>23.193604</ele>
		<name>New marker</name>
	</wpt>
	<wpt lat="64.143875" lon="-21.920000">
		<ele>23.487688</ele>
		<name>New marker</name>
	</wpt>
	<wpt lat="64.143970" lon="-21.919985">
		<ele>23.755886</ele>
		<name>New marker</name>
	</wpt>
	<wpt lat="64.143875" lon="-21.920000">
		<ele>23.487688</ele>
		<name>New marker</name>
	</wpt>
	<wpt lat="64.143920" lon="-21.920158">
		<ele>23.621786</ele>
		<name>New marker</name>
	</wpt>
	<wpt lat="64.144020" lon="-21.920553">
		<ele>23.539961</ele>
		<name>New marker</name>
	</wpt>
	<wpt lat="64.144120" lon="-21.921080">
		<ele>23.534451</ele>
		<name>New marker</name>
	</wpt>
	<wpt lat="64.144140" lon="-21.921478">
		<ele>24.492004</ele>
		<name>New marker</name>
	</wpt>
	<wpt lat="64.144220" lon="-21.921833">
		<ele>24.741585</ele>
		<name>New marker</name>
	</wpt>
	<wpt lat="64.144540" lon="-21.923279">
		<ele>25.432137</ele>
		<name>New marker</name>
	</wpt>
	<wpt lat="64.144646" lon="-21.923702">
		<ele>25.745037</ele>
		<name>New marker</name>
	</wpt>
	<wpt lat="64.144760" lon="-21.924330">
		<ele>25.877274</ele>
		<name>New marker</name>
	</wpt>
	<wpt lat="64.144850" lon="-21.925055">
		<ele>26.594666</ele>
		<name>New marker</name>
	</wpt>
	<wpt lat="64.145100" lon="-21.926445">
		<ele>27.827923</ele>
		<name>New marker</name>
	</wpt>
	<wpt lat="64.145310" lon="-21.927261">
		<ele>27.661982</ele>
		<name>New marker</name>
	</wpt>
	<wpt lat="64.145450" lon="-21.928001">
		<ele>28.342056</ele>
		<name>New marker</name>
	</wpt>
	<wpt lat="64.145580" lon="-21.928350">
		<ele>29.424263</ele>
		<name>New marker</name>
	</wpt>
	<wpt lat="64.145720" lon="-21.929203">
		<ele>31.103611</ele>
		<name>New marker</name>
	</wpt>
	<wpt lat="64.145850" lon="-21.929733">
		<ele>28.254107</ele>
		<name>New marker</name>
	</wpt>
	<wpt lat="64.145960" lon="-21.930239">
		<ele>28.421494</ele>
		<name>New marker</name>
	</wpt>
	<wpt lat="64.146126" lon="-21.931202">
		<ele>27.680565</ele>
		<name>New marker</name>
	</wpt>
	<wpt lat="64.146350" lon="-21.932108">
		<ele>26.139385</ele>
		<name>New marker</name>
	</wpt>
	<wpt lat="64.146484" lon="-21.932926">
		<ele>23.951536</ele>
		<name>New marker</name>
	</wpt>
	<wpt lat="64.146610" lon="-21.933605">
		<ele>23.847664</ele>
		<name>New marker</name>
	</wpt>
	<wpt lat="64.147150" lon="-21.933086">
		<ele>17.868073</ele>
		<name>New marker</name>
	</wpt>
	<wpt lat="64.147285" lon="-21.933040">
		<ele>15.603828</ele>
		<name>New marker</name>
	</wpt>
	<wpt lat="64.147896" lon="-21.932446">
		<ele>15.708128</ele>
		<name>New marker</name>
	</wpt>
	<wpt lat="64.148315" lon="-21.931997">
		<ele>15.093842</ele>
		<name>New marker</name>
	</wpt>
	<wpt lat="64.148500" lon="-21.931812">
		<ele>13.205184</ele>
		<name>New marker</name>
	</wpt>
	<wpt lat="64.149170" lon="-21.931145">
		<ele>14.868135</ele>
		<name>New marker</name>
	</wpt>
	<wpt lat="64.149220" lon="-21.931084">
		<ele>13.928956</ele>
		<name>New marker</name>
	</wpt>
	<wpt lat="64.149390" lon="-21.930927">
		<ele>11.728085</ele>
		<name>New marker</name>
	</wpt>
	<wpt lat="64.149345" lon="-21.931536">
		<ele>12.924121</ele>
		<name>New marker</name>
	</wpt>
	<wpt lat="64.149450" lon="-21.931606">
		<ele>11.046720</ele>
		<name>New marker</name>
	</wpt>
	<wpt lat="64.149590" lon="-21.931686">
		<ele>8.615611</ele>
		<name>New marker</name>
	</wpt>
	<wpt lat="64.149630" lon="-21.931276">
		<ele>8.019810</ele>
		<name>New marker</name>
	</wpt>
	<wpt lat="64.149850" lon="-21.931335">
		<ele>4.067968</ele>
		<name>New marker</name>
	</wpt>
	<wpt lat="64.149925" lon="-21.931276">
		<ele>3.821100</ele>
		<name>New marker</name>
	</wpt>
	<wpt lat="64.149950" lon="-21.930729">
		<ele>3.782513</ele>
		<name>New marker</name>
	</wpt>
	<wpt lat="64.149925" lon="-21.931284">
		<ele>3.843451</ele>
		<name>New marker</name>
	</wpt>
	<wpt lat="64.149920" lon="-21.931437">
		<ele>4.000000</ele>
		<name>New marker</name>
	</wpt>
	<wpt lat="64.149870" lon="-21.932549">
		<ele>4.906778</ele>
		<name>New marker</name>
	</wpt>
	<wpt lat="64.149850" lon="-21.933556">
		<ele>3.993896</ele>
		<name>New marker</name>
	</wpt>
	<wpt lat="64.149800" lon="-21.933989">
		<ele>2.320585</ele>
		<name>New marker</name>
	</wpt>
	<wpt lat="64.149610" lon="-21.934532">
		<ele>0.189038</ele>
		<name>New marker</name>
	</wpt>
	<wpt lat="64.149190" lon="-21.935427">
		<ele>0.953500</ele>
		<name>New marker</name>
	</wpt>
	<wpt lat="64.148810" lon="-21.935770">
		<ele>3.051854</ele>
		<name>New marker</name>
	</wpt>
	<wpt lat="64.148350" lon="-21.938076">
		<ele>7.571422</ele>
		<name>New marker</name>
	</wpt>
	<wpt lat="64.148010" lon="-21.938328">
		<ele>11.673921</ele>
		<name>New marker</name>
	</wpt>
	<wpt lat="64.147630" lon="-21.938517">
		<ele>11.951710</ele>
		<name>New marker</name>
	</wpt>
	<wpt lat="64.147520" lon="-21.937843">
		<ele>11.083444</ele>
		<name>New marker</name>
	</wpt>
	<wpt lat="64.147610" lon="-21.938570">
		<ele>11.862044</ele>
		<name>New marker</name>
	</wpt>
	<wpt lat="64.147280" lon="-21.942368">
		<ele>7.224019</ele>
		<name>New marker</name>
	</wpt>
	<wpt lat="64.147224" lon="-21.942808">
		<ele>8.021284</ele>
		<name>New marker</name>
	</wpt>
	<wpt lat="64.147180" lon="-21.942980">
		<ele>8.076738</ele>
		<name>New marker</name>
	</wpt>
	<wpt lat="64.146270" lon="-21.944153">
		<ele>9.010235</ele>
		<name>New marker</name>
	</wpt>
	<wpt lat="64.145325" lon="-21.945328">
		<ele>9.155287</ele>
		<name>New marker</name>
	</wpt>
	<wpt lat="64.145706" lon="-21.946981">
		<ele>20.296621</ele>
		<name>New marker</name>
	</wpt>
	<wpt lat="64.145935" lon="-21.948137">
		<ele>19.740986</ele>
		<name>New marker</name>
	</wpt>
	<wpt lat="64.146034" lon="-21.948576">
		<ele>18.280935</ele>
		<name>New marker</name>
	</wpt>
	<wpt lat="64.146454" lon="-21.950357">
		<ele>19.969831</ele>
		<name>New marker</name>
	</wpt>
	<wpt lat="64.146840" lon="-21.951994">
		<ele>19.906794</ele>
		<name>New marker</name>
	</wpt>
	<wpt lat="64.146990" lon="-21.951662">
		<ele>20.278782</ele>
		<name>New marker</name>
	</wpt>
</gpx>

