<?xml version="1.0" encoding="utf-8"?>
<gpx xmlns="http://www.topografix.com/GPX/1/1" version="1.1" creator="https://mapy.com/">
	<wpt lat="50.858124" lon="18.874199">
		<ele>279.952637</ele>
		<name>New marker</name>
	</wpt>
	<wpt lat="50.858140" lon="18.873990">
		<ele>280.125793</ele>
		<name>New marker</name>
	</wpt>
	<wpt lat="50.858730" lon="18.872332">
		<ele>280.191925</ele>
		<name>New marker</name>
	</wpt>
	<wpt lat="50.858116" lon="18.873983">
		<ele>280.165771</ele>
		<name>New marker</name>
	</wpt>
	<wpt lat="50.858710" lon="18.872320">
		<ele>280.291321</ele>
		<name>New marker</name>
	</wpt>
	<wpt lat="50.858670" lon="18.872242">
		<ele>280.563904</ele>
		<name>New marker</name>
	</wpt>
	<wpt lat="50.858670" lon="18.872068">
		<ele>280.563904</ele>
		<name>New marker</name>
	</wpt>
	<wpt lat="50.858727" lon="18.871918">
		<ele>280.534790</ele>
		<name>New marker</name>
	</wpt>
	<wpt lat="50.858900" lon="18.871763">
		<ele>281.283783</ele>
		<name>New marker</name>
	</wpt>
	<wpt lat="50.859077" lon="18.871832">
		<ele>282.326752</ele>
		<name>New marker</name>
	</wpt>
	<wpt lat="50.859184" lon="18.871720">
		<ele>287.088684</ele>
		<name>New marker</name>
	</wpt>
	<wpt lat="50.858980" lon="18.867802">
		<ele>325.754395</ele>
		<name>New marker</name>
	</wpt>
	<wpt lat="50.858936" lon="18.867697">
		<ele>323.182098</ele>
		<name>New marker</name>
	</wpt>
	<wpt lat="50.858940" lon="18.867445">
		<ele>323.856506</ele>
		<name>New marker</name>
	</wpt>
	<wpt lat="50.858920" lon="18.867197">
		<ele>324.061188</ele>
		<name>New marker</name>
	</wpt>
	<wpt lat="50.858982" lon="18.867016">
		<ele>322.561066</ele>
		<name>New marker</name>
	</wpt>
	<wpt lat="50.858990" lon="18.867216">
		<ele>326.051117</ele>
		<name>New marker</name>
	</wpt>
	<wpt lat="50.858950" lon="18.867327">
		<ele>325.083679</ele>
		<name>New marker</name>
	</wpt>
	<wpt lat="50.859030" lon="18.867449">
		<ele>327.939392</ele>
		<name>New marker</name>
	</wpt>
	<wpt lat="50.859020" lon="18.867588">
		<ele>327.550049</ele>
		<name>New marker</name>
	</wpt>
	<wpt lat="50.858997" lon="18.867527">
		<ele>326.714264</ele>
		<name>New marker</name>
	</wpt>
	<wpt lat="50.858948" lon="18.867502">
		<ele>323.989410</ele>
		<name>New marker</name>
	</wpt>
	<wpt lat="50.858944" lon="18.867634">
		<ele>323.600586</ele>
		<name>New marker</name>
	</wpt>
	<wpt lat="50.858967" lon="18.867804">
		<ele>325.188599</ele>
		<name>New marker</name>
	</wpt>
	<wpt lat="50.859173" lon="18.871714">
		<ele>287.227905</ele>
		<name>New marker</name>
	</wpt>
	<wpt lat="50.859050" lon="18.871838">
		<ele>281.738129</ele>
		<name>New marker</name>
	</wpt>
	<wpt lat="50.858883" lon="18.871778">
		<ele>281.110626</ele>
		<name>New marker</name>
	</wpt>
	<wpt lat="50.858692" lon="18.871984">
		<ele>280.499451</ele>
		<name>New marker</name>
	</wpt>
	<wpt lat="50.858665" lon="18.872156">
		<ele>280.574677</ele>
		<name>New marker</name>
	</wpt>
	<wpt lat="50.858700" lon="18.872318">
		<ele>280.357941</ele>
		<name>New marker</name>
	</wpt>
	<wpt lat="50.858110" lon="18.873983">
		<ele>280.175232</ele>
		<name>New marker</name>
	</wpt>
	<wpt lat="50.858112" lon="18.874184">
		<ele>279.982391</ele>
		<name>New marker</name>
	</wpt>
</gpx>

