<?xml version="1.0" encoding="utf-8"?>
<gpx xmlns="http://www.topografix.com/GPX/1/1" version="1.1" creator="https://mapy.com/">
	<wpt lat="65.163500" lon="-15.309722">
		<ele>334.999329</ele>
		<name>New marker</name>
	</wpt>
	<wpt lat="65.163536" lon="-15.309260">
		<ele>332.095581</ele>
		<name>New marker</name>
	</wpt>
	<wpt lat="65.163740" lon="-15.308831">
		<ele>329.684174</ele>
		<name>New marker</name>
	</wpt>
	<wpt lat="65.163380" lon="-15.306814">
		<ele>284.508118</ele>
		<name>New marker</name>
	</wpt>
	<wpt lat="65.163240" lon="-15.306886">
		<ele>285.429108</ele>
		<name>New marker</name>
	</wpt>
	<wpt lat="65.163380" lon="-15.306782">
		<ele>284.547394</ele>
		<name>New marker</name>
	</wpt>
	<wpt lat="65.163620" lon="-15.306777">
		<ele>285.694824</ele>
		<name>New marker</name>
	</wpt>
	<wpt lat="65.163860" lon="-15.306841">
		<ele>288.513458</ele>
		<name>New marker</name>
	</wpt>
	<wpt lat="65.164110" lon="-15.306782">
		<ele>289.314362</ele>
		<name>New marker</name>
	</wpt>
	<wpt lat="65.164380" lon="-15.306825">
		<ele>293.333130</ele>
		<name>New marker</name>
	</wpt>
	<wpt lat="65.164640" lon="-15.306696">
		<ele>292.712067</ele>
		<name>New marker</name>
	</wpt>
	<wpt lat="65.164795" lon="-15.306520">
		<ele>290.861847</ele>
		<name>New marker</name>
	</wpt>
	<wpt lat="65.164740" lon="-15.306332">
		<ele>283.793640</ele>
		<name>New marker</name>
	</wpt>
	<wpt lat="65.164580" lon="-15.306187">
		<ele>279.087982</ele>
		<name>New marker</name>
	</wpt>
	<wpt lat="65.164505" lon="-15.306154">
		<ele>278.784607</ele>
		<name>New marker</name>
	</wpt>
	<wpt lat="65.164700" lon="-15.306283">
		<ele>281.519409</ele>
		<name>New marker</name>
	</wpt>
	<wpt lat="65.164740" lon="-15.306358">
		<ele>284.575928</ele>
		<name>New marker</name>
	</wpt>
	<wpt lat="65.164856" lon="-15.305857">
		<ele>279.331329</ele>
		<name>New marker</name>
	</wpt>
	<wpt lat="65.165115" lon="-15.305725">
		<ele>281.805969</ele>
		<name>New marker</name>
	</wpt>
	<wpt lat="65.165420" lon="-15.305209">
		<ele>280.200623</ele>
		<name>New marker</name>
	</wpt>
	<wpt lat="65.165080" lon="-15.305731">
		<ele>281.645294</ele>
		<name>New marker</name>
	</wpt>
	<wpt lat="65.164830" lon="-15.305876">
		<ele>278.836792</ele>
		<name>New marker</name>
	</wpt>
	<wpt lat="65.164740" lon="-15.306375">
		<ele>285.050842</ele>
		<name>New marker</name>
	</wpt>
	<wpt lat="65.164790" lon="-15.306520">
		<ele>290.638306</ele>
		<name>New marker</name>
	</wpt>
	<wpt lat="65.164490" lon="-15.307715">
		<ele>317.325500</ele>
		<name>New marker</name>
	</wpt>
	<wpt lat="65.163740" lon="-15.308842">
		<ele>329.828735</ele>
		<name>New marker</name>
	</wpt>
	<wpt lat="65.163520" lon="-15.309260">
		<ele>331.856323</ele>
		<name>New marker</name>
	</wpt>
	<wpt lat="65.163330" lon="-15.309528">
		<ele>331.948273</ele>
		<name>New marker</name>
	</wpt>
	<wpt lat="65.163025" lon="-15.309239">
		<ele>316.535492</ele>
		<name>New marker</name>
	</wpt>
	<wpt lat="65.163315" lon="-15.309545">
		<ele>331.591919</ele>
		<name>New marker</name>
	</wpt>
	<wpt lat="65.163475" lon="-15.309754">
		<ele>334.941223</ele>
		<name>New marker</name>
	</wpt>
</gpx>

