<?xml version="1.0" encoding="utf-8"?>
<gpx xmlns="http://www.topografix.com/GPX/1/1" version="1.1" creator="https://mapy.com/">
	<wpt lat="49.440853" lon="20.714458">
		<ele>395.121826</ele>
		<name>New marker</name>
	</wpt>
	<wpt lat="49.440704" lon="20.714445">
		<ele>394.908783</ele>
		<name>New marker</name>
	</wpt>
	<wpt lat="49.440590" lon="20.714430">
		<ele>394.950378</ele>
		<name>New marker</name>
	</wpt>
	<wpt lat="49.440502" lon="20.714512">
		<ele>394.799988</ele>
		<name>New marker</name>
	</wpt>
	<wpt lat="49.440186" lon="20.713789">
		<ele>396.013062</ele>
		<name>New marker</name>
	</wpt>
	<wpt lat="49.440130" lon="20.713682">
		<ele>396.515228</ele>
		<name>New marker</name>
	</wpt>
	<wpt lat="49.440186" lon="20.713806">
		<ele>395.999969</ele>
		<name>New marker</name>
	</wpt>
	<wpt lat="49.440243" lon="20.713854">
		<ele>396.000000</ele>
		<name>New marker</name>
	</wpt>
	<wpt lat="49.440290" lon="20.713985">
		<ele>395.859467</ele>
		<name>New marker</name>
	</wpt>
	<wpt lat="49.440407" lon="20.714277">
		<ele>395.524902</ele>
		<name>New marker</name>
	</wpt>
	<wpt lat="49.440495" lon="20.714502">
		<ele>394.818268</ele>
		<name>New marker</name>
	</wpt>
	<wpt lat="49.440617" lon="20.714770">
		<ele>394.271301</ele>
		<name>New marker</name>
	</wpt>
	<wpt lat="49.440674" lon="20.715240">
		<ele>393.510040</ele>
		<name>New marker</name>
	</wpt>
	<wpt lat="49.440850" lon="20.715635">
		<ele>393.200043</ele>
		<name>New marker</name>
	</wpt>
	<wpt lat="49.441128" lon="20.716040">
		<ele>390.879791</ele>
		<name>New marker</name>
	</wpt>
	<wpt lat="49.441082" lon="20.716316">
		<ele>388.950378</ele>
		<name>New marker</name>
	</wpt>
	<wpt lat="49.440410" lon="20.716413">
		<ele>374.174805</ele>
		<name>New marker</name>
	</wpt>
	<wpt lat="49.440450" lon="20.717249">
		<ele>369.400024</ele>
		<name>New marker</name>
	</wpt>
	<wpt lat="49.440548" lon="20.717245">
		<ele>369.399994</ele>
		<name>New marker</name>
	</wpt>
	<wpt lat="49.440640" lon="20.717272">
		<ele>369.400024</ele>
		<name>New marker</name>
	</wpt>
	<wpt lat="49.440582" lon="20.717335">
		<ele>369.400024</ele>
		<name>New marker</name>
	</wpt>
	<wpt lat="49.440548" lon="20.717384">
		<ele>369.400024</ele>
		<name>New marker</name>
	</wpt>
	<wpt lat="49.440582" lon="20.717503">
		<ele>368.921997</ele>
		<name>New marker</name>
	</wpt>
	<wpt lat="49.440710" lon="20.717628">
		<ele>368.390747</ele>
		<name>New marker</name>
	</wpt>
	<wpt lat="49.440750" lon="20.717863">
		<ele>366.358337</ele>
		<name>New marker</name>
	</wpt>
	<wpt lat="49.440760" lon="20.717980">
		<ele>365.862793</ele>
		<name>New marker</name>
	</wpt>
	<wpt lat="49.440742" lon="20.717875">
		<ele>366.278687</ele>
		<name>New marker</name>
	</wpt>
	<wpt lat="49.440697" lon="20.717625">
		<ele>368.445557</ele>
		<name>New marker</name>
	</wpt>
	<wpt lat="49.440570" lon="20.717497">
		<ele>368.930298</ele>
		<name>New marker</name>
	</wpt>
	<wpt lat="49.440434" lon="20.717222">
		<ele>369.400024</ele>
		<name>New marker</name>
	</wpt>
	<wpt lat="49.440400" lon="20.716417">
		<ele>374.124329</ele>
		<name>New marker</name>
	</wpt>
	<wpt lat="49.441070" lon="20.716316">
		<ele>389.282471</ele>
		<name>New marker</name>
	</wpt>
	<wpt lat="49.441128" lon="20.716024">
		<ele>390.843445</ele>
		<name>New marker</name>
	</wpt>
	<wpt lat="49.440850" lon="20.715616">
		<ele>393.200012</ele>
		<name>New marker</name>
	</wpt>
	<wpt lat="49.440666" lon="20.715208">
		<ele>393.541077</ele>
		<name>New marker</name>
	</wpt>
	<wpt lat="49.440166" lon="20.713802">
		<ele>395.999969</ele>
		<name>New marker</name>
	</wpt>
	<wpt lat="49.440120" lon="20.713709">
		<ele>396.303131</ele>
		<name>New marker</name>
	</wpt>
	<wpt lat="49.440163" lon="20.713816">
		<ele>395.999969</ele>
		<name>New marker</name>
	</wpt>
	<wpt lat="49.440243" lon="20.713867">
		<ele>396.000000</ele>
		<name>New marker</name>
	</wpt>
	<wpt lat="49.440273" lon="20.713974">
		<ele>395.891754</ele>
		<name>New marker</name>
	</wpt>
	<wpt lat="49.440845" lon="20.714468">
		<ele>395.073456</ele>
		<name>New marker</name>
	</wpt>
	<wpt lat="49.440700" lon="20.714447">
		<ele>394.890137</ele>
		<name>New marker</name>
	</wpt>
	<wpt lat="49.440254" lon="20.713972">
		<ele>395.897156</ele>
		<name>New marker</name>
	</wpt>
	<wpt lat="49.440130" lon="20.713840">
		<ele>396.016022</ele>
		<name>New marker</name>
	</wpt>
	<wpt lat="49.439840" lon="20.713531">
		<ele>395.735962</ele>
		<name>New marker</name>
	</wpt>
	<wpt lat="49.439600" lon="20.713352">
		<ele>394.585754</ele>
		<name>New marker</name>
	</wpt>
	<wpt lat="49.439064" lon="20.713446">
		<ele>391.271332</ele>
		<name>New marker</name>
	</wpt>
	<wpt lat="49.438427" lon="20.713360">
		<ele>388.082520</ele>
		<name>New marker</name>
	</wpt>
	<wpt lat="49.437420" lon="20.712800">
		<ele>382.179443</ele>
		<name>New marker</name>
	</wpt>
	<wpt lat="49.436802" lon="20.712439">
		<ele>380.996094</ele>
		<name>New marker</name>
	</wpt>
	<wpt lat="49.436657" lon="20.712276">
		<ele>380.924988</ele>
		<name>New marker</name>
	</wpt>
	<wpt lat="49.436497" lon="20.711967">
		<ele>378.458649</ele>
		<name>New marker</name>
	</wpt>
	<wpt lat="49.436050" lon="20.709509">
		<ele>374.311951</ele>
		<name>New marker</name>
	</wpt>
	<wpt lat="49.435596" lon="20.707846">
		<ele>374.765411</ele>
		<name>New marker</name>
	</wpt>
	<wpt lat="49.434970" lon="20.706718">
		<ele>374.926910</ele>
		<name>New marker</name>
	</wpt>
	<wpt lat="49.434708" lon="20.706484">
		<ele>373.069336</ele>
		<name>New marker</name>
	</wpt>
	<wpt lat="49.434437" lon="20.706371">
		<ele>375.363831</ele>
		<name>New marker</name>
	</wpt>
	<wpt lat="49.434277" lon="20.705442">
		<ele>375.928406</ele>
		<name>New marker</name>
	</wpt>
	<wpt lat="49.433880" lon="20.704437">
		<ele>378.110107</ele>
		<name>New marker</name>
	</wpt>
	<wpt lat="49.433780" lon="20.704315">
		<ele>377.780090</ele>
		<name>New marker</name>
	</wpt>
	<wpt lat="49.433480" lon="20.704113">
		<ele>386.358154</ele>
		<name>New marker</name>
	</wpt>
	<wpt lat="49.431820" lon="20.702932">
		<ele>425.164673</ele>
		<name>New marker</name>
	</wpt>
	<wpt lat="49.431274" lon="20.704315">
		<ele>442.299133</ele>
		<name>New marker</name>
	</wpt>
	<wpt lat="49.430706" lon="20.703693">
		<ele>458.369629</ele>
		<name>New marker</name>
	</wpt>
	<wpt lat="49.428524" lon="20.702293">
		<ele>520.968628</ele>
		<name>New marker</name>
	</wpt>
	<wpt lat="49.427940" lon="20.701130">
		<ele>542.115845</ele>
		<name>New marker</name>
	</wpt>
	<wpt lat="49.427840" lon="20.700325">
		<ele>549.130920</ele>
		<name>New marker</name>
	</wpt>
	<wpt lat="49.427715" lon="20.697975">
		<ele>575.295227</ele>
		<name>New marker</name>
	</wpt>
	<wpt lat="49.426186" lon="20.693642">
		<ele>624.176514</ele>
		<name>New marker</name>
	</wpt>
	<wpt lat="49.425300" lon="20.692272">
		<ele>653.683472</ele>
		<name>New marker</name>
	</wpt>
	<wpt lat="49.425575" lon="20.692198">
		<ele>652.562378</ele>
		<name>New marker</name>
	</wpt>
	<wpt lat="49.426517" lon="20.691715">
		<ele>654.398560</ele>
		<name>New marker</name>
	</wpt>
	<wpt lat="49.426636" lon="20.691532">
		<ele>657.937012</ele>
		<name>New marker</name>
	</wpt>
	<wpt lat="49.426740" lon="20.691399">
		<ele>659.868286</ele>
		<name>New marker</name>
	</wpt>
	<wpt lat="49.426884" lon="20.691280">
		<ele>661.797607</ele>
		<name>New marker</name>
	</wpt>
	<wpt lat="49.427050" lon="20.691160">
		<ele>664.711121</ele>
		<name>New marker</name>
	</wpt>
	<wpt lat="49.426876" lon="20.691260">
		<ele>661.668579</ele>
		<name>New marker</name>
	</wpt>
	<wpt lat="49.426723" lon="20.691404">
		<ele>659.692322</ele>
		<name>New marker</name>
	</wpt>
	<wpt lat="49.426620" lon="20.691544">
		<ele>657.765137</ele>
		<name>New marker</name>
	</wpt>
	<wpt lat="49.426502" lon="20.691721">
		<ele>654.137756</ele>
		<name>New marker</name>
	</wpt>
	<wpt lat="49.425550" lon="20.692165">
		<ele>652.549377</ele>
		<name>New marker</name>
	</wpt>
	<wpt lat="49.425280" lon="20.692295">
		<ele>653.767578</ele>
		<name>New marker</name>
	</wpt>
	<wpt lat="49.422447" lon="20.692380">
		<ele>671.578857</ele>
		<name>New marker</name>
	</wpt>
	<wpt lat="49.421260" lon="20.692026">
		<ele>679.140564</ele>
		<name>New marker</name>
	</wpt>
	<wpt lat="49.419590" lon="20.691183">
		<ele>686.238342</ele>
		<name>New marker</name>
	</wpt>
	<wpt lat="49.419964" lon="20.692675">
		<ele>692.091064</ele>
		<name>New marker</name>
	</wpt>
	<wpt lat="49.419930" lon="20.692380">
		<ele>690.008545</ele>
		<name>New marker</name>
	</wpt>
	<wpt lat="49.420017" lon="20.692457">
		<ele>693.449524</ele>
		<name>New marker</name>
	</wpt>
	<wpt lat="49.420105" lon="20.692553">
		<ele>694.064514</ele>
		<name>New marker</name>
	</wpt>
	<wpt lat="49.420147" lon="20.692608">
		<ele>694.200012</ele>
		<name>New marker</name>
	</wpt>
	<wpt lat="49.420094" lon="20.692549">
		<ele>694.000061</ele>
		<name>New marker</name>
	</wpt>
	<wpt lat="49.420010" lon="20.692450">
		<ele>693.385071</ele>
		<name>New marker</name>
	</wpt>
	<wpt lat="49.419918" lon="20.692362">
		<ele>689.321838</ele>
		<name>New marker</name>
	</wpt>
	<wpt lat="49.419550" lon="20.691198">
		<ele>685.023926</ele>
		<name>New marker</name>
	</wpt>
	<wpt lat="49.419487" lon="20.691021">
		<ele>685.733459</ele>
		<name>New marker</name>
	</wpt>
	<wpt lat="49.418037" lon="20.687931">
		<ele>706.823303</ele>
		<name>New marker</name>
	</wpt>
	<wpt lat="49.417866" lon="20.687883">
		<ele>708.354675</ele>
		<name>New marker</name>
	</wpt>
	<wpt lat="49.417770" lon="20.687881">
		<ele>708.507996</ele>
		<name>New marker</name>
	</wpt>
	<wpt lat="49.417675" lon="20.687828">
		<ele>707.970459</ele>
		<name>New marker</name>
	</wpt>
	<wpt lat="49.417557" lon="20.687796">
		<ele>706.887573</ele>
		<name>New marker</name>
	</wpt>
	<wpt lat="49.417397" lon="20.687689">
		<ele>707.554810</ele>
		<name>New marker</name>
	</wpt>
	<wpt lat="49.417282" lon="20.687588">
		<ele>707.467712</ele>
		<name>New marker</name>
	</wpt>
	<wpt lat="49.417230" lon="20.687466">
		<ele>707.827637</ele>
		<name>New marker</name>
	</wpt>
	<wpt lat="49.417183" lon="20.687273">
		<ele>705.239258</ele>
		<name>New marker</name>
	</wpt>
	<wpt lat="49.416010" lon="20.685884">
		<ele>698.697693</ele>
		<name>New marker</name>
	</wpt>
	<wpt lat="49.415077" lon="20.684511">
		<ele>697.154053</ele>
		<name>New marker</name>
	</wpt>
	<wpt lat="49.415108" lon="20.683748">
		<ele>688.622437</ele>
		<name>New marker</name>
	</wpt>
	<wpt lat="49.415040" lon="20.683030">
		<ele>680.908813</ele>
		<name>New marker</name>
	</wpt>
	<wpt lat="49.413586" lon="20.679570">
		<ele>739.282166</ele>
		<name>New marker</name>
	</wpt>
	<wpt lat="49.412650" lon="20.677773">
		<ele>760.616150</ele>
		<name>New marker</name>
	</wpt>
	<wpt lat="49.410015" lon="20.671453">
		<ele>870.132446</ele>
		<name>New marker</name>
	</wpt>
	<wpt lat="49.406757" lon="20.667233">
		<ele>860.769409</ele>
		<name>New marker</name>
	</wpt>
	<wpt lat="49.406580" lon="20.666653">
		<ele>856.762695</ele>
		<name>New marker</name>
	</wpt>
	<wpt lat="49.406464" lon="20.666256">
		<ele>860.658508</ele>
		<name>New marker</name>
	</wpt>
	<wpt lat="49.403786" lon="20.663563">
		<ele>903.718689</ele>
		<name>New marker</name>
	</wpt>
	<wpt lat="49.403652" lon="20.663574">
		<ele>904.367004</ele>
		<name>New marker</name>
	</wpt>
	<wpt lat="49.403675" lon="20.663370">
		<ele>903.015747</ele>
		<name>New marker</name>
	</wpt>
	<wpt lat="49.403640" lon="20.663557">
		<ele>903.753479</ele>
		<name>New marker</name>
	</wpt>
	<wpt lat="49.403660" lon="20.663776">
		<ele>905.743530</ele>
		<name>New marker</name>
	</wpt>
	<wpt lat="49.403650" lon="20.663960">
		<ele>905.496155</ele>
		<name>New marker</name>
	</wpt>
	<wpt lat="49.403660" lon="20.663773">
		<ele>905.753967</ele>
		<name>New marker</name>
	</wpt>
	<wpt lat="49.403840" lon="20.663788">
		<ele>902.958618</ele>
		<name>New marker</name>
	</wpt>
	<wpt lat="49.403820" lon="20.663496">
		<ele>903.127075</ele>
		<name>New marker</name>
	</wpt>
	<wpt lat="49.401146" lon="20.643740">
		<ele>1018.268494</ele>
		<name>New marker</name>
	</wpt>
	<wpt lat="49.401250" lon="20.643744">
		<ele>1017.948792</ele>
		<name>New marker</name>
	</wpt>
	<wpt lat="49.401257" lon="20.643534">
		<ele>1019.155518</ele>
		<name>New marker</name>
	</wpt>
	<wpt lat="49.401245" lon="20.643724">
		<ele>1018.120789</ele>
		<name>New marker</name>
	</wpt>
	<wpt lat="49.401108" lon="20.643393">
		<ele>1020.713135</ele>
		<name>New marker</name>
	</wpt>
	<wpt lat="49.400978" lon="20.643255">
		<ele>1018.864136</ele>
		<name>New marker</name>
	</wpt>
	<wpt lat="49.400990" lon="20.642689">
		<ele>1020.415588</ele>
		<name>New marker</name>
	</wpt>
	<wpt lat="49.400993" lon="20.642595">
		<ele>1020.657349</ele>
		<name>New marker</name>
	</wpt>
	<wpt lat="49.400898" lon="20.642597">
		<ele>1021.001343</ele>
		<name>New marker</name>
	</wpt>
	<wpt lat="49.400830" lon="20.642576">
		<ele>1021.253906</ele>
		<name>New marker</name>
	</wpt>
	<wpt lat="49.400913" lon="20.642640">
		<ele>1020.840088</ele>
		<name>New marker</name>
	</wpt>
	<wpt lat="49.400993" lon="20.642595">
		<ele>1020.657349</ele>
		<name>New marker</name>
	</wpt>
	<wpt lat="49.401900" lon="20.642150">
		<ele>1004.639221</ele>
		<name>New marker</name>
	</wpt>
	<wpt lat="49.404297" lon="20.642061">
		<ele>977.058289</ele>
		<name>New marker</name>
	</wpt>
	<wpt lat="49.404410" lon="20.642265">
		<ele>978.182373</ele>
		<name>New marker</name>
	</wpt>
	<wpt lat="49.404290" lon="20.642061">
		<ele>977.122803</ele>
		<name>New marker</name>
	</wpt>
	<wpt lat="49.406277" lon="20.640057">
		<ele>939.421814</ele>
		<name>New marker</name>
	</wpt>
	<wpt lat="49.407104" lon="20.639082">
		<ele>933.740112</ele>
		<name>New marker</name>
	</wpt>
	<wpt lat="49.408653" lon="20.635980">
		<ele>932.618347</ele>
		<name>New marker</name>
	</wpt>
	<wpt lat="49.408886" lon="20.634626">
		<ele>926.560059</ele>
		<name>New marker</name>
	</wpt>
	<wpt lat="49.408913" lon="20.634392">
		<ele>926.209656</ele>
		<name>New marker</name>
	</wpt>
	<wpt lat="49.408990" lon="20.633104">
		<ele>920.262634</ele>
		<name>New marker</name>
	</wpt>
	<wpt lat="49.408997" lon="20.631521">
		<ele>918.647888</ele>
		<name>New marker</name>
	</wpt>
	<wpt lat="49.409070" lon="20.630877">
		<ele>923.016418</ele>
		<name>New marker</name>
	</wpt>
	<wpt lat="49.409140" lon="20.630384">
		<ele>925.201050</ele>
		<name>New marker</name>
	</wpt>
	<wpt lat="49.409164" lon="20.630062">
		<ele>928.552246</ele>
		<name>New marker</name>
	</wpt>
	<wpt lat="49.409280" lon="20.629477">
		<ele>930.706421</ele>
		<name>New marker</name>
	</wpt>
	<wpt lat="49.409637" lon="20.629070">
		<ele>930.645203</ele>
		<name>New marker</name>
	</wpt>
	<wpt lat="49.409904" lon="20.628544">
		<ele>927.681641</ele>
		<name>New marker</name>
	</wpt>
	<wpt lat="49.410255" lon="20.627872">
		<ele>922.592285</ele>
		<name>New marker</name>
	</wpt>
	<wpt lat="49.412243" lon="20.623608">
		<ele>922.242126</ele>
		<name>New marker</name>
	</wpt>
	<wpt lat="49.412266" lon="20.623373">
		<ele>920.909851</ele>
		<name>New marker</name>
	</wpt>
	<wpt lat="49.413986" lon="20.621956">
		<ele>892.776428</ele>
		<name>New marker</name>
	</wpt>
	<wpt lat="49.414170" lon="20.621983">
		<ele>892.387085</ele>
		<name>New marker</name>
	</wpt>
	<wpt lat="49.414720" lon="20.621908">
		<ele>892.709839</ele>
		<name>New marker</name>
	</wpt>
	<wpt lat="49.417164" lon="20.621650">
		<ele>904.955139</ele>
		<name>New marker</name>
	</wpt>
	<wpt lat="49.417744" lon="20.621151">
		<ele>903.093262</ele>
		<name>New marker</name>
	</wpt>
	<wpt lat="49.417780" lon="20.621023">
		<ele>903.837036</ele>
		<name>New marker</name>
	</wpt>
	<wpt lat="49.417820" lon="20.620884">
		<ele>904.118896</ele>
		<name>New marker</name>
	</wpt>
	<wpt lat="49.418045" lon="20.621033">
		<ele>903.687927</ele>
		<name>New marker</name>
	</wpt>
	<wpt lat="49.418434" lon="20.621065">
		<ele>906.000000</ele>
		<name>New marker</name>
	</wpt>
	<wpt lat="49.418760" lon="20.621200">
		<ele>907.675781</ele>
		<name>New marker</name>
	</wpt>
	<wpt lat="49.419857" lon="20.623383">
		<ele>874.732300</ele>
		<name>New marker</name>
	</wpt>
	<wpt lat="49.420980" lon="20.623898">
		<ele>864.156189</ele>
		<name>New marker</name>
	</wpt>
	<wpt lat="49.421074" lon="20.623865">
		<ele>865.049866</ele>
		<name>New marker</name>
	</wpt>
	<wpt lat="49.421303" lon="20.623898">
		<ele>867.122131</ele>
		<name>New marker</name>
	</wpt>
	<wpt lat="49.421356" lon="20.623756">
		<ele>869.241943</ele>
		<name>New marker</name>
	</wpt>
	<wpt lat="49.421290" lon="20.623910">
		<ele>867.025391</ele>
		<name>New marker</name>
	</wpt>
	<wpt lat="49.421290" lon="20.624115">
		<ele>862.446411</ele>
		<name>New marker</name>
	</wpt>
	<wpt lat="49.421318" lon="20.624254">
		<ele>860.254211</ele>
		<name>New marker</name>
	</wpt>
	<wpt lat="49.421610" lon="20.624779">
		<ele>854.214905</ele>
		<name>New marker</name>
	</wpt>
	<wpt lat="49.421093" lon="20.625830">
		<ele>842.587402</ele>
		<name>New marker</name>
	</wpt>
	<wpt lat="49.421078" lon="20.626202">
		<ele>838.878174</ele>
		<name>New marker</name>
	</wpt>
	<wpt lat="49.421080" lon="20.625830">
		<ele>842.490723</ele>
		<name>New marker</name>
	</wpt>
	<wpt lat="49.421600" lon="20.624780">
		<ele>854.057129</ele>
		<name>New marker</name>
	</wpt>
	<wpt lat="49.421290" lon="20.624249">
		<ele>859.426636</ele>
		<name>New marker</name>
	</wpt>
	<wpt lat="49.420956" lon="20.623962">
		<ele>862.866394</ele>
		<name>New marker</name>
	</wpt>
	<wpt lat="49.419857" lon="20.623337">
		<ele>875.953979</ele>
		<name>New marker</name>
	</wpt>
	<wpt lat="49.418842" lon="20.621023">
		<ele>908.552063</ele>
		<name>New marker</name>
	</wpt>
	<wpt lat="49.419155" lon="20.620472">
		<ele>911.881531</ele>
		<name>New marker</name>
	</wpt>
	<wpt lat="49.419500" lon="20.618982">
		<ele>918.446411</ele>
		<name>New marker</name>
	</wpt>
	<wpt lat="49.419720" lon="20.618708">
		<ele>919.055481</ele>
		<name>New marker</name>
	</wpt>
	<wpt lat="49.419807" lon="20.618467">
		<ele>919.091248</ele>
		<name>New marker</name>
	</wpt>
	<wpt lat="49.420174" lon="20.617400">
		<ele>925.749512</ele>
		<name>New marker</name>
	</wpt>
	<wpt lat="49.420280" lon="20.616903">
		<ele>928.292114</ele>
		<name>New marker</name>
	</wpt>
	<wpt lat="49.420628" lon="20.616123">
		<ele>930.814331</ele>
		<name>New marker</name>
	</wpt>
	<wpt lat="49.420746" lon="20.616037">
		<ele>931.182129</ele>
		<name>New marker</name>
	</wpt>
	<wpt lat="49.422080" lon="20.613998">
		<ele>935.801758</ele>
		<name>New marker</name>
	</wpt>
	<wpt lat="49.425194" lon="20.609417">
		<ele>936.569702</ele>
		<name>New marker</name>
	</wpt>
	<wpt lat="49.425274" lon="20.609266">
		<ele>937.587769</ele>
		<name>New marker</name>
	</wpt>
	<wpt lat="49.426070" lon="20.606405">
		<ele>960.939697</ele>
		<name>New marker</name>
	</wpt>
	<wpt lat="49.426792" lon="20.606394">
		<ele>968.724915</ele>
		<name>New marker</name>
	</wpt>
	<wpt lat="49.427040" lon="20.605633">
		<ele>978.294617</ele>
		<name>New marker</name>
	</wpt>
	<wpt lat="49.428642" lon="20.604807">
		<ele>998.775879</ele>
		<name>New marker</name>
	</wpt>
	<wpt lat="49.431730" lon="20.605080">
		<ele>1053.978149</ele>
		<name>New marker</name>
	</wpt>
	<wpt lat="49.434600" lon="20.606962">
		<ele>1103.949951</ele>
		<name>New marker</name>
	</wpt>
	<wpt lat="49.436626" lon="20.609081">
		<ele>1156.600098</ele>
		<name>New marker</name>
	</wpt>
	<wpt lat="49.436497" lon="20.609442">
		<ele>1160.720093</ele>
		<name>New marker</name>
	</wpt>
	<wpt lat="49.436745" lon="20.609592">
		<ele>1160.197998</ele>
		<name>New marker</name>
	</wpt>
	<wpt lat="49.436604" lon="20.609537">
		<ele>1160.711914</ele>
		<name>New marker</name>
	</wpt>
	<wpt lat="49.436460" lon="20.609463">
		<ele>1160.479492</ele>
		<name>New marker</name>
	</wpt>
	<wpt lat="49.436290" lon="20.609356">
		<ele>1160.956055</ele>
		<name>New marker</name>
	</wpt>
	<wpt lat="49.436237" lon="20.609253">
		<ele>1162.095459</ele>
		<name>New marker</name>
	</wpt>
	<wpt lat="49.436290" lon="20.609344">
		<ele>1161.127075</ele>
		<name>New marker</name>
	</wpt>
	<wpt lat="49.436455" lon="20.609463">
		<ele>1160.467529</ele>
		<name>New marker</name>
	</wpt>
	<wpt lat="49.436620" lon="20.609066">
		<ele>1156.600098</ele>
		<name>New marker</name>
	</wpt>
	<wpt lat="49.437664" lon="20.610264">
		<ele>1140.862427</ele>
		<name>New marker</name>
	</wpt>
	<wpt lat="49.438152" lon="20.610560">
		<ele>1144.908936</ele>
		<name>New marker</name>
	</wpt>
	<wpt lat="49.439310" lon="20.611021">
		<ele>1169.177002</ele>
		<name>New marker</name>
	</wpt>
	<wpt lat="49.439526" lon="20.610844">
		<ele>1174.463501</ele>
		<name>New marker</name>
	</wpt>
	<wpt lat="49.439724" lon="20.610570">
		<ele>1176.251587</ele>
		<name>New marker</name>
	</wpt>
	<wpt lat="49.439930" lon="20.610340">
		<ele>1175.577026</ele>
		<name>New marker</name>
	</wpt>
	<wpt lat="49.439804" lon="20.610430">
		<ele>1175.278564</ele>
		<name>New marker</name>
	</wpt>
	<wpt lat="49.439716" lon="20.610376">
		<ele>1173.739014</ele>
		<name>New marker</name>
	</wpt>
	<wpt lat="49.439598" lon="20.610176">
		<ele>1166.159180</ele>
		<name>New marker</name>
	</wpt>
	<wpt lat="49.439487" lon="20.609964">
		<ele>1159.233154</ele>
		<name>New marker</name>
	</wpt>
	<wpt lat="49.439392" lon="20.609776">
		<ele>1150.902954</ele>
		<name>New marker</name>
	</wpt>
	<wpt lat="49.439270" lon="20.609600">
		<ele>1145.103516</ele>
		<name>New marker</name>
	</wpt>
	<wpt lat="49.438090" lon="20.610617">
		<ele>1143.127075</ele>
		<name>New marker</name>
	</wpt>
	<wpt lat="49.439270" lon="20.609556">
		<ele>1143.904907</ele>
		<name>New marker</name>
	</wpt>
	<wpt lat="49.440230" lon="20.608301">
		<ele>1142.208008</ele>
		<name>New marker</name>
	</wpt>
	<wpt lat="49.442000" lon="20.607227">
		<ele>1104.781372</ele>
		<name>New marker</name>
	</wpt>
	<wpt lat="49.442688" lon="20.606434">
		<ele>1113.523193</ele>
		<name>New marker</name>
	</wpt>
	<wpt lat="49.443340" lon="20.605587">
		<ele>1120.408203</ele>
		<name>New marker</name>
	</wpt>
	<wpt lat="49.443420" lon="20.605635">
		<ele>1120.200073</ele>
		<name>New marker</name>
	</wpt>
	<wpt lat="49.448288" lon="20.606749">
		<ele>1241.822510</ele>
		<name>New marker</name>
	</wpt>
	<wpt lat="49.449306" lon="20.604122">
		<ele>1261.019775</ele>
		<name>New marker</name>
	</wpt>
	<wpt lat="49.449330" lon="20.604221">
		<ele>1261.225586</ele>
		<name>New marker</name>
	</wpt>
	<wpt lat="49.449306" lon="20.604122">
		<ele>1261.019775</ele>
		<name>New marker</name>
	</wpt>
	<wpt lat="49.449265" lon="20.604239">
		<ele>1260.943726</ele>
		<name>New marker</name>
	</wpt>
	<wpt lat="49.448265" lon="20.606735">
		<ele>1241.608887</ele>
		<name>New marker</name>
	</wpt>
	<wpt lat="49.443317" lon="20.605623">
		<ele>1120.538940</ele>
		<name>New marker</name>
	</wpt>
	<wpt lat="49.442627" lon="20.606460">
		<ele>1112.473145</ele>
		<name>New marker</name>
	</wpt>
	<wpt lat="49.441994" lon="20.607224">
		<ele>1104.537109</ele>
		<name>New marker</name>
	</wpt>
	<wpt lat="49.439820" lon="20.608831">
		<ele>1142.423340</ele>
		<name>New marker</name>
	</wpt>
	<wpt lat="49.438140" lon="20.610670">
		<ele>1142.619263</ele>
		<name>New marker</name>
	</wpt>
	<wpt lat="49.439150" lon="20.613926">
		<ele>1121.608276</ele>
		<name>New marker</name>
	</wpt>
	<wpt lat="49.439484" lon="20.619585">
		<ele>1083.573730</ele>
		<name>New marker</name>
	</wpt>
	<wpt lat="49.439720" lon="20.621914">
		<ele>1049.402832</ele>
		<name>New marker</name>
	</wpt>
	<wpt lat="49.439940" lon="20.623732">
		<ele>1037.808228</ele>
		<name>New marker</name>
	</wpt>
	<wpt lat="49.441010" lon="20.627975">
		<ele>1033.824829</ele>
		<name>New marker</name>
	</wpt>
	<wpt lat="49.440850" lon="20.629105">
		<ele>1036.892334</ele>
		<name>New marker</name>
	</wpt>
	<wpt lat="49.441220" lon="20.632635">
		<ele>1029.438232</ele>
		<name>New marker</name>
	</wpt>
	<wpt lat="49.441383" lon="20.632520">
		<ele>1035.555542</ele>
		<name>New marker</name>
	</wpt>
	<wpt lat="49.441315" lon="20.632240">
		<ele>1035.355103</ele>
		<name>New marker</name>
	</wpt>
	<wpt lat="49.441250" lon="20.631992">
		<ele>1035.222534</ele>
		<name>New marker</name>
	</wpt>
	<wpt lat="49.441303" lon="20.632147">
		<ele>1035.726074</ele>
		<name>New marker</name>
	</wpt>
	<wpt lat="49.441380" lon="20.632408">
		<ele>1035.942139</ele>
		<name>New marker</name>
	</wpt>
	<wpt lat="49.441470" lon="20.632700">
		<ele>1037.282471</ele>
		<name>New marker</name>
	</wpt>
	<wpt lat="49.441580" lon="20.633022">
		<ele>1036.041016</ele>
		<name>New marker</name>
	</wpt>
	<wpt lat="49.441402" lon="20.633110">
		<ele>1032.968872</ele>
		<name>New marker</name>
	</wpt>
	<wpt lat="49.444916" lon="20.638083">
		<ele>1011.296753</ele>
		<name>New marker</name>
	</wpt>
	<wpt lat="49.445010" lon="20.637949">
		<ele>1017.924377</ele>
		<name>New marker</name>
	</wpt>
	<wpt lat="49.444860" lon="20.637793">
		<ele>1017.451599</ele>
		<name>New marker</name>
	</wpt>
	<wpt lat="49.445010" lon="20.637957">
		<ele>1017.745117</ele>
		<name>New marker</name>
	</wpt>
	<wpt lat="49.445120" lon="20.638128">
		<ele>1018.444397</ele>
		<name>New marker</name>
	</wpt>
	<wpt lat="49.444910" lon="20.638120">
		<ele>1009.774780</ele>
		<name>New marker</name>
	</wpt>
	<wpt lat="49.445995" lon="20.642725">
		<ele>976.537415</ele>
		<name>New marker</name>
	</wpt>
	<wpt lat="49.445557" lon="20.644592">
		<ele>974.271790</ele>
		<name>New marker</name>
	</wpt>
	<wpt lat="49.445507" lon="20.644790">
		<ele>975.704834</ele>
		<name>New marker</name>
	</wpt>
	<wpt lat="49.445415" lon="20.645102">
		<ele>977.664185</ele>
		<name>New marker</name>
	</wpt>
	<wpt lat="49.445293" lon="20.646437">
		<ele>985.972717</ele>
		<name>New marker</name>
	</wpt>
	<wpt lat="49.445072" lon="20.646519">
		<ele>988.684448</ele>
		<name>New marker</name>
	</wpt>
	<wpt lat="49.444700" lon="20.646685">
		<ele>992.138550</ele>
		<name>New marker</name>
	</wpt>
	<wpt lat="49.444480" lon="20.646814">
		<ele>994.649780</ele>
		<name>New marker</name>
	</wpt>
	<wpt lat="49.444218" lon="20.646915">
		<ele>997.973083</ele>
		<name>New marker</name>
	</wpt>
	<wpt lat="49.444060" lon="20.646904">
		<ele>999.095215</ele>
		<name>New marker</name>
	</wpt>
	<wpt lat="49.443916" lon="20.647040">
		<ele>999.420410</ele>
		<name>New marker</name>
	</wpt>
	<wpt lat="49.443817" lon="20.647175">
		<ele>999.431213</ele>
		<name>New marker</name>
	</wpt>
	<wpt lat="49.443910" lon="20.647060">
		<ele>999.526794</ele>
		<name>New marker</name>
	</wpt>
	<wpt lat="49.444046" lon="20.646900">
		<ele>999.192017</ele>
		<name>New marker</name>
	</wpt>
	<wpt lat="49.444206" lon="20.646900">
		<ele>998.069824</ele>
		<name>New marker</name>
	</wpt>
	<wpt lat="49.444477" lon="20.646824">
		<ele>994.673828</ele>
		<name>New marker</name>
	</wpt>
	<wpt lat="49.444690" lon="20.646696">
		<ele>992.288147</ele>
		<name>New marker</name>
	</wpt>
	<wpt lat="49.445070" lon="20.646507">
		<ele>988.762695</ele>
		<name>New marker</name>
	</wpt>
	<wpt lat="49.445316" lon="20.646484">
		<ele>985.714844</ele>
		<name>New marker</name>
	</wpt>
	<wpt lat="49.443930" lon="20.649849">
		<ele>962.869507</ele>
		<name>New marker</name>
	</wpt>
	<wpt lat="49.442997" lon="20.653938">
		<ele>904.687805</ele>
		<name>New marker</name>
	</wpt>
	<wpt lat="49.442177" lon="20.654732">
		<ele>889.175049</ele>
		<name>New marker</name>
	</wpt>
	<wpt lat="49.441944" lon="20.655064">
		<ele>887.738770</ele>
		<name>New marker</name>
	</wpt>
	<wpt lat="49.441734" lon="20.655209">
		<ele>887.181335</ele>
		<name>New marker</name>
	</wpt>
	<wpt lat="49.441532" lon="20.655424">
		<ele>887.000061</ele>
		<name>New marker</name>
	</wpt>
	<wpt lat="49.441326" lon="20.655584">
		<ele>886.030884</ele>
		<name>New marker</name>
	</wpt>
	<wpt lat="49.441185" lon="20.655777">
		<ele>883.496277</ele>
		<name>New marker</name>
	</wpt>
	<wpt lat="49.440940" lon="20.655907">
		<ele>878.138428</ele>
		<name>New marker</name>
	</wpt>
	<wpt lat="49.440826" lon="20.656061">
		<ele>877.639832</ele>
		<name>New marker</name>
	</wpt>
	<wpt lat="49.440872" lon="20.656357">
		<ele>873.716553</ele>
		<name>New marker</name>
	</wpt>
	<wpt lat="49.441006" lon="20.656593">
		<ele>870.811035</ele>
		<name>New marker</name>
	</wpt>
	<wpt lat="49.440960" lon="20.656647">
		<ele>869.478271</ele>
		<name>New marker</name>
	</wpt>
	<wpt lat="49.441284" lon="20.657526">
		<ele>859.062805</ele>
		<name>New marker</name>
	</wpt>
	<wpt lat="49.441517" lon="20.658020">
		<ele>852.405090</ele>
		<name>New marker</name>
	</wpt>
	<wpt lat="49.441820" lon="20.658375">
		<ele>843.600098</ele>
		<name>New marker</name>
	</wpt>
	<wpt lat="49.441734" lon="20.658825">
		<ele>840.568359</ele>
		<name>New marker</name>
	</wpt>
	<wpt lat="49.441860" lon="20.659346">
		<ele>830.922119</ele>
		<name>New marker</name>
	</wpt>
	<wpt lat="49.441544" lon="20.661018">
		<ele>810.611328</ele>
		<name>New marker</name>
	</wpt>
	<wpt lat="49.441586" lon="20.661340">
		<ele>807.323669</ele>
		<name>New marker</name>
	</wpt>
	<wpt lat="49.442135" lon="20.664429">
		<ele>782.005493</ele>
		<name>New marker</name>
	</wpt>
	<wpt lat="49.442238" lon="20.665787">
		<ele>776.912354</ele>
		<name>New marker</name>
	</wpt>
	<wpt lat="49.442177" lon="20.666082">
		<ele>778.958801</ele>
		<name>New marker</name>
	</wpt>
	<wpt lat="49.442100" lon="20.666307">
		<ele>780.689697</ele>
		<name>New marker</name>
	</wpt>
	<wpt lat="49.442010" lon="20.666630">
		<ele>784.956116</ele>
		<name>New marker</name>
	</wpt>
	<wpt lat="49.441956" lon="20.666960">
		<ele>789.485352</ele>
		<name>New marker</name>
	</wpt>
	<wpt lat="49.442036" lon="20.667107">
		<ele>788.134644</ele>
		<name>New marker</name>
	</wpt>
	<wpt lat="49.441948" lon="20.666940">
		<ele>789.400024</ele>
		<name>New marker</name>
	</wpt>
	<wpt lat="49.441994" lon="20.666641">
		<ele>785.159851</ele>
		<name>New marker</name>
	</wpt>
	<wpt lat="49.442097" lon="20.666334">
		<ele>781.092407</ele>
		<name>New marker</name>
	</wpt>
	<wpt lat="49.442170" lon="20.666103">
		<ele>779.187256</ele>
		<name>New marker</name>
	</wpt>
	<wpt lat="49.442238" lon="20.665792">
		<ele>776.952881</ele>
		<name>New marker</name>
	</wpt>
	<wpt lat="49.442610" lon="20.669998">
		<ele>770.194641</ele>
		<name>New marker</name>
	</wpt>
	<wpt lat="49.442616" lon="20.670362">
		<ele>772.917786</ele>
		<name>New marker</name>
	</wpt>
	<wpt lat="49.442604" lon="20.670647">
		<ele>775.835022</ele>
		<name>New marker</name>
	</wpt>
	<wpt lat="49.442623" lon="20.670954">
		<ele>779.669495</ele>
		<name>New marker</name>
	</wpt>
	<wpt lat="49.442646" lon="20.671154">
		<ele>779.131104</ele>
		<name>New marker</name>
	</wpt>
	<wpt lat="49.442505" lon="20.671108">
		<ele>780.307007</ele>
		<name>New marker</name>
	</wpt>
	<wpt lat="49.442432" lon="20.671050">
		<ele>779.859253</ele>
		<name>New marker</name>
	</wpt>
	<wpt lat="49.442500" lon="20.671120">
		<ele>780.274292</ele>
		<name>New marker</name>
	</wpt>
	<wpt lat="49.442640" lon="20.671167">
		<ele>779.140198</ele>
		<name>New marker</name>
	</wpt>
	<wpt lat="49.442776" lon="20.671232">
		<ele>778.217163</ele>
		<name>New marker</name>
	</wpt>
	<wpt lat="49.442913" lon="20.671390">
		<ele>779.240723</ele>
		<name>New marker</name>
	</wpt>
	<wpt lat="49.442886" lon="20.671484">
		<ele>777.847778</ele>
		<name>New marker</name>
	</wpt>
	<wpt lat="49.442825" lon="20.671650">
		<ele>776.314575</ele>
		<name>New marker</name>
	</wpt>
	<wpt lat="49.442800" lon="20.671885">
		<ele>773.267029</ele>
		<name>New marker</name>
	</wpt>
	<wpt lat="49.442870" lon="20.672354">
		<ele>773.868164</ele>
		<name>New marker</name>
	</wpt>
	<wpt lat="49.442944" lon="20.672712">
		<ele>773.481506</ele>
		<name>New marker</name>
	</wpt>
	<wpt lat="49.443092" lon="20.673153">
		<ele>775.853333</ele>
		<name>New marker</name>
	</wpt>
	<wpt lat="49.443165" lon="20.673399">
		<ele>777.673706</ele>
		<name>New marker</name>
	</wpt>
	<wpt lat="49.443256" lon="20.673542">
		<ele>778.395691</ele>
		<name>New marker</name>
	</wpt>
	<wpt lat="49.443367" lon="20.673649">
		<ele>780.094482</ele>
		<name>New marker</name>
	</wpt>
	<wpt lat="49.443413" lon="20.673723">
		<ele>782.254395</ele>
		<name>New marker</name>
	</wpt>
	<wpt lat="49.443460" lon="20.673906">
		<ele>780.907227</ele>
		<name>New marker</name>
	</wpt>
	<wpt lat="49.443490" lon="20.674118">
		<ele>778.624451</ele>
		<name>New marker</name>
	</wpt>
	<wpt lat="49.443554" lon="20.674381">
		<ele>772.637085</ele>
		<name>New marker</name>
	</wpt>
	<wpt lat="49.443600" lon="20.674585">
		<ele>766.179443</ele>
		<name>New marker</name>
	</wpt>
	<wpt lat="49.443672" lon="20.674881">
		<ele>758.826294</ele>
		<name>New marker</name>
	</wpt>
	<wpt lat="49.443780" lon="20.675192">
		<ele>751.836304</ele>
		<name>New marker</name>
	</wpt>
	<wpt lat="49.443916" lon="20.675440">
		<ele>747.079956</ele>
		<name>New marker</name>
	</wpt>
	<wpt lat="49.444088" lon="20.675566">
		<ele>742.532227</ele>
		<name>New marker</name>
	</wpt>
	<wpt lat="49.444214" lon="20.675617">
		<ele>739.551086</ele>
		<name>New marker</name>
	</wpt>
	<wpt lat="49.444360" lon="20.675667">
		<ele>734.659668</ele>
		<name>New marker</name>
	</wpt>
	<wpt lat="49.444420" lon="20.675978">
		<ele>731.682617</ele>
		<name>New marker</name>
	</wpt>
	<wpt lat="49.444733" lon="20.679241">
		<ele>672.705688</ele>
		<name>New marker</name>
	</wpt>
	<wpt lat="49.442177" lon="20.685673">
		<ele>586.548096</ele>
		<name>New marker</name>
	</wpt>
	<wpt lat="49.443060" lon="20.687010">
		<ele>579.843140</ele>
		<name>New marker</name>
	</wpt>
	<wpt lat="49.443010" lon="20.687183">
		<ele>579.234680</ele>
		<name>New marker</name>
	</wpt>
	<wpt lat="49.443058" lon="20.687010">
		<ele>579.818359</ele>
		<name>New marker</name>
	</wpt>
	<wpt lat="49.443306" lon="20.687271">
		<ele>578.800781</ele>
		<name>New marker</name>
	</wpt>
	<wpt lat="49.442867" lon="20.690750">
		<ele>566.598938</ele>
		<name>New marker</name>
	</wpt>
	<wpt lat="49.442966" lon="20.690954">
		<ele>567.566833</ele>
		<name>New marker</name>
	</wpt>
	<wpt lat="49.442974" lon="20.691223">
		<ele>567.314575</ele>
		<name>New marker</name>
	</wpt>
	<wpt lat="49.442924" lon="20.691717">
		<ele>567.121338</ele>
		<name>New marker</name>
	</wpt>
	<wpt lat="49.442875" lon="20.692043">
		<ele>567.928955</ele>
		<name>New marker</name>
	</wpt>
	<wpt lat="49.442787" lon="20.692661">
		<ele>574.517456</ele>
		<name>New marker</name>
	</wpt>
	<wpt lat="49.442770" lon="20.692886">
		<ele>577.746521</ele>
		<name>New marker</name>
	</wpt>
	<wpt lat="49.442715" lon="20.693176">
		<ele>580.328125</ele>
		<name>New marker</name>
	</wpt>
	<wpt lat="49.442640" lon="20.693464">
		<ele>581.380127</ele>
		<name>New marker</name>
	</wpt>
	<wpt lat="49.442562" lon="20.693730">
		<ele>583.920471</ele>
		<name>New marker</name>
	</wpt>
	<wpt lat="49.442600" lon="20.693937">
		<ele>587.590759</ele>
		<name>New marker</name>
	</wpt>
	<wpt lat="49.442604" lon="20.694124">
		<ele>589.547913</ele>
		<name>New marker</name>
	</wpt>
	<wpt lat="49.442560" lon="20.694195">
		<ele>590.277100</ele>
		<name>New marker</name>
	</wpt>
	<wpt lat="49.442604" lon="20.694124">
		<ele>589.547913</ele>
		<name>New marker</name>
	</wpt>
	<wpt lat="49.442690" lon="20.693930">
		<ele>588.704468</ele>
		<name>New marker</name>
	</wpt>
	<wpt lat="49.442783" lon="20.693745">
		<ele>588.489563</ele>
		<name>New marker</name>
	</wpt>
	<wpt lat="49.442970" lon="20.693592">
		<ele>590.043152</ele>
		<name>New marker</name>
	</wpt>
	<wpt lat="49.442947" lon="20.693537">
		<ele>589.464722</ele>
		<name>New marker</name>
	</wpt>
	<wpt lat="49.442894" lon="20.693457">
		<ele>586.725159</ele>
		<name>New marker</name>
	</wpt>
	<wpt lat="49.442844" lon="20.693384">
		<ele>584.075806</ele>
		<name>New marker</name>
	</wpt>
	<wpt lat="49.442795" lon="20.693316">
		<ele>582.556885</ele>
		<name>New marker</name>
	</wpt>
	<wpt lat="49.442770" lon="20.693240">
		<ele>581.928650</ele>
		<name>New marker</name>
	</wpt>
	<wpt lat="49.442750" lon="20.693094">
		<ele>579.973206</ele>
		<name>New marker</name>
	</wpt>
	<wpt lat="49.442790" lon="20.692806">
		<ele>576.977783</ele>
		<name>New marker</name>
	</wpt>
	<wpt lat="49.442852" lon="20.692280">
		<ele>569.827576</ele>
		<name>New marker</name>
	</wpt>
	<wpt lat="49.442924" lon="20.691780">
		<ele>567.298706</ele>
		<name>New marker</name>
	</wpt>
	<wpt lat="49.442966" lon="20.691343">
		<ele>567.109253</ele>
		<name>New marker</name>
	</wpt>
	<wpt lat="49.442966" lon="20.691107">
		<ele>567.394348</ele>
		<name>New marker</name>
	</wpt>
	<wpt lat="49.442936" lon="20.690866">
		<ele>567.259888</ele>
		<name>New marker</name>
	</wpt>
	<wpt lat="49.442852" lon="20.690750">
		<ele>566.355835</ele>
		<name>New marker</name>
	</wpt>
	<wpt lat="49.440647" lon="20.695759">
		<ele>541.641235</ele>
		<name>New marker</name>
	</wpt>
	<wpt lat="49.439545" lon="20.703590">
		<ele>485.650208</ele>
		<name>New marker</name>
	</wpt>
	<wpt lat="49.439552" lon="20.704937">
		<ele>473.210693</ele>
		<name>New marker</name>
	</wpt>
	<wpt lat="49.439857" lon="20.707035">
		<ele>457.420074</ele>
		<name>New marker</name>
	</wpt>
	<wpt lat="49.439810" lon="20.710210">
		<ele>428.816315</ele>
		<name>New marker</name>
	</wpt>
	<wpt lat="49.439964" lon="20.712452">
		<ele>403.205322</ele>
		<name>New marker</name>
	</wpt>
	<wpt lat="49.440320" lon="20.712420">
		<ele>400.204529</ele>
		<name>New marker</name>
	</wpt>
	<wpt lat="49.440370" lon="20.712952">
		<ele>399.339905</ele>
		<name>New marker</name>
	</wpt>
	<wpt lat="49.440517" lon="20.713480">
		<ele>397.746826</ele>
		<name>New marker</name>
	</wpt>
	<wpt lat="49.440598" lon="20.713680">
		<ele>397.038818</ele>
		<name>New marker</name>
	</wpt>
	<wpt lat="49.440840" lon="20.714450">
		<ele>395.111084</ele>
		<name>New marker</name>
	</wpt>
</gpx>

