<?xml version="1.0" encoding="utf-8"?>
<gpx xmlns="http://www.topografix.com/GPX/1/1" version="1.1" creator="https://mapy.com/">
	<wpt lat="50.558430" lon="19.170416">
		<ele>362.841125</ele>
		<name>New marker</name>
	</wpt>
	<wpt lat="50.559370" lon="19.165201">
		<ele>380.669891</ele>
		<name>New marker</name>
	</wpt>
	<wpt lat="50.559300" lon="19.164928">
		<ele>382.087585</ele>
		<name>New marker</name>
	</wpt>
	<wpt lat="50.559242" lon="19.164982">
		<ele>383.275146</ele>
		<name>New marker</name>
	</wpt>
	<wpt lat="50.559180" lon="19.165009">
		<ele>384.271210</ele>
		<name>New marker</name>
	</wpt>
	<wpt lat="50.559116" lon="19.165014">
		<ele>384.484711</ele>
		<name>New marker</name>
	</wpt>
	<wpt lat="50.559124" lon="19.164946">
		<ele>384.389252</ele>
		<name>New marker</name>
	</wpt>
	<wpt lat="50.559113" lon="19.165014">
		<ele>384.463135</ele>
		<name>New marker</name>
	</wpt>
	<wpt lat="50.559093" lon="19.165010">
		<ele>384.344971</ele>
		<name>New marker</name>
	</wpt>
	<wpt lat="50.559055" lon="19.165020">
		<ele>384.156891</ele>
		<name>New marker</name>
	</wpt>
	<wpt lat="50.559006" lon="19.165024">
		<ele>384.141357</ele>
		<name>New marker</name>
	</wpt>
	<wpt lat="50.558945" lon="19.165010">
		<ele>383.904938</ele>
		<name>New marker</name>
	</wpt>
	<wpt lat="50.558956" lon="19.164917">
		<ele>383.643311</ele>
		<name>New marker</name>
	</wpt>
	<wpt lat="50.559055" lon="19.164892">
		<ele>383.991333</ele>
		<name>New marker</name>
	</wpt>
	<wpt lat="50.559120" lon="19.164799">
		<ele>384.019501</ele>
		<name>New marker</name>
	</wpt>
	<wpt lat="50.559166" lon="19.164722">
		<ele>383.810822</ele>
		<name>New marker</name>
	</wpt>
	<wpt lat="50.559140" lon="19.164885">
		<ele>384.340515</ele>
		<name>New marker</name>
	</wpt>
	<wpt lat="50.559124" lon="19.164946">
		<ele>384.389252</ele>
		<name>New marker</name>
	</wpt>
	<wpt lat="50.559124" lon="19.165062">
		<ele>384.593140</ele>
		<name>New marker</name>
	</wpt>
	<wpt lat="50.559220" lon="19.165056">
		<ele>383.654633</ele>
		<name>New marker</name>
	</wpt>
	<wpt lat="50.559322" lon="19.164991">
		<ele>381.497681</ele>
		<name>New marker</name>
	</wpt>
	<wpt lat="50.559364" lon="19.165201">
		<ele>380.712891</ele>
		<name>New marker</name>
	</wpt>
	<wpt lat="50.558422" lon="19.170418">
		<ele>362.835754</ele>
		<name>New marker</name>
	</wpt>
</gpx>

