<?xml version="1.0" encoding="utf-8"?>
<gpx xmlns="http://www.topografix.com/GPX/1/1" version="1.1" creator="https://mapy.com/">
	<wpt lat="65.077410" lon="-22.726004">
		<ele>6.807425</ele>
		<name>New marker</name>
	</wpt>
	<wpt lat="65.077540" lon="-22.726640">
		<ele>6.384580</ele>
		<name>New marker</name>
	</wpt>
	<wpt lat="65.077720" lon="-22.726389">
		<ele>5.696359</ele>
		<name>New marker</name>
	</wpt>
	<wpt lat="65.077730" lon="-22.725584">
		<ele>5.476081</ele>
		<name>New marker</name>
	</wpt>
	<wpt lat="65.077720" lon="-22.724077">
		<ele>6.605110</ele>
		<name>New marker</name>
	</wpt>
	<wpt lat="65.077896" lon="-22.723858">
		<ele>6.238065</ele>
		<name>New marker</name>
	</wpt>
	<wpt lat="65.078420" lon="-22.723470">
		<ele>4.060266</ele>
		<name>New marker</name>
	</wpt>
	<wpt lat="65.078740" lon="-22.722275">
		<ele>1.855829</ele>
		<name>New marker</name>
	</wpt>
	<wpt lat="65.079630" lon="-22.724607">
		<ele>2.000000</ele>
		<name>New marker</name>
	</wpt>
	<wpt lat="65.079740" lon="-22.725521">
		<ele>1.631628</ele>
		<name>New marker</name>
	</wpt>
	<wpt lat="65.080000" lon="-22.725433">
		<ele>8.282271</ele>
		<name>New marker</name>
	</wpt>
	<wpt lat="65.080050" lon="-22.725187">
		<ele>10.164734</ele>
		<name>New marker</name>
	</wpt>
	<wpt lat="65.080010" lon="-22.723337">
		<ele>11.538662</ele>
		<name>New marker</name>
	</wpt>
	<wpt lat="65.080120" lon="-22.723234">
		<ele>14.132914</ele>
		<name>New marker</name>
	</wpt>
	<wpt lat="65.080280" lon="-22.723343">
		<ele>20.274591</ele>
		<name>New marker</name>
	</wpt>
	<wpt lat="65.080240" lon="-22.723433">
		<ele>19.429747</ele>
		<name>New marker</name>
	</wpt>
	<wpt lat="65.080110" lon="-22.723246">
		<ele>14.038606</ele>
		<name>New marker</name>
	</wpt>
	<wpt lat="65.080750" lon="-22.722000">
		<ele>0.885448</ele>
		<name>New marker</name>
	</wpt>
	<wpt lat="65.081000" lon="-22.723026">
		<ele>11.990944</ele>
		<name>New marker</name>
	</wpt>
	<wpt lat="65.080410" lon="-22.725300">
		<ele>14.060818</ele>
		<name>New marker</name>
	</wpt>
	<wpt lat="65.080154" lon="-22.726126">
		<ele>11.342533</ele>
		<name>New marker</name>
	</wpt>
	<wpt lat="65.079860" lon="-22.726776">
		<ele>9.586333</ele>
		<name>New marker</name>
	</wpt>
	<wpt lat="65.079910" lon="-22.726347">
		<ele>10.949645</ele>
		<name>New marker</name>
	</wpt>
	<wpt lat="65.079980" lon="-22.725992">
		<ele>9.674735</ele>
		<name>New marker</name>
	</wpt>
	<wpt lat="65.079980" lon="-22.725676">
		<ele>7.152567</ele>
		<name>New marker</name>
	</wpt>
	<wpt lat="65.079990" lon="-22.725471">
		<ele>7.803927</ele>
		<name>New marker</name>
	</wpt>
	<wpt lat="65.079720" lon="-22.725521">
		<ele>1.063731</ele>
		<name>New marker</name>
	</wpt>
	<wpt lat="65.079636" lon="-22.724485">
		<ele>2.000000</ele>
		<name>New marker</name>
	</wpt>
	<wpt lat="65.078730" lon="-22.722221">
		<ele>1.867948</ele>
		<name>New marker</name>
	</wpt>
	<wpt lat="65.078415" lon="-22.723396">
		<ele>4.322879</ele>
		<name>New marker</name>
	</wpt>
	<wpt lat="65.077890" lon="-22.723879">
		<ele>6.174105</ele>
		<name>New marker</name>
	</wpt>
	<wpt lat="65.077700" lon="-22.724040">
		<ele>6.798455</ele>
		<name>New marker</name>
	</wpt>
	<wpt lat="65.077720" lon="-22.725595">
		<ele>5.527588</ele>
		<name>New marker</name>
	</wpt>
	<wpt lat="65.077705" lon="-22.726437">
		<ele>5.785758</ele>
		<name>New marker</name>
	</wpt>
	<wpt lat="65.077510" lon="-22.726599">
		<ele>6.473980</ele>
		<name>New marker</name>
	</wpt>
	<wpt lat="65.077390" lon="-22.725998">
		<ele>6.868197</ele>
		<name>New marker</name>
	</wpt>
</gpx>

