<?xml version="1.0" encoding="utf-8"?>
<gpx xmlns="http://www.topografix.com/GPX/1/1" version="1.1" creator="https://mapy.com/">
	<wpt lat="65.603550" lon="-20.646986">
		<ele>73.829193</ele>
		<name>New marker</name>
	</wpt>
	<wpt lat="65.603546" lon="-20.639915">
		<ele>36.292515</ele>
		<name>New marker</name>
	</wpt>
	<wpt lat="65.603810" lon="-20.639510">
		<ele>34.639557</ele>
		<name>New marker</name>
	</wpt>
	<wpt lat="65.605870" lon="-20.637304">
		<ele>11.621565</ele>
		<name>New marker</name>
	</wpt>
	<wpt lat="65.603780" lon="-20.639572">
		<ele>34.823944</ele>
		<name>New marker</name>
	</wpt>
	<wpt lat="65.603540" lon="-20.639915">
		<ele>36.314869</ele>
		<name>New marker</name>
	</wpt>
	<wpt lat="65.603546" lon="-20.646986">
		<ele>73.839424</ele>
		<name>New marker</name>
	</wpt>
</gpx>

