<?xml version="1.0" encoding="utf-8"?>
<gpx xmlns="http://www.topografix.com/GPX/1/1" version="1.1" creator="https://mapy.com/">
	<wpt lat="57.167473" lon="-3.694367">
		<ele>327.659882</ele>
		<name>New marker</name>
	</wpt>
	<wpt lat="57.167377" lon="-3.694020">
		<ele>327.839355</ele>
		<name>New marker</name>
	</wpt>
	<wpt lat="57.166664" lon="-3.691966">
		<ele>326.588623</ele>
		<name>New marker</name>
	</wpt>
	<wpt lat="57.165855" lon="-3.689884">
		<ele>323.278076</ele>
		<name>New marker</name>
	</wpt>
	<wpt lat="57.165436" lon="-3.688833">
		<ele>323.000000</ele>
		<name>New marker</name>
	</wpt>
	<wpt lat="57.164543" lon="-3.687781">
		<ele>322.999969</ele>
		<name>New marker</name>
	</wpt>
	<wpt lat="57.164185" lon="-3.687567">
		<ele>323.244385</ele>
		<name>New marker</name>
	</wpt>
	<wpt lat="57.162468" lon="-3.687272">
		<ele>326.273102</ele>
		<name>New marker</name>
	</wpt>
	<wpt lat="57.161274" lon="-3.686961">
		<ele>329.770874</ele>
		<name>New marker</name>
	</wpt>
	<wpt lat="57.158592" lon="-3.683533">
		<ele>344.253815</ele>
		<name>New marker</name>
	</wpt>
	<wpt lat="57.157303" lon="-3.682551">
		<ele>352.167633</ele>
		<name>New marker</name>
	</wpt>
	<wpt lat="57.152775" lon="-3.680110">
		<ele>386.858093</ele>
		<name>New marker</name>
	</wpt>
	<wpt lat="57.146780" lon="-3.680475">
		<ele>445.712585</ele>
		<name>New marker</name>
	</wpt>
	<wpt lat="57.143910" lon="-3.680046">
		<ele>478.670898</ele>
		<name>New marker</name>
	</wpt>
	<wpt lat="57.143875" lon="-3.680260">
		<ele>474.274658</ele>
		<name>New marker</name>
	</wpt>
	<wpt lat="57.143900" lon="-3.680030">
		<ele>479.123901</ele>
		<name>New marker</name>
	</wpt>
	<wpt lat="57.142227" lon="-3.678769">
		<ele>491.511597</ele>
		<name>New marker</name>
	</wpt>
	<wpt lat="57.135060" lon="-3.672713">
		<ele>612.656860</ele>
		<name>New marker</name>
	</wpt>
	<wpt lat="57.134396" lon="-3.671817">
		<ele>622.646240</ele>
		<name>New marker</name>
	</wpt>
	<wpt lat="57.134384" lon="-3.671747">
		<ele>623.193115</ele>
		<name>New marker</name>
	</wpt>
	<wpt lat="57.134235" lon="-3.671645">
		<ele>623.272034</ele>
		<name>New marker</name>
	</wpt>
	<wpt lat="57.134290" lon="-3.671404">
		<ele>626.146179</ele>
		<name>New marker</name>
	</wpt>
	<wpt lat="57.133648" lon="-3.670631">
		<ele>635.094788</ele>
		<name>New marker</name>
	</wpt>
	<wpt lat="57.133390" lon="-3.670052">
		<ele>641.029907</ele>
		<name>New marker</name>
	</wpt>
	<wpt lat="57.133343" lon="-3.670233">
		<ele>639.261230</ele>
		<name>New marker</name>
	</wpt>
	<wpt lat="57.133377" lon="-3.670009">
		<ele>641.479858</ele>
		<name>New marker</name>
	</wpt>
	<wpt lat="57.133290" lon="-3.669666">
		<ele>645.643372</ele>
		<name>New marker</name>
	</wpt>
	<wpt lat="57.133274" lon="-3.669247">
		<ele>651.637451</ele>
		<name>New marker</name>
	</wpt>
	<wpt lat="57.133236" lon="-3.668764">
		<ele>658.267944</ele>
		<name>New marker</name>
	</wpt>
	<wpt lat="57.134270" lon="-3.662574">
		<ele>798.434814</ele>
		<name>New marker</name>
	</wpt>
	<wpt lat="57.132690" lon="-3.657027">
		<ele>891.497925</ele>
		<name>New marker</name>
	</wpt>
	<wpt lat="57.125023" lon="-3.645805">
		<ele>1073.550903</ele>
		<name>New marker</name>
	</wpt>
	<wpt lat="57.124107" lon="-3.644893">
		<ele>1092.693359</ele>
		<name>New marker</name>
	</wpt>
	<wpt lat="57.123863" lon="-3.645161">
		<ele>1096.470947</ele>
		<name>New marker</name>
	</wpt>
	<wpt lat="57.123795" lon="-3.645472">
		<ele>1095.854736</ele>
		<name>New marker</name>
	</wpt>
	<wpt lat="57.116768" lon="-3.644486">
		<ele>1241.942993</ele>
		<name>New marker</name>
	</wpt>
	<wpt lat="57.116550" lon="-3.644152">
		<ele>1241.402832</ele>
		<name>New marker</name>
	</wpt>
	<wpt lat="57.116356" lon="-3.643962">
		<ele>1240.076172</ele>
		<name>New marker</name>
	</wpt>
	<wpt lat="57.116386" lon="-3.644464">
		<ele>1240.884277</ele>
		<name>New marker</name>
	</wpt>
	<wpt lat="57.114952" lon="-3.650740">
		<ele>1129.253906</ele>
		<name>New marker</name>
	</wpt>
	<wpt lat="57.115086" lon="-3.652371">
		<ele>1128.610596</ele>
		<name>New marker</name>
	</wpt>
	<wpt lat="57.115364" lon="-3.653411">
		<ele>1131.740479</ele>
		<name>New marker</name>
	</wpt>
	<wpt lat="57.115715" lon="-3.654323">
		<ele>1136.917847</ele>
		<name>New marker</name>
	</wpt>
	<wpt lat="57.115917" lon="-3.654699">
		<ele>1137.092041</ele>
		<name>New marker</name>
	</wpt>
	<wpt lat="57.112827" lon="-3.654216">
		<ele>1110.687256</ele>
		<name>New marker</name>
	</wpt>
	<wpt lat="57.111980" lon="-3.654044">
		<ele>1100.965820</ele>
		<name>New marker</name>
	</wpt>
	<wpt lat="57.106690" lon="-3.659066">
		<ele>1169.311646</ele>
		<name>New marker</name>
	</wpt>
	<wpt lat="57.104916" lon="-3.666350">
		<ele>1110.319214</ele>
		<name>New marker</name>
	</wpt>
	<wpt lat="57.097565" lon="-3.670620">
		<ele>1130.020264</ele>
		<name>New marker</name>
	</wpt>
	<wpt lat="57.089172" lon="-3.679590">
		<ele>1123.991943</ele>
		<name>New marker</name>
	</wpt>
	<wpt lat="57.083027" lon="-3.676500">
		<ele>1174.837891</ele>
		<name>New marker</name>
	</wpt>
	<wpt lat="57.073933" lon="-3.668882">
		<ele>1271.650024</ele>
		<name>New marker</name>
	</wpt>
	<wpt lat="57.070390" lon="-3.669125">
		<ele>1307.969238</ele>
		<name>New marker</name>
	</wpt>
	<wpt lat="57.069378" lon="-3.669258">
		<ele>1294.236084</ele>
		<name>New marker</name>
	</wpt>
	<wpt lat="57.069313" lon="-3.668882">
		<ele>1293.023926</ele>
		<name>New marker</name>
	</wpt>
	<wpt lat="57.069313" lon="-3.668442">
		<ele>1293.312256</ele>
		<name>New marker</name>
	</wpt>
	<wpt lat="57.069336" lon="-3.667863">
		<ele>1294.092041</ele>
		<name>New marker</name>
	</wpt>
	<wpt lat="57.069275" lon="-3.667148">
		<ele>1291.375854</ele>
		<name>New marker</name>
	</wpt>
	<wpt lat="57.069233" lon="-3.666376">
		<ele>1287.603760</ele>
		<name>New marker</name>
	</wpt>
	<wpt lat="57.069115" lon="-3.665685">
		<ele>1283.468628</ele>
		<name>New marker</name>
	</wpt>
	<wpt lat="57.068886" lon="-3.665149">
		<ele>1280.022095</ele>
		<name>New marker</name>
	</wpt>
	<wpt lat="57.068565" lon="-3.664537">
		<ele>1276.362427</ele>
		<name>New marker</name>
	</wpt>
	<wpt lat="57.066130" lon="-3.659656">
		<ele>1219.721069</ele>
		<name>New marker</name>
	</wpt>
	<wpt lat="57.065895" lon="-3.659538">
		<ele>1217.808838</ele>
		<name>New marker</name>
	</wpt>
	<wpt lat="57.065580" lon="-3.659484">
		<ele>1214.255859</ele>
		<name>New marker</name>
	</wpt>
	<wpt lat="57.065388" lon="-3.659323">
		<ele>1212.388550</ele>
		<name>New marker</name>
	</wpt>
	<wpt lat="57.065002" lon="-3.659151">
		<ele>1204.643677</ele>
		<name>New marker</name>
	</wpt>
	<wpt lat="57.064648" lon="-3.659452">
		<ele>1195.495605</ele>
		<name>New marker</name>
	</wpt>
	<wpt lat="57.064064" lon="-3.659902">
		<ele>1179.020508</ele>
		<name>New marker</name>
	</wpt>
	<wpt lat="57.063470" lon="-3.660149">
		<ele>1160.032837</ele>
		<name>New marker</name>
	</wpt>
	<wpt lat="57.062960" lon="-3.660836">
		<ele>1141.886108</ele>
		<name>New marker</name>
	</wpt>
	<wpt lat="57.062405" lon="-3.661479">
		<ele>1123.208862</ele>
		<name>New marker</name>
	</wpt>
	<wpt lat="57.061565" lon="-3.661951">
		<ele>1095.185913</ele>
		<name>New marker</name>
	</wpt>
	<wpt lat="57.061600" lon="-3.660503">
		<ele>1090.451416</ele>
		<name>New marker</name>
	</wpt>
	<wpt lat="57.061720" lon="-3.659162">
		<ele>1084.448120</ele>
		<name>New marker</name>
	</wpt>
	<wpt lat="57.061610" lon="-3.657917">
		<ele>1072.593262</ele>
		<name>New marker</name>
	</wpt>
	<wpt lat="57.061543" lon="-3.657456">
		<ele>1069.002441</ele>
		<name>New marker</name>
	</wpt>
	<wpt lat="57.061325" lon="-3.656255">
		<ele>1061.285156</ele>
		<name>New marker</name>
	</wpt>
	<wpt lat="57.059402" lon="-3.652381">
		<ele>1095.883545</ele>
		<name>New marker</name>
	</wpt>
	<wpt lat="57.057300" lon="-3.651266">
		<ele>1048.866943</ele>
		<name>New marker</name>
	</wpt>
	<wpt lat="57.042706" lon="-3.632104">
		<ele>571.662659</ele>
		<name>New marker</name>
	</wpt>
	<wpt lat="57.027504" lon="-3.624207">
		<ele>506.074799</ele>
		<name>New marker</name>
	</wpt>
	<wpt lat="57.026592" lon="-3.622899">
		<ele>493.282227</ele>
		<name>New marker</name>
	</wpt>
	<wpt lat="57.026783" lon="-3.623457">
		<ele>492.981537</ele>
		<name>New marker</name>
	</wpt>
	<wpt lat="57.026783" lon="-3.624036">
		<ele>486.899719</ele>
		<name>New marker</name>
	</wpt>
	<wpt lat="57.026910" lon="-3.624529">
		<ele>487.027161</ele>
		<name>New marker</name>
	</wpt>
	<wpt lat="57.027515" lon="-3.625195">
		<ele>494.314209</ele>
		<name>New marker</name>
	</wpt>
	<wpt lat="57.028570" lon="-3.627297">
		<ele>492.893311</ele>
		<name>New marker</name>
	</wpt>
	<wpt lat="57.026966" lon="-3.627834">
		<ele>494.745148</ele>
		<name>New marker</name>
	</wpt>
	<wpt lat="57.025696" lon="-3.627920">
		<ele>500.465332</ele>
		<name>New marker</name>
	</wpt>
	<wpt lat="57.025265" lon="-3.632318">
		<ele>541.769653</ele>
		<name>New marker</name>
	</wpt>
	<wpt lat="57.039402" lon="-3.673496">
		<ele>566.547974</ele>
		<name>New marker</name>
	</wpt>
	<wpt lat="57.039917" lon="-3.674225">
		<ele>558.858521</ele>
		<name>New marker</name>
	</wpt>
	<wpt lat="57.040546" lon="-3.676736">
		<ele>550.373962</ele>
		<name>New marker</name>
	</wpt>
	<wpt lat="57.042040" lon="-3.680967">
		<ele>561.442993</ele>
		<name>New marker</name>
	</wpt>
	<wpt lat="57.042320" lon="-3.681124">
		<ele>563.177917</ele>
		<name>New marker</name>
	</wpt>
	<wpt lat="57.041996" lon="-3.680856">
		<ele>560.656494</ele>
		<name>New marker</name>
	</wpt>
	<wpt lat="57.040543" lon="-3.676714">
		<ele>550.355347</ele>
		<name>New marker</name>
	</wpt>
	<wpt lat="57.039886" lon="-3.674150">
		<ele>559.612244</ele>
		<name>New marker</name>
	</wpt>
	<wpt lat="57.039402" lon="-3.673464">
		<ele>566.925171</ele>
		<name>New marker</name>
	</wpt>
	<wpt lat="57.052300" lon="-3.679504">
		<ele>576.123535</ele>
		<name>New marker</name>
	</wpt>
	<wpt lat="57.078690" lon="-3.694953">
		<ele>758.471313</ele>
		<name>New marker</name>
	</wpt>
	<wpt lat="57.085346" lon="-3.695855">
		<ele>809.258972</ele>
		<name>New marker</name>
	</wpt>
	<wpt lat="57.091490" lon="-3.695147">
		<ele>843.253296</ele>
		<name>New marker</name>
	</wpt>
	<wpt lat="57.111412" lon="-3.718750">
		<ele>631.333862</ele>
		<name>New marker</name>
	</wpt>
	<wpt lat="57.112076" lon="-3.719608">
		<ele>621.974854</ele>
		<name>New marker</name>
	</wpt>
	<wpt lat="57.113285" lon="-3.720574">
		<ele>607.399658</ele>
		<name>New marker</name>
	</wpt>
	<wpt lat="57.120216" lon="-3.718879">
		<ele>656.479431</ele>
		<name>New marker</name>
	</wpt>
	<wpt lat="57.124866" lon="-3.713643">
		<ele>700.597961</ele>
		<name>New marker</name>
	</wpt>
	<wpt lat="57.126087" lon="-3.711562">
		<ele>714.075439</ele>
		<name>New marker</name>
	</wpt>
	<wpt lat="57.128960" lon="-3.707942">
		<ele>659.695618</ele>
		<name>New marker</name>
	</wpt>
	<wpt lat="57.135952" lon="-3.696799">
		<ele>538.080505</ele>
		<name>New marker</name>
	</wpt>
	<wpt lat="57.140003" lon="-3.681864">
		<ele>541.349060</ele>
		<name>New marker</name>
	</wpt>
	<wpt lat="57.144440" lon="-3.681478">
		<ele>471.293182</ele>
		<name>New marker</name>
	</wpt>
	<wpt lat="57.143864" lon="-3.680266">
		<ele>474.300934</ele>
		<name>New marker</name>
	</wpt>
	<wpt lat="57.143887" lon="-3.680008">
		<ele>479.757141</ele>
		<name>New marker</name>
	</wpt>
	<wpt lat="57.148140" lon="-3.679815">
		<ele>436.853333</ele>
		<name>New marker</name>
	</wpt>
	<wpt lat="57.152730" lon="-3.680158">
		<ele>386.844086</ele>
		<name>New marker</name>
	</wpt>
	<wpt lat="57.157288" lon="-3.682465">
		<ele>352.183960</ele>
		<name>New marker</name>
	</wpt>
	<wpt lat="57.158580" lon="-3.683495">
		<ele>344.320892</ele>
		<name>New marker</name>
	</wpt>
	<wpt lat="57.161260" lon="-3.686885">
		<ele>329.815613</ele>
		<name>New marker</name>
	</wpt>
	<wpt lat="57.162450" lon="-3.687261">
		<ele>326.329010</ele>
		<name>New marker</name>
	</wpt>
	<wpt lat="57.164165" lon="-3.687561">
		<ele>323.300201</ele>
		<name>New marker</name>
	</wpt>
	<wpt lat="57.164528" lon="-3.687679">
		<ele>323.000000</ele>
		<name>New marker</name>
	</wpt>
	<wpt lat="57.165430" lon="-3.688795">
		<ele>323.000000</ele>
		<name>New marker</name>
	</wpt>
	<wpt lat="57.165848" lon="-3.689836">
		<ele>323.397522</ele>
		<name>New marker</name>
	</wpt>
	<wpt lat="57.166348" lon="-3.691166">
		<ele>324.239777</ele>
		<name>New marker</name>
	</wpt>
	<wpt lat="57.166634" lon="-3.691960">
		<ele>326.298218</ele>
		<name>New marker</name>
	</wpt>
	<wpt lat="57.167362" lon="-3.694041">
		<ele>327.642426</ele>
		<name>New marker</name>
	</wpt>
	<wpt lat="57.167397" lon="-3.693355">
		<ele>329.955597</ele>
		<name>New marker</name>
	</wpt>
	<wpt lat="57.167362" lon="-3.692953">
		<ele>330.832153</ele>
		<name>New marker</name>
	</wpt>
	<wpt lat="57.167530" lon="-3.692707">
		<ele>333.225922</ele>
		<name>New marker</name>
	</wpt>
	<wpt lat="57.167603" lon="-3.692892">
		<ele>333.121643</ele>
		<name>New marker</name>
	</wpt>
	<wpt lat="57.167362" lon="-3.692958">
		<ele>330.816803</ele>
		<name>New marker</name>
	</wpt>
	<wpt lat="57.167397" lon="-3.693376">
		<ele>329.892761</ele>
		<name>New marker</name>
	</wpt>
	<wpt lat="57.167360" lon="-3.693999">
		<ele>327.734558</ele>
		<name>New marker</name>
	</wpt>
	<wpt lat="57.167470" lon="-3.694374">
		<ele>327.606781</ele>
		<name>New marker</name>
	</wpt>
	<wpt lat="57.167427" lon="-3.694519">
		<ele>326.813354</ele>
		<name>New marker</name>
	</wpt>
</gpx>

