<?xml version="1.0" encoding="utf-8"?>
<gpx xmlns="http://www.topografix.com/GPX/1/1" version="1.1" creator="https://mapy.com/">
	<wpt lat="66.026146" lon="-16.494427">
		<ele>27.218351</ele>
		<name>New marker</name>
	</wpt>
	<wpt lat="66.022730" lon="-16.495028">
		<ele>27.000000</ele>
		<name>New marker</name>
	</wpt>
	<wpt lat="66.012970" lon="-16.502537">
		<ele>30.071642</ele>
		<name>New marker</name>
	</wpt>
	<wpt lat="66.011345" lon="-16.505798">
		<ele>33.246315</ele>
		<name>New marker</name>
	</wpt>
	<wpt lat="66.005670" lon="-16.510090">
		<ele>41.487511</ele>
		<name>New marker</name>
	</wpt>
	<wpt lat="66.003360" lon="-16.509533">
		<ele>43.206051</ele>
		<name>New marker</name>
	</wpt>
	<wpt lat="66.002340" lon="-16.511143">
		<ele>46.403492</ele>
		<name>New marker</name>
	</wpt>
	<wpt lat="66.001740" lon="-16.512580">
		<ele>42.036491</ele>
		<name>New marker</name>
	</wpt>
	<wpt lat="66.001580" lon="-16.512836">
		<ele>42.440212</ele>
		<name>New marker</name>
	</wpt>
	<wpt lat="66.000730" lon="-16.513449">
		<ele>42.000000</ele>
		<name>New marker</name>
	</wpt>
	<wpt lat="66.000150" lon="-16.513298">
		<ele>42.039909</ele>
		<name>New marker</name>
	</wpt>
	<wpt lat="65.999140" lon="-16.512410">
		<ele>39.311703</ele>
		<name>New marker</name>
	</wpt>
	<wpt lat="65.998960" lon="-16.512924">
		<ele>38.979057</ele>
		<name>New marker</name>
	</wpt>
	<wpt lat="65.998795" lon="-16.513008">
		<ele>38.829224</ele>
		<name>New marker</name>
	</wpt>
	<wpt lat="65.998630" lon="-16.513224">
		<ele>39.362324</ele>
		<name>New marker</name>
	</wpt>
	<wpt lat="65.998430" lon="-16.513128">
		<ele>54.364864</ele>
		<name>New marker</name>
	</wpt>
	<wpt lat="65.998620" lon="-16.513224">
		<ele>39.874603</ele>
		<name>New marker</name>
	</wpt>
	<wpt lat="65.998750" lon="-16.513090">
		<ele>38.455284</ele>
		<name>New marker</name>
	</wpt>
	<wpt lat="65.998955" lon="-16.512924">
		<ele>38.981121</ele>
		<name>New marker</name>
	</wpt>
	<wpt lat="65.999130" lon="-16.512410">
		<ele>39.210251</ele>
		<name>New marker</name>
	</wpt>
	<wpt lat="66.000145" lon="-16.513250">
		<ele>42.075275</ele>
		<name>New marker</name>
	</wpt>
	<wpt lat="66.001170" lon="-16.513208">
		<ele>42.069942</ele>
		<name>New marker</name>
	</wpt>
	<wpt lat="66.001526" lon="-16.512833">
		<ele>42.596664</ele>
		<name>New marker</name>
	</wpt>
	<wpt lat="66.001750" lon="-16.512493">
		<ele>42.293518</ele>
		<name>New marker</name>
	</wpt>
	<wpt lat="66.002650" lon="-16.509699">
		<ele>45.669930</ele>
		<name>New marker</name>
	</wpt>
	<wpt lat="66.003320" lon="-16.509613">
		<ele>43.167828</ele>
		<name>New marker</name>
	</wpt>
	<wpt lat="66.006680" lon="-16.509205">
		<ele>40.525745</ele>
		<name>New marker</name>
	</wpt>
	<wpt lat="66.011314" lon="-16.505827">
		<ele>33.242592</ele>
		<name>New marker</name>
	</wpt>
	<wpt lat="66.015020" lon="-16.500118">
		<ele>31.000002</ele>
		<name>New marker</name>
	</wpt>
	<wpt lat="66.022720" lon="-16.495108">
		<ele>27.000000</ele>
		<name>New marker</name>
	</wpt>
	<wpt lat="66.026140" lon="-16.494528">
		<ele>27.038544</ele>
		<name>New marker</name>
	</wpt>
</gpx>

