<?xml version="1.0" encoding="utf-8"?>
<gpx xmlns="http://www.topografix.com/GPX/1/1" version="1.1" creator="https://mapy.com/">
	<wpt lat="54.984962" lon="12.482178">
		<ele>41.983143</ele>
		<name>New marker</name>
	</wpt>
	<wpt lat="54.984917" lon="12.483219">
		<ele>44.671253</ele>
		<name>New marker</name>
	</wpt>
	<wpt lat="54.984880" lon="12.483866">
		<ele>46.963882</ele>
		<name>New marker</name>
	</wpt>
	<wpt lat="54.984806" lon="12.484944">
		<ele>47.227329</ele>
		<name>New marker</name>
	</wpt>
	<wpt lat="54.984520" lon="12.484786">
		<ele>47.581486</ele>
		<name>New marker</name>
	</wpt>
	<wpt lat="54.984425" lon="12.484724">
		<ele>47.647465</ele>
		<name>New marker</name>
	</wpt>
	<wpt lat="54.984430" lon="12.484622">
		<ele>47.836815</ele>
		<name>New marker</name>
	</wpt>
	<wpt lat="54.984455" lon="12.484209">
		<ele>48.349346</ele>
		<name>New marker</name>
	</wpt>
	<wpt lat="54.984463" lon="12.483941">
		<ele>47.588470</ele>
		<name>New marker</name>
	</wpt>
	<wpt lat="54.984320" lon="12.483914">
		<ele>47.556976</ele>
		<name>New marker</name>
	</wpt>
	<wpt lat="54.984220" lon="12.483898">
		<ele>47.556885</ele>
		<name>New marker</name>
	</wpt>
	<wpt lat="54.984200" lon="12.484094">
		<ele>48.400009</ele>
		<name>New marker</name>
	</wpt>
	<wpt lat="54.984173" lon="12.484552">
		<ele>48.265373</ele>
		<name>New marker</name>
	</wpt>
	<wpt lat="54.984417" lon="12.484617">
		<ele>47.869064</ele>
		<name>New marker</name>
	</wpt>
	<wpt lat="54.984420" lon="12.484743">
		<ele>47.642521</ele>
		<name>New marker</name>
	</wpt>
	<wpt lat="54.984520" lon="12.484780">
		<ele>47.583191</ele>
		<name>New marker</name>
	</wpt>
	<wpt lat="54.984500" lon="12.484949">
		<ele>47.600006</ele>
		<name>New marker</name>
	</wpt>
	<wpt lat="54.984413" lon="12.485014">
		<ele>47.600006</ele>
		<name>New marker</name>
	</wpt>
	<wpt lat="54.984800" lon="12.484982">
		<ele>47.205833</ele>
		<name>New marker</name>
	</wpt>
	<wpt lat="54.984623" lon="12.486709">
		<ele>49.800003</ele>
		<name>New marker</name>
	</wpt>
	<wpt lat="54.984344" lon="12.486674">
		<ele>50.200012</ele>
		<name>New marker</name>
	</wpt>
	<wpt lat="54.984250" lon="12.486569">
		<ele>49.658470</ele>
		<name>New marker</name>
	</wpt>
	<wpt lat="54.984130" lon="12.486519">
		<ele>49.315517</ele>
		<name>New marker</name>
	</wpt>
	<wpt lat="54.984240" lon="12.486567">
		<ele>49.620731</ele>
		<name>New marker</name>
	</wpt>
	<wpt lat="54.984337" lon="12.486679">
		<ele>50.200012</ele>
		<name>New marker</name>
	</wpt>
	<wpt lat="54.984615" lon="12.486744">
		<ele>49.891937</ele>
		<name>New marker</name>
	</wpt>
	<wpt lat="54.985443" lon="12.487278">
		<ele>52.584084</ele>
		<name>New marker</name>
	</wpt>
	<wpt lat="54.985720" lon="12.487331">
		<ele>51.385933</ele>
		<name>New marker</name>
	</wpt>
	<wpt lat="54.991960" lon="12.489825">
		<ele>51.755699</ele>
		<name>New marker</name>
	</wpt>
	<wpt lat="54.992023" lon="12.489877">
		<ele>51.591194</ele>
		<name>New marker</name>
	</wpt>
	<wpt lat="54.992010" lon="12.490131">
		<ele>52.330349</ele>
		<name>New marker</name>
	</wpt>
	<wpt lat="54.991985" lon="12.490748">
		<ele>54.143379</ele>
		<name>New marker</name>
	</wpt>
	<wpt lat="54.991337" lon="12.498549">
		<ele>64.737747</ele>
		<name>New marker</name>
	</wpt>
	<wpt lat="54.991127" lon="12.501429">
		<ele>74.463020</ele>
		<name>New marker</name>
	</wpt>
	<wpt lat="54.991110" lon="12.501133">
		<ele>74.795143</ele>
		<name>New marker</name>
	</wpt>
	<wpt lat="54.991104" lon="12.501002">
		<ele>74.773659</ele>
		<name>New marker</name>
	</wpt>
	<wpt lat="54.991123" lon="12.501184">
		<ele>74.829910</ele>
		<name>New marker</name>
	</wpt>
	<wpt lat="54.991120" lon="12.501458">
		<ele>74.420570</ele>
		<name>New marker</name>
	</wpt>
	<wpt lat="54.992535" lon="12.506432">
		<ele>80.137802</ele>
		<name>New marker</name>
	</wpt>
	<wpt lat="54.992676" lon="12.507257">
		<ele>83.608688</ele>
		<name>New marker</name>
	</wpt>
	<wpt lat="54.997120" lon="12.508320">
		<ele>68.199997</ele>
		<name>New marker</name>
	</wpt>
	<wpt lat="54.999200" lon="12.507810">
		<ele>69.217323</ele>
		<name>New marker</name>
	</wpt>
	<wpt lat="54.999706" lon="12.511484">
		<ele>68.415779</ele>
		<name>New marker</name>
	</wpt>
	<wpt lat="54.999847" lon="12.517015">
		<ele>76.409256</ele>
		<name>New marker</name>
	</wpt>
	<wpt lat="54.999744" lon="12.517079">
		<ele>78.246811</ele>
		<name>New marker</name>
	</wpt>
	<wpt lat="54.999294" lon="12.517568">
		<ele>74.621109</ele>
		<name>New marker</name>
	</wpt>
	<wpt lat="54.999138" lon="12.518346">
		<ele>72.118813</ele>
		<name>New marker</name>
	</wpt>
	<wpt lat="54.999090" lon="12.518651">
		<ele>69.910324</ele>
		<name>New marker</name>
	</wpt>
	<wpt lat="54.999470" lon="12.521087">
		<ele>85.007195</ele>
		<name>New marker</name>
	</wpt>
	<wpt lat="54.999496" lon="12.521403">
		<ele>83.598831</ele>
		<name>New marker</name>
	</wpt>
	<wpt lat="55.000175" lon="12.521493">
		<ele>78.107735</ele>
		<name>New marker</name>
	</wpt>
	<wpt lat="55.000168" lon="12.521734">
		<ele>78.066734</ele>
		<name>New marker</name>
	</wpt>
	<wpt lat="55.000134" lon="12.521886">
		<ele>79.434814</ele>
		<name>New marker</name>
	</wpt>
	<wpt lat="55.000030" lon="12.521806">
		<ele>81.288971</ele>
		<name>New marker</name>
	</wpt>
	<wpt lat="54.999996" lon="12.521483">
		<ele>83.333130</ele>
		<name>New marker</name>
	</wpt>
	<wpt lat="54.999493" lon="12.521414">
		<ele>83.481956</ele>
		<name>New marker</name>
	</wpt>
	<wpt lat="54.999510" lon="12.522513">
		<ele>76.335922</ele>
		<name>New marker</name>
	</wpt>
	<wpt lat="54.999530" lon="12.523453">
		<ele>64.274246</ele>
		<name>New marker</name>
	</wpt>
	<wpt lat="54.999520" lon="12.523656">
		<ele>63.057281</ele>
		<name>New marker</name>
	</wpt>
	<wpt lat="54.999237" lon="12.524187">
		<ele>66.597466</ele>
		<name>New marker</name>
	</wpt>
	<wpt lat="54.999250" lon="12.524526">
		<ele>70.343147</ele>
		<name>New marker</name>
	</wpt>
	<wpt lat="54.999530" lon="12.524483">
		<ele>65.282181</ele>
		<name>New marker</name>
	</wpt>
	<wpt lat="54.999590" lon="12.524085">
		<ele>57.748573</ele>
		<name>New marker</name>
	</wpt>
	<wpt lat="55.000862" lon="12.524424">
		<ele>62.657993</ele>
		<name>New marker</name>
	</wpt>
	<wpt lat="55.001568" lon="12.524590">
		<ele>78.257065</ele>
		<name>New marker</name>
	</wpt>
	<wpt lat="55.001953" lon="12.524708">
		<ele>82.041344</ele>
		<name>New marker</name>
	</wpt>
	<wpt lat="55.002174" lon="12.524606">
		<ele>79.675186</ele>
		<name>New marker</name>
	</wpt>
	<wpt lat="55.002346" lon="12.524675">
		<ele>76.158096</ele>
		<name>New marker</name>
	</wpt>
	<wpt lat="55.002476" lon="12.524783">
		<ele>72.505104</ele>
		<name>New marker</name>
	</wpt>
	<wpt lat="55.002340" lon="12.524672">
		<ele>76.301468</ele>
		<name>New marker</name>
	</wpt>
	<wpt lat="55.002163" lon="12.524592">
		<ele>79.960091</ele>
		<name>New marker</name>
	</wpt>
	<wpt lat="55.002163" lon="12.524440">
		<ele>80.283661</ele>
		<name>New marker</name>
	</wpt>
	<wpt lat="55.002080" lon="12.524415">
		<ele>81.384628</ele>
		<name>New marker</name>
	</wpt>
	<wpt lat="55.002007" lon="12.524431">
		<ele>81.812386</ele>
		<name>New marker</name>
	</wpt>
	<wpt lat="55.001940" lon="12.524467">
		<ele>81.993118</ele>
		<name>New marker</name>
	</wpt>
	<wpt lat="55.001930" lon="12.524341">
		<ele>81.842827</ele>
		<name>New marker</name>
	</wpt>
	<wpt lat="55.001907" lon="12.524163">
		<ele>81.476761</ele>
		<name>New marker</name>
	</wpt>
	<wpt lat="55.001865" lon="12.524021">
		<ele>80.647110</ele>
		<name>New marker</name>
	</wpt>
	<wpt lat="55.001580" lon="12.523954">
		<ele>72.123215</ele>
		<name>New marker</name>
	</wpt>
	<wpt lat="55.001490" lon="12.522956">
		<ele>73.487259</ele>
		<name>New marker</name>
	</wpt>
	<wpt lat="55.000954" lon="12.522149">
		<ele>77.600029</ele>
		<name>New marker</name>
	</wpt>
	<wpt lat="55.000984" lon="12.521956">
		<ele>79.240623</ele>
		<name>New marker</name>
	</wpt>
	<wpt lat="55.000950" lon="12.522157">
		<ele>77.600029</ele>
		<name>New marker</name>
	</wpt>
	<wpt lat="55.001415" lon="12.522865">
		<ele>73.510994</ele>
		<name>New marker</name>
	</wpt>
	<wpt lat="55.001490" lon="12.522967">
		<ele>73.275314</ele>
		<name>New marker</name>
	</wpt>
	<wpt lat="55.001180" lon="12.523734">
		<ele>58.041981</ele>
		<name>New marker</name>
	</wpt>
	<wpt lat="55.000862" lon="12.524418">
		<ele>62.561256</ele>
		<name>New marker</name>
	</wpt>
	<wpt lat="55.000840" lon="12.525306">
		<ele>67.583870</ele>
		<name>New marker</name>
	</wpt>
	<wpt lat="55.001064" lon="12.525926">
		<ele>62.718216</ele>
		<name>New marker</name>
	</wpt>
	<wpt lat="55.000960" lon="12.526237">
		<ele>59.805481</ele>
		<name>New marker</name>
	</wpt>
	<wpt lat="55.000988" lon="12.527041">
		<ele>55.621742</ele>
		<name>New marker</name>
	</wpt>
	<wpt lat="55.000360" lon="12.528208">
		<ele>36.472252</ele>
		<name>New marker</name>
	</wpt>
	<wpt lat="55.000810" lon="12.528498">
		<ele>18.455837</ele>
		<name>New marker</name>
	</wpt>
	<wpt lat="54.989754" lon="12.538189">
		<ele>11.632313</ele>
		<name>New marker</name>
	</wpt>
	<wpt lat="54.988895" lon="12.536220">
		<ele>81.803001</ele>
		<name>New marker</name>
	</wpt>
	<wpt lat="54.988630" lon="12.538017">
		<ele>69.456284</ele>
		<name>New marker</name>
	</wpt>
	<wpt lat="54.988396" lon="12.539946">
		<ele>79.935997</ele>
		<name>New marker</name>
	</wpt>
	<wpt lat="54.987976" lon="12.540043">
		<ele>90.875473</ele>
		<name>New marker</name>
	</wpt>
	<wpt lat="54.987144" lon="12.540003">
		<ele>95.769463</ele>
		<name>New marker</name>
	</wpt>
	<wpt lat="54.986794" lon="12.540092">
		<ele>104.572556</ele>
		<name>New marker</name>
	</wpt>
	<wpt lat="54.986526" lon="12.540771">
		<ele>103.024788</ele>
		<name>New marker</name>
	</wpt>
	<wpt lat="54.985874" lon="12.540405">
		<ele>110.873985</ele>
		<name>New marker</name>
	</wpt>
	<wpt lat="54.985706" lon="12.539751">
		<ele>110.164040</ele>
		<name>New marker</name>
	</wpt>
	<wpt lat="54.985306" lon="12.539015">
		<ele>114.729935</ele>
		<name>New marker</name>
	</wpt>
	<wpt lat="54.984676" lon="12.537909">
		<ele>140.035538</ele>
		<name>New marker</name>
	</wpt>
	<wpt lat="54.984123" lon="12.537131">
		<ele>139.462585</ele>
		<name>New marker</name>
	</wpt>
	<wpt lat="54.983940" lon="12.536429">
		<ele>141.124954</ele>
		<name>New marker</name>
	</wpt>
	<wpt lat="54.984177" lon="12.534315">
		<ele>117.417969</ele>
		<name>New marker</name>
	</wpt>
	<wpt lat="54.984478" lon="12.534047">
		<ele>107.085419</ele>
		<name>New marker</name>
	</wpt>
	<wpt lat="54.984707" lon="12.533618">
		<ele>108.246750</ele>
		<name>New marker</name>
	</wpt>
	<wpt lat="54.985146" lon="12.531981">
		<ele>98.735870</ele>
		<name>New marker</name>
	</wpt>
	<wpt lat="54.984524" lon="12.530963">
		<ele>89.568115</ele>
		<name>New marker</name>
	</wpt>
	<wpt lat="54.983475" lon="12.529997">
		<ele>97.356461</ele>
		<name>New marker</name>
	</wpt>
	<wpt lat="54.983276" lon="12.529032">
		<ele>98.068855</ele>
		<name>New marker</name>
	</wpt>
	<wpt lat="54.982994" lon="12.528302">
		<ele>101.991913</ele>
		<name>New marker</name>
	</wpt>
	<wpt lat="54.981483" lon="12.529726">
		<ele>133.881699</ele>
		<name>New marker</name>
	</wpt>
	<wpt lat="54.981388" lon="12.529659">
		<ele>133.854706</ele>
		<name>New marker</name>
	</wpt>
	<wpt lat="54.981014" lon="12.530254">
		<ele>138.857040</ele>
		<name>New marker</name>
	</wpt>
	<wpt lat="54.981068" lon="12.530373">
		<ele>139.293900</ele>
		<name>New marker</name>
	</wpt>
	<wpt lat="54.980976" lon="12.530300">
		<ele>139.049118</ele>
		<name>New marker</name>
	</wpt>
	<wpt lat="54.980072" lon="12.531696">
		<ele>155.708282</ele>
		<name>New marker</name>
	</wpt>
	<wpt lat="54.980133" lon="12.531836">
		<ele>156.423981</ele>
		<name>New marker</name>
	</wpt>
	<wpt lat="54.980190" lon="12.531934">
		<ele>156.178772</ele>
		<name>New marker</name>
	</wpt>
	<wpt lat="54.980120" lon="12.531845">
		<ele>156.406586</ele>
		<name>New marker</name>
	</wpt>
	<wpt lat="54.980050" lon="12.531722">
		<ele>155.519485</ele>
		<name>New marker</name>
	</wpt>
	<wpt lat="54.978935" lon="12.533358">
		<ele>151.962692</ele>
		<name>New marker</name>
	</wpt>
	<wpt lat="54.978800" lon="12.533340">
		<ele>151.817322</ele>
		<name>New marker</name>
	</wpt>
	<wpt lat="54.978695" lon="12.533505">
		<ele>151.853851</ele>
		<name>New marker</name>
	</wpt>
	<wpt lat="54.978577" lon="12.533602">
		<ele>152.404434</ele>
		<name>New marker</name>
	</wpt>
	<wpt lat="54.978470" lon="12.533696">
		<ele>153.026505</ele>
		<name>New marker</name>
	</wpt>
	<wpt lat="54.978405" lon="12.533782">
		<ele>153.473969</ele>
		<name>New marker</name>
	</wpt>
	<wpt lat="54.978344" lon="12.533843">
		<ele>153.805099</ele>
		<name>New marker</name>
	</wpt>
	<wpt lat="54.978420" lon="12.533728">
		<ele>153.246185</ele>
		<name>New marker</name>
	</wpt>
	<wpt lat="54.978540" lon="12.533640">
		<ele>152.666061</ele>
		<name>New marker</name>
	</wpt>
	<wpt lat="54.978676" lon="12.533535">
		<ele>151.937149</ele>
		<name>New marker</name>
	</wpt>
	<wpt lat="54.978775" lon="12.533361">
		<ele>151.704651</ele>
		<name>New marker</name>
	</wpt>
	<wpt lat="54.978954" lon="12.533310">
		<ele>152.000015</ele>
		<name>New marker</name>
	</wpt>
	<wpt lat="54.980003" lon="12.534399">
		<ele>143.105469</ele>
		<name>New marker</name>
	</wpt>
	<wpt lat="54.980190" lon="12.535037">
		<ele>144.178772</ele>
		<name>New marker</name>
	</wpt>
	<wpt lat="54.983936" lon="12.536416">
		<ele>141.118988</ele>
		<name>New marker</name>
	</wpt>
	<wpt lat="54.984104" lon="12.537146">
		<ele>139.467041</ele>
		<name>New marker</name>
	</wpt>
	<wpt lat="54.984160" lon="12.537532">
		<ele>139.999252</ele>
		<name>New marker</name>
	</wpt>
	<wpt lat="54.984146" lon="12.537932">
		<ele>141.191284</ele>
		<name>New marker</name>
	</wpt>
	<wpt lat="54.984184" lon="12.538277">
		<ele>142.283783</ele>
		<name>New marker</name>
	</wpt>
	<wpt lat="54.984190" lon="12.538605">
		<ele>142.835327</ele>
		<name>New marker</name>
	</wpt>
	<wpt lat="54.984196" lon="12.538942">
		<ele>143.636932</ele>
		<name>New marker</name>
	</wpt>
	<wpt lat="54.984207" lon="12.539259">
		<ele>142.849213</ele>
		<name>New marker</name>
	</wpt>
	<wpt lat="54.984207" lon="12.539420">
		<ele>141.980743</ele>
		<name>New marker</name>
	</wpt>
	<wpt lat="54.985283" lon="12.539022">
		<ele>115.319283</ele>
		<name>New marker</name>
	</wpt>
	<wpt lat="54.984188" lon="12.539463">
		<ele>141.815308</ele>
		<name>New marker</name>
	</wpt>
	<wpt lat="54.983930" lon="12.541131">
		<ele>135.579651</ele>
		<name>New marker</name>
	</wpt>
	<wpt lat="54.983210" lon="12.541464">
		<ele>129.334320</ele>
		<name>New marker</name>
	</wpt>
	<wpt lat="54.982830" lon="12.543287">
		<ele>96.960938</ele>
		<name>New marker</name>
	</wpt>
	<wpt lat="54.981037" lon="12.542210">
		<ele>131.057617</ele>
		<name>New marker</name>
	</wpt>
	<wpt lat="54.980927" lon="12.542542">
		<ele>128.525482</ele>
		<name>New marker</name>
	</wpt>
	<wpt lat="54.980980" lon="12.543502">
		<ele>125.283188</ele>
		<name>New marker</name>
	</wpt>
	<wpt lat="54.980785" lon="12.543861">
		<ele>123.231827</ele>
		<name>New marker</name>
	</wpt>
	<wpt lat="54.980045" lon="12.544548">
		<ele>118.304260</ele>
		<name>New marker</name>
	</wpt>
	<wpt lat="54.979702" lon="12.545176">
		<ele>111.645401</ele>
		<name>New marker</name>
	</wpt>
	<wpt lat="54.978300" lon="12.545680">
		<ele>96.261086</ele>
		<name>New marker</name>
	</wpt>
	<wpt lat="54.977740" lon="12.545857">
		<ele>96.000015</ele>
		<name>New marker</name>
	</wpt>
	<wpt lat="54.977276" lon="12.545613">
		<ele>94.695213</ele>
		<name>New marker</name>
	</wpt>
	<wpt lat="54.976963" lon="12.545565">
		<ele>97.005096</ele>
		<name>New marker</name>
	</wpt>
	<wpt lat="54.975560" lon="12.546581">
		<ele>100.859413</ele>
		<name>New marker</name>
	</wpt>
	<wpt lat="54.974920" lon="12.547383">
		<ele>90.177689</ele>
		<name>New marker</name>
	</wpt>
	<wpt lat="54.974205" lon="12.546386">
		<ele>115.065445</ele>
		<name>New marker</name>
	</wpt>
	<wpt lat="54.972980" lon="12.547796">
		<ele>107.096985</ele>
		<name>New marker</name>
	</wpt>
	<wpt lat="54.972170" lon="12.549252">
		<ele>88.091431</ele>
		<name>New marker</name>
	</wpt>
	<wpt lat="54.971878" lon="12.548853">
		<ele>112.801453</ele>
		<name>New marker</name>
	</wpt>
	<wpt lat="54.971764" lon="12.549035">
		<ele>103.060715</ele>
		<name>New marker</name>
	</wpt>
	<wpt lat="54.971672" lon="12.548998">
		<ele>105.338394</ele>
		<name>New marker</name>
	</wpt>
	<wpt lat="54.971410" lon="12.548614">
		<ele>120.593727</ele>
		<name>New marker</name>
	</wpt>
	<wpt lat="54.971252" lon="12.548159">
		<ele>125.636131</ele>
		<name>New marker</name>
	</wpt>
	<wpt lat="54.971336" lon="12.548054">
		<ele>129.450256</ele>
		<name>New marker</name>
	</wpt>
	<wpt lat="54.971382" lon="12.547949">
		<ele>131.045685</ele>
		<name>New marker</name>
	</wpt>
	<wpt lat="54.971320" lon="12.548051">
		<ele>129.224548</ele>
		<name>New marker</name>
	</wpt>
	<wpt lat="54.971233" lon="12.548159">
		<ele>125.028816</ele>
		<name>New marker</name>
	</wpt>
	<wpt lat="54.970920" lon="12.547997">
		<ele>123.414917</ele>
		<name>New marker</name>
	</wpt>
	<wpt lat="54.969490" lon="12.549819">
		<ele>101.122101</ele>
		<name>New marker</name>
	</wpt>
	<wpt lat="54.968704" lon="12.550256">
		<ele>89.358315</ele>
		<name>New marker</name>
	</wpt>
	<wpt lat="54.968327" lon="12.549859">
		<ele>125.473045</ele>
		<name>New marker</name>
	</wpt>
	<wpt lat="54.967830" lon="12.549777">
		<ele>123.145607</ele>
		<name>New marker</name>
	</wpt>
	<wpt lat="54.967810" lon="12.549611">
		<ele>138.316620</ele>
		<name>New marker</name>
	</wpt>
	<wpt lat="54.967810" lon="12.549392">
		<ele>145.158249</ele>
		<name>New marker</name>
	</wpt>
	<wpt lat="54.967793" lon="12.549250">
		<ele>149.490189</ele>
		<name>New marker</name>
	</wpt>
	<wpt lat="54.967773" lon="12.549110">
		<ele>150.169006</ele>
		<name>New marker</name>
	</wpt>
	<wpt lat="54.967762" lon="12.549033">
		<ele>150.975174</ele>
		<name>New marker</name>
	</wpt>
	<wpt lat="54.967762" lon="12.548944">
		<ele>151.803055</ele>
		<name>New marker</name>
	</wpt>
	<wpt lat="54.967750" lon="12.549030">
		<ele>150.942932</ele>
		<name>New marker</name>
	</wpt>
	<wpt lat="54.967747" lon="12.549162">
		<ele>149.438095</ele>
		<name>New marker</name>
	</wpt>
	<wpt lat="54.967710" lon="12.549266">
		<ele>148.788834</ele>
		<name>New marker</name>
	</wpt>
	<wpt lat="54.967710" lon="12.549408">
		<ele>143.497421</ele>
		<name>New marker</name>
	</wpt>
	<wpt lat="54.967670" lon="12.549563">
		<ele>136.891998</ele>
		<name>New marker</name>
	</wpt>
	<wpt lat="54.967660" lon="12.549668">
		<ele>131.685425</ele>
		<name>New marker</name>
	</wpt>
	<wpt lat="54.967644" lon="12.549832">
		<ele>112.138397</ele>
		<name>New marker</name>
	</wpt>
	<wpt lat="54.967136" lon="12.549875">
		<ele>110.555992</ele>
		<name>New marker</name>
	</wpt>
	<wpt lat="54.966423" lon="12.548424">
		<ele>104.249969</ele>
		<name>New marker</name>
	</wpt>
	<wpt lat="54.967125" lon="12.549872">
		<ele>110.716301</ele>
		<name>New marker</name>
	</wpt>
	<wpt lat="54.967800" lon="12.549765">
		<ele>123.877686</ele>
		<name>New marker</name>
	</wpt>
	<wpt lat="54.967090" lon="12.548708">
		<ele>132.722198</ele>
		<name>New marker</name>
	</wpt>
	<wpt lat="54.966420" lon="12.548424">
		<ele>104.223648</ele>
		<name>New marker</name>
	</wpt>
	<wpt lat="54.965440" lon="12.551573">
		<ele>46.932899</ele>
		<name>New marker</name>
	</wpt>
	<wpt lat="54.965300" lon="12.552608">
		<ele>1.000000</ele>
		<name>New marker</name>
	</wpt>
	<wpt lat="54.966000" lon="12.552179">
		<ele>6.279247</ele>
		<name>New marker</name>
	</wpt>
	<wpt lat="54.965570" lon="12.552573">
		<ele>1.123915</ele>
		<name>New marker</name>
	</wpt>
	<wpt lat="54.965427" lon="12.552755">
		<ele>-0.510978</ele>
		<name>New marker</name>
	</wpt>
	<wpt lat="54.965256" lon="12.552836">
		<ele>-0.423100</ele>
		<name>New marker</name>
	</wpt>
	<wpt lat="54.965084" lon="12.552922">
		<ele>-0.234586</ele>
		<name>New marker</name>
	</wpt>
	<wpt lat="54.964993" lon="12.552772">
		<ele>-0.659158</ele>
		<name>New marker</name>
	</wpt>
	<wpt lat="54.965023" lon="12.552622">
		<ele>1.200012</ele>
		<name>New marker</name>
	</wpt>
	<wpt lat="54.965300" lon="12.552592">
		<ele>1.000000</ele>
		<name>New marker</name>
	</wpt>
	<wpt lat="54.965435" lon="12.551586">
		<ele>46.242115</ele>
		<name>New marker</name>
	</wpt>
	<wpt lat="54.966408" lon="12.548461">
		<ele>104.331688</ele>
		<name>New marker</name>
	</wpt>
	<wpt lat="54.966362" lon="12.548370">
		<ele>103.101624</ele>
		<name>New marker</name>
	</wpt>
	<wpt lat="54.966360" lon="12.548206">
		<ele>102.029778</ele>
		<name>New marker</name>
	</wpt>
	<wpt lat="54.966250" lon="12.548332">
		<ele>102.286858</ele>
		<name>New marker</name>
	</wpt>
	<wpt lat="54.965930" lon="12.548434">
		<ele>101.207153</ele>
		<name>New marker</name>
	</wpt>
	<wpt lat="54.966240" lon="12.548301">
		<ele>102.029594</ele>
		<name>New marker</name>
	</wpt>
	<wpt lat="54.966360" lon="12.548199">
		<ele>102.029785</ele>
		<name>New marker</name>
	</wpt>
	<wpt lat="54.966360" lon="12.548003">
		<ele>100.076317</ele>
		<name>New marker</name>
	</wpt>
	<wpt lat="54.966362" lon="12.547802">
		<ele>99.495773</ele>
		<name>New marker</name>
	</wpt>
	<wpt lat="54.965710" lon="12.547614">
		<ele>104.513321</ele>
		<name>New marker</name>
	</wpt>
	<wpt lat="54.965530" lon="12.547540">
		<ele>107.405800</ele>
		<name>New marker</name>
	</wpt>
	<wpt lat="54.965360" lon="12.546568">
		<ele>104.756683</ele>
		<name>New marker</name>
	</wpt>
	<wpt lat="54.965275" lon="12.546044">
		<ele>107.891861</ele>
		<name>New marker</name>
	</wpt>
	<wpt lat="54.965508" lon="12.546099">
		<ele>108.473328</ele>
		<name>New marker</name>
	</wpt>
	<wpt lat="54.965580" lon="12.546515">
		<ele>102.412773</ele>
		<name>New marker</name>
	</wpt>
	<wpt lat="54.965610" lon="12.547013">
		<ele>98.946411</ele>
		<name>New marker</name>
	</wpt>
	<wpt lat="54.965702" lon="12.547493">
		<ele>103.217079</ele>
		<name>New marker</name>
	</wpt>
	<wpt lat="54.966347" lon="12.547802">
		<ele>99.423157</ele>
		<name>New marker</name>
	</wpt>
	<wpt lat="54.965965" lon="12.548223">
		<ele>100.816498</ele>
		<name>New marker</name>
	</wpt>
	<wpt lat="54.966350" lon="12.548014">
		<ele>100.092850</ele>
		<name>New marker</name>
	</wpt>
	<wpt lat="54.966354" lon="12.548212">
		<ele>101.976028</ele>
		<name>New marker</name>
	</wpt>
	<wpt lat="54.966240" lon="12.548319">
		<ele>102.182770</ele>
		<name>New marker</name>
	</wpt>
	<wpt lat="54.966350" lon="12.548218">
		<ele>101.922287</ele>
		<name>New marker</name>
	</wpt>
	<wpt lat="54.966350" lon="12.548381">
		<ele>103.029068</ele>
		<name>New marker</name>
	</wpt>
	<wpt lat="54.966410" lon="12.548446">
		<ele>104.288208</ele>
		<name>New marker</name>
	</wpt>
	<wpt lat="54.965893" lon="12.549046">
		<ele>104.872414</ele>
		<name>New marker</name>
	</wpt>
	<wpt lat="54.965767" lon="12.549153">
		<ele>109.286377</ele>
		<name>New marker</name>
	</wpt>
	<wpt lat="54.964680" lon="12.550819">
		<ele>101.542900</ele>
		<name>New marker</name>
	</wpt>
	<wpt lat="54.964035" lon="12.550612">
		<ele>118.988235</ele>
		<name>New marker</name>
	</wpt>
	<wpt lat="54.963970" lon="12.550473">
		<ele>122.304321</ele>
		<name>New marker</name>
	</wpt>
	<wpt lat="54.963917" lon="12.550344">
		<ele>127.576828</ele>
		<name>New marker</name>
	</wpt>
	<wpt lat="54.963900" lon="12.550119">
		<ele>128.997162</ele>
		<name>New marker</name>
	</wpt>
	<wpt lat="54.963905" lon="12.550275">
		<ele>128.473312</ele>
		<name>New marker</name>
	</wpt>
	<wpt lat="54.963943" lon="12.550420">
		<ele>124.957153</ele>
		<name>New marker</name>
	</wpt>
	<wpt lat="54.964035" lon="12.550578">
		<ele>119.900093</ele>
		<name>New marker</name>
	</wpt>
	<wpt lat="54.964672" lon="12.550814">
		<ele>101.951355</ele>
		<name>New marker</name>
	</wpt>
	<wpt lat="54.965763" lon="12.549153">
		<ele>109.361595</ele>
		<name>New marker</name>
	</wpt>
	<wpt lat="54.965878" lon="12.549030">
		<ele>105.157700</ele>
		<name>New marker</name>
	</wpt>
	<wpt lat="54.966408" lon="12.548446">
		<ele>104.242622</ele>
		<name>New marker</name>
	</wpt>
	<wpt lat="54.966350" lon="12.548365">
		<ele>102.892021</ele>
		<name>New marker</name>
	</wpt>
	<wpt lat="54.966347" lon="12.548203">
		<ele>101.868538</ele>
		<name>New marker</name>
	</wpt>
	<wpt lat="54.966350" lon="12.548014">
		<ele>100.092850</ele>
		<name>New marker</name>
	</wpt>
	<wpt lat="54.966050" lon="12.548231">
		<ele>101.175293</ele>
		<name>New marker</name>
	</wpt>
	<wpt lat="54.966347" lon="12.547987">
		<ele>99.822502</ele>
		<name>New marker</name>
	</wpt>
	<wpt lat="54.966343" lon="12.547817">
		<ele>99.405640</ele>
		<name>New marker</name>
	</wpt>
	<wpt lat="54.965700" lon="12.547587">
		<ele>104.213745</ele>
		<name>New marker</name>
	</wpt>
	<wpt lat="54.965620" lon="12.547145">
		<ele>100.207405</ele>
		<name>New marker</name>
	</wpt>
	<wpt lat="54.965595" lon="12.546750">
		<ele>99.524048</ele>
		<name>New marker</name>
	</wpt>
	<wpt lat="54.965534" lon="12.546259">
		<ele>106.849731</ele>
		<name>New marker</name>
	</wpt>
	<wpt lat="54.965504" lon="12.546103">
		<ele>108.328728</ele>
		<name>New marker</name>
	</wpt>
</gpx>

