<?xml version="1.0" encoding="utf-8"?>
<gpx xmlns="http://www.topografix.com/GPX/1/1" version="1.1" creator="https://mapy.com/">
	<wpt lat="65.073430" lon="-14.880027">
		<ele>28.862961</ele>
		<name>New marker</name>
	</wpt>
	<wpt lat="65.073510" lon="-14.880703">
		<ele>30.255276</ele>
		<name>New marker</name>
	</wpt>
	<wpt lat="65.073730" lon="-14.881067">
		<ele>32.205666</ele>
		<name>New marker</name>
	</wpt>
	<wpt lat="65.076950" lon="-14.882880">
		<ele>95.139801</ele>
		<name>New marker</name>
	</wpt>
	<wpt lat="65.077290" lon="-14.882692">
		<ele>94.046936</ele>
		<name>New marker</name>
	</wpt>
	<wpt lat="65.077460" lon="-14.883653">
		<ele>101.507774</ele>
		<name>New marker</name>
	</wpt>
	<wpt lat="65.082030" lon="-14.883454">
		<ele>168.673767</ele>
		<name>New marker</name>
	</wpt>
	<wpt lat="65.083200" lon="-14.885181">
		<ele>203.245117</ele>
		<name>New marker</name>
	</wpt>
	<wpt lat="65.085100" lon="-14.886726">
		<ele>229.257996</ele>
		<name>New marker</name>
	</wpt>
	<wpt lat="65.086730" lon="-14.884603">
		<ele>235.042862</ele>
		<name>New marker</name>
	</wpt>
	<wpt lat="65.087720" lon="-14.886330">
		<ele>239.300278</ele>
		<name>New marker</name>
	</wpt>
	<wpt lat="65.088000" lon="-14.886383">
		<ele>240.397156</ele>
		<name>New marker</name>
	</wpt>
	<wpt lat="65.088200" lon="-14.886383">
		<ele>240.952179</ele>
		<name>New marker</name>
	</wpt>
	<wpt lat="65.087970" lon="-14.886319">
		<ele>239.971970</ele>
		<name>New marker</name>
	</wpt>
	<wpt lat="65.087685" lon="-14.886233">
		<ele>238.624207</ele>
		<name>New marker</name>
	</wpt>
	<wpt lat="65.086700" lon="-14.884624">
		<ele>235.142120</ele>
		<name>New marker</name>
	</wpt>
	<wpt lat="65.086754" lon="-14.883594">
		<ele>235.969482</ele>
		<name>New marker</name>
	</wpt>
	<wpt lat="65.083380" lon="-14.882596">
		<ele>175.647003</ele>
		<name>New marker</name>
	</wpt>
	<wpt lat="65.083694" lon="-14.880160">
		<ele>185.019119</ele>
		<name>New marker</name>
	</wpt>
	<wpt lat="65.081240" lon="-14.879442">
		<ele>139.407715</ele>
		<name>New marker</name>
	</wpt>
	<wpt lat="65.079155" lon="-14.880955">
		<ele>115.007202</ele>
		<name>New marker</name>
	</wpt>
	<wpt lat="65.074130" lon="-14.879506">
		<ele>30.874891</ele>
		<name>New marker</name>
	</wpt>
	<wpt lat="65.073930" lon="-14.880236">
		<ele>30.115589</ele>
		<name>New marker</name>
	</wpt>
	<wpt lat="65.073430" lon="-14.880086">
		<ele>28.965355</ele>
		<name>New marker</name>
	</wpt>
</gpx>

