<?xml version="1.0" encoding="utf-8"?>
<gpx xmlns="http://www.topografix.com/GPX/1/1" version="1.1" creator="https://mapy.com/">
	<wpt lat="64.309235" lon="-20.304142">
		<ele>99.882835</ele>
		<name>New marker</name>
	</wpt>
	<wpt lat="64.309680" lon="-20.302515">
		<ele>105.571762</ele>
		<name>New marker</name>
	</wpt>
	<wpt lat="64.309520" lon="-20.302050">
		<ele>105.868111</ele>
		<name>New marker</name>
	</wpt>
	<wpt lat="64.309660" lon="-20.302479">
		<ele>105.677917</ele>
		<name>New marker</name>
	</wpt>
	<wpt lat="64.309730" lon="-20.302822">
		<ele>104.672180</ele>
		<name>New marker</name>
	</wpt>
	<wpt lat="64.310005" lon="-20.303503">
		<ele>103.836685</ele>
		<name>New marker</name>
	</wpt>
	<wpt lat="64.311260" lon="-20.302725">
		<ele>108.789299</ele>
		<name>New marker</name>
	</wpt>
	<wpt lat="64.312690" lon="-20.301260">
		<ele>115.052917</ele>
		<name>New marker</name>
	</wpt>
	<wpt lat="64.312750" lon="-20.301186">
		<ele>115.410522</ele>
		<name>New marker</name>
	</wpt>
	<wpt lat="64.312836" lon="-20.300867">
		<ele>115.502853</ele>
		<name>New marker</name>
	</wpt>
	<wpt lat="64.312744" lon="-20.301220">
		<ele>115.365814</ele>
		<name>New marker</name>
	</wpt>
	<wpt lat="64.313324" lon="-20.301702">
		<ele>119.692490</ele>
		<name>New marker</name>
	</wpt>
	<wpt lat="64.313750" lon="-20.302078">
		<ele>123.301605</ele>
		<name>New marker</name>
	</wpt>
	<wpt lat="64.313850" lon="-20.301884">
		<ele>123.002434</ele>
		<name>New marker</name>
	</wpt>
	<wpt lat="64.313740" lon="-20.302086">
		<ele>123.300758</ele>
		<name>New marker</name>
	</wpt>
	<wpt lat="64.314210" lon="-20.303926">
		<ele>137.815231</ele>
		<name>New marker</name>
	</wpt>
	<wpt lat="64.314510" lon="-20.305140">
		<ele>144.969482</ele>
		<name>New marker</name>
	</wpt>
	<wpt lat="64.313896" lon="-20.306244">
		<ele>147.663559</ele>
		<name>New marker</name>
	</wpt>
	<wpt lat="64.313810" lon="-20.306791">
		<ele>150.144592</ele>
		<name>New marker</name>
	</wpt>
	<wpt lat="64.313990" lon="-20.307394">
		<ele>159.188141</ele>
		<name>New marker</name>
	</wpt>
	<wpt lat="64.315360" lon="-20.306297">
		<ele>175.810715</ele>
		<name>New marker</name>
	</wpt>
	<wpt lat="64.315605" lon="-20.305756">
		<ele>176.913422</ele>
		<name>New marker</name>
	</wpt>
	<wpt lat="64.315430" lon="-20.305346">
		<ele>166.313278</ele>
		<name>New marker</name>
	</wpt>
	<wpt lat="64.315605" lon="-20.305763">
		<ele>177.047516</ele>
		<name>New marker</name>
	</wpt>
	<wpt lat="64.315730" lon="-20.306103">
		<ele>180.542328</ele>
		<name>New marker</name>
	</wpt>
	<wpt lat="64.315780" lon="-20.306160">
		<ele>180.511993</ele>
		<name>New marker</name>
	</wpt>
	<wpt lat="64.315796" lon="-20.306011">
		<ele>180.341919</ele>
		<name>New marker</name>
	</wpt>
	<wpt lat="64.315780" lon="-20.306160">
		<ele>180.511993</ele>
		<name>New marker</name>
	</wpt>
	<wpt lat="64.315730" lon="-20.306118">
		<ele>180.590530</ele>
		<name>New marker</name>
	</wpt>
	<wpt lat="64.315350" lon="-20.306295">
		<ele>175.619171</ele>
		<name>New marker</name>
	</wpt>
	<wpt lat="64.313990" lon="-20.307384">
		<ele>159.076370</ele>
		<name>New marker</name>
	</wpt>
	<wpt lat="64.313500" lon="-20.307657">
		<ele>155.259583</ele>
		<name>New marker</name>
	</wpt>
	<wpt lat="64.313510" lon="-20.307755">
		<ele>156.096130</ele>
		<name>New marker</name>
	</wpt>
	<wpt lat="64.313500" lon="-20.307663">
		<ele>155.303238</ele>
		<name>New marker</name>
	</wpt>
	<wpt lat="64.312904" lon="-20.307888">
		<ele>151.835785</ele>
		<name>New marker</name>
	</wpt>
	<wpt lat="64.313385" lon="-20.306726">
		<ele>145.711823</ele>
		<name>New marker</name>
	</wpt>
	<wpt lat="64.313896" lon="-20.306232">
		<ele>147.611328</ele>
		<name>New marker</name>
	</wpt>
	<wpt lat="64.314510" lon="-20.305122">
		<ele>144.849655</ele>
		<name>New marker</name>
	</wpt>
	<wpt lat="64.314190" lon="-20.303965">
		<ele>137.927460</ele>
		<name>New marker</name>
	</wpt>
	<wpt lat="64.313736" lon="-20.302076">
		<ele>123.244179</ele>
		<name>New marker</name>
	</wpt>
	<wpt lat="64.313840" lon="-20.301872">
		<ele>122.946556</ele>
		<name>New marker</name>
	</wpt>
	<wpt lat="64.313730" lon="-20.302086">
		<ele>123.248413</ele>
		<name>New marker</name>
	</wpt>
	<wpt lat="64.313324" lon="-20.301708">
		<ele>119.709251</ele>
		<name>New marker</name>
	</wpt>
	<wpt lat="64.312744" lon="-20.301212">
		<ele>115.365822</ele>
		<name>New marker</name>
	</wpt>
	<wpt lat="64.312690" lon="-20.301271">
		<ele>115.052910</ele>
		<name>New marker</name>
	</wpt>
	<wpt lat="64.312260" lon="-20.301096">
		<ele>113.610764</ele>
		<name>New marker</name>
	</wpt>
	<wpt lat="64.312200" lon="-20.300762">
		<ele>112.770897</ele>
		<name>New marker</name>
	</wpt>
	<wpt lat="64.312570" lon="-20.300203">
		<ele>113.668861</ele>
		<name>New marker</name>
	</wpt>
	<wpt lat="64.312836" lon="-20.300400">
		<ele>114.902214</ele>
		<name>New marker</name>
	</wpt>
	<wpt lat="64.312560" lon="-20.300207">
		<ele>113.646515</ele>
		<name>New marker</name>
	</wpt>
	<wpt lat="64.312200" lon="-20.300770">
		<ele>112.784218</ele>
		<name>New marker</name>
	</wpt>
	<wpt lat="64.310210" lon="-20.301086">
		<ele>104.820412</ele>
		<name>New marker</name>
	</wpt>
	<wpt lat="64.309910" lon="-20.301344">
		<ele>104.888557</ele>
		<name>New marker</name>
	</wpt>
	<wpt lat="64.309660" lon="-20.302465">
		<ele>105.717033</ele>
		<name>New marker</name>
	</wpt>
	<wpt lat="64.309490" lon="-20.302092">
		<ele>105.437721</ele>
		<name>New marker</name>
	</wpt>
	<wpt lat="64.309660" lon="-20.302480">
		<ele>105.672333</ele>
		<name>New marker</name>
	</wpt>
	<wpt lat="64.309230" lon="-20.304132">
		<ele>99.859505</ele>
		<name>New marker</name>
	</wpt>
</gpx>

