<?xml version="1.0" encoding="utf-8"?>
<gpx xmlns="http://www.topografix.com/GPX/1/1" version="1.1" creator="https://mapy.com/">
	<wpt lat="63.404780" lon="-19.107246">
		<ele>18.000000</ele>
		<name>New marker</name>
	</wpt>
	<wpt lat="63.404613" lon="-19.106998">
		<ele>17.880938</ele>
		<name>New marker</name>
	</wpt>
	<wpt lat="63.404446" lon="-19.106977">
		<ele>17.452477</ele>
		<name>New marker</name>
	</wpt>
	<wpt lat="63.404110" lon="-19.106054">
		<ele>13.817473</ele>
		<name>New marker</name>
	</wpt>
	<wpt lat="63.403778" lon="-19.104382">
		<ele>13.871135</ele>
		<name>New marker</name>
	</wpt>
	<wpt lat="63.404743" lon="-19.101934">
		<ele>6.636181</ele>
		<name>New marker</name>
	</wpt>
	<wpt lat="63.403770" lon="-19.104364">
		<ele>13.934889</ele>
		<name>New marker</name>
	</wpt>
	<wpt lat="63.403297" lon="-19.103989">
		<ele>13.365990</ele>
		<name>New marker</name>
	</wpt>
	<wpt lat="63.402725" lon="-19.105051">
		<ele>5.354203</ele>
		<name>New marker</name>
	</wpt>
	<wpt lat="63.403297" lon="-19.103985">
		<ele>13.354880</ele>
		<name>New marker</name>
	</wpt>
	<wpt lat="63.402657" lon="-19.103070">
		<ele>5.492434</ele>
		<name>New marker</name>
	</wpt>
	<wpt lat="63.403294" lon="-19.103985">
		<ele>13.305926</ele>
		<name>New marker</name>
	</wpt>
	<wpt lat="63.403767" lon="-19.104364">
		<ele>13.951735</ele>
		<name>New marker</name>
	</wpt>
	<wpt lat="63.404106" lon="-19.106049">
		<ele>13.789536</ele>
		<name>New marker</name>
	</wpt>
	<wpt lat="63.403860" lon="-19.108099">
		<ele>23.436850</ele>
		<name>New marker</name>
	</wpt>
	<wpt lat="63.403340" lon="-19.118692">
		<ele>51.882954</ele>
		<name>New marker</name>
	</wpt>
	<wpt lat="63.401512" lon="-19.124498">
		<ele>80.957199</ele>
		<name>New marker</name>
	</wpt>
	<wpt lat="63.401650" lon="-19.127254">
		<ele>87.381584</ele>
		<name>New marker</name>
	</wpt>
	<wpt lat="63.401850" lon="-19.129750">
		<ele>74.375656</ele>
		<name>New marker</name>
	</wpt>
	<wpt lat="63.401783" lon="-19.130648">
		<ele>78.000000</ele>
		<name>New marker</name>
	</wpt>
	<wpt lat="63.402737" lon="-19.130913">
		<ele>112.369232</ele>
		<name>New marker</name>
	</wpt>
	<wpt lat="63.403780" lon="-19.129840">
		<ele>113.717239</ele>
		<name>New marker</name>
	</wpt>
	<wpt lat="63.403664" lon="-19.129246">
		<ele>114.468773</ele>
		<name>New marker</name>
	</wpt>
	<wpt lat="63.404080" lon="-19.129454">
		<ele>112.705566</ele>
		<name>New marker</name>
	</wpt>
	<wpt lat="63.404312" lon="-19.129180">
		<ele>111.224884</ele>
		<name>New marker</name>
	</wpt>
	<wpt lat="63.404514" lon="-19.128930">
		<ele>111.571907</ele>
		<name>New marker</name>
	</wpt>
	<wpt lat="63.404793" lon="-19.128800">
		<ele>112.476540</ele>
		<name>New marker</name>
	</wpt>
	<wpt lat="63.405052" lon="-19.128838">
		<ele>113.102371</ele>
		<name>New marker</name>
	</wpt>
	<wpt lat="63.405296" lon="-19.128906">
		<ele>112.074265</ele>
		<name>New marker</name>
	</wpt>
	<wpt lat="63.405792" lon="-19.129090">
		<ele>107.567322</ele>
		<name>New marker</name>
	</wpt>
	<wpt lat="63.405552" lon="-19.129030">
		<ele>109.507530</ele>
		<name>New marker</name>
	</wpt>
	<wpt lat="63.405212" lon="-19.128885">
		<ele>112.443039</ele>
		<name>New marker</name>
	</wpt>
	<wpt lat="63.404910" lon="-19.128633">
		<ele>111.897034</ele>
		<name>New marker</name>
	</wpt>
	<wpt lat="63.404728" lon="-19.128500">
		<ele>110.578384</ele>
		<name>New marker</name>
	</wpt>
	<wpt lat="63.404552" lon="-19.128773">
		<ele>111.334435</ele>
		<name>New marker</name>
	</wpt>
	<wpt lat="63.404354" lon="-19.128971">
		<ele>110.756126</ele>
		<name>New marker</name>
	</wpt>
	<wpt lat="63.404285" lon="-19.129090">
		<ele>111.034912</ele>
		<name>New marker</name>
	</wpt>
	<wpt lat="63.403910" lon="-19.129412">
		<ele>113.129066</ele>
		<name>New marker</name>
	</wpt>
	<wpt lat="63.403660" lon="-19.129267">
		<ele>114.439156</ele>
		<name>New marker</name>
	</wpt>
	<wpt lat="63.403774" lon="-19.129847">
		<ele>113.713356</ele>
		<name>New marker</name>
	</wpt>
	<wpt lat="63.402650" lon="-19.130957">
		<ele>112.794220</ele>
		<name>New marker</name>
	</wpt>
	<wpt lat="63.401800" lon="-19.130415">
		<ele>72.457253</ele>
		<name>New marker</name>
	</wpt>
	<wpt lat="63.401844" lon="-19.129622">
		<ele>75.038857</ele>
		<name>New marker</name>
	</wpt>
	<wpt lat="63.401615" lon="-19.127254">
		<ele>86.703613</ele>
		<name>New marker</name>
	</wpt>
	<wpt lat="63.401512" lon="-19.124454">
		<ele>79.913414</ele>
		<name>New marker</name>
	</wpt>
	<wpt lat="63.403248" lon="-19.117561">
		<ele>30.085087</ele>
		<name>New marker</name>
	</wpt>
	<wpt lat="63.403854" lon="-19.108099">
		<ele>23.471874</ele>
		<name>New marker</name>
	</wpt>
	<wpt lat="63.404440" lon="-19.106962">
		<ele>17.413744</ele>
		<name>New marker</name>
	</wpt>
	<wpt lat="63.404610" lon="-19.106966">
		<ele>17.856739</ele>
		<name>New marker</name>
	</wpt>
	<wpt lat="63.404778" lon="-19.107214">
		<ele>18.000000</ele>
		<name>New marker</name>
	</wpt>
</gpx>

