<?xml version="1.0" encoding="utf-8"?>
<gpx xmlns="http://www.topografix.com/GPX/1/1" version="1.1" creator="https://mapy.com/">
	<wpt lat="47.587414" lon="14.669818">
		<ele>572.091309</ele>
		<name>New marker</name>
	</wpt>
	<wpt lat="47.587260" lon="14.669726">
		<ele>572.989624</ele>
		<name>New marker</name>
	</wpt>
	<wpt lat="47.587082" lon="14.669531">
		<ele>572.215881</ele>
		<name>New marker</name>
	</wpt>
	<wpt lat="47.585007" lon="14.664411">
		<ele>616.462402</ele>
		<name>New marker</name>
	</wpt>
	<wpt lat="47.584410" lon="14.662437">
		<ele>607.525940</ele>
		<name>New marker</name>
	</wpt>
	<wpt lat="47.580273" lon="14.662774">
		<ele>775.482117</ele>
		<name>New marker</name>
	</wpt>
	<wpt lat="47.579365" lon="14.661133">
		<ele>819.354675</ele>
		<name>New marker</name>
	</wpt>
	<wpt lat="47.578423" lon="14.660574">
		<ele>892.209717</ele>
		<name>New marker</name>
	</wpt>
	<wpt lat="47.579075" lon="14.655763">
		<ele>1071.540161</ele>
		<name>New marker</name>
	</wpt>
	<wpt lat="47.577827" lon="14.657796">
		<ele>1230.222534</ele>
		<name>New marker</name>
	</wpt>
	<wpt lat="47.577263" lon="14.657930">
		<ele>1318.701294</ele>
		<name>New marker</name>
	</wpt>
	<wpt lat="47.571175" lon="14.654950">
		<ele>1476.832520</ele>
		<name>New marker</name>
	</wpt>
	<wpt lat="47.561380" lon="14.652542">
		<ele>1693.761108</ele>
		<name>New marker</name>
	</wpt>
	<wpt lat="47.561270" lon="14.652078">
		<ele>1695.413696</ele>
		<name>New marker</name>
	</wpt>
	<wpt lat="47.561317" lon="14.651955">
		<ele>1697.537598</ele>
		<name>New marker</name>
	</wpt>
	<wpt lat="47.561270" lon="14.652078">
		<ele>1695.413696</ele>
		<name>New marker</name>
	</wpt>
	<wpt lat="47.561214" lon="14.651358">
		<ele>1704.790039</ele>
		<name>New marker</name>
	</wpt>
	<wpt lat="47.558740" lon="14.644659">
		<ele>1825.019531</ele>
		<name>New marker</name>
	</wpt>
	<wpt lat="47.557600" lon="14.644555">
		<ele>1884.488770</ele>
		<name>New marker</name>
	</wpt>
	<wpt lat="47.557346" lon="14.642900">
		<ele>1990.046021</ele>
		<name>New marker</name>
	</wpt>
	<wpt lat="47.557808" lon="14.641016">
		<ele>2099.365723</ele>
		<name>New marker</name>
	</wpt>
	<wpt lat="47.558537" lon="14.640126">
		<ele>2190.333984</ele>
		<name>New marker</name>
	</wpt>
	<wpt lat="47.558975" lon="14.638179">
		<ele>2261.146973</ele>
		<name>New marker</name>
	</wpt>
	<wpt lat="47.559013" lon="14.638018">
		<ele>2265.987305</ele>
		<name>New marker</name>
	</wpt>
	<wpt lat="47.559090" lon="14.637883">
		<ele>2269.686523</ele>
		<name>New marker</name>
	</wpt>
	<wpt lat="47.559166" lon="14.637674">
		<ele>2273.962891</ele>
		<name>New marker</name>
	</wpt>
	<wpt lat="47.559265" lon="14.637444">
		<ele>2279.244629</ele>
		<name>New marker</name>
	</wpt>
	<wpt lat="47.559425" lon="14.637289">
		<ele>2289.972168</ele>
		<name>New marker</name>
	</wpt>
	<wpt lat="47.559547" lon="14.636918">
		<ele>2291.117920</ele>
		<name>New marker</name>
	</wpt>
	<wpt lat="47.559720" lon="14.636634">
		<ele>2288.806152</ele>
		<name>New marker</name>
	</wpt>
	<wpt lat="47.559940" lon="14.636291">
		<ele>2286.945312</ele>
		<name>New marker</name>
	</wpt>
	<wpt lat="47.560112" lon="14.635931">
		<ele>2285.415283</ele>
		<name>New marker</name>
	</wpt>
	<wpt lat="47.560290" lon="14.635647">
		<ele>2291.056152</ele>
		<name>New marker</name>
	</wpt>
	<wpt lat="47.560410" lon="14.635464">
		<ele>2289.540527</ele>
		<name>New marker</name>
	</wpt>
	<wpt lat="47.560543" lon="14.635228">
		<ele>2287.765381</ele>
		<name>New marker</name>
	</wpt>
	<wpt lat="47.560493" lon="14.635218">
		<ele>2283.000488</ele>
		<name>New marker</name>
	</wpt>
	<wpt lat="47.560493" lon="14.635142">
		<ele>2276.973145</ele>
		<name>New marker</name>
	</wpt>
	<wpt lat="47.561830" lon="14.633101">
		<ele>2350.262207</ele>
		<name>New marker</name>
	</wpt>
	<wpt lat="47.561790" lon="14.632736">
		<ele>2360.166748</ele>
		<name>New marker</name>
	</wpt>
	<wpt lat="47.561848" lon="14.632606">
		<ele>2367.025879</ele>
		<name>New marker</name>
	</wpt>
	<wpt lat="47.561840" lon="14.632710">
		<ele>2364.881592</ele>
		<name>New marker</name>
	</wpt>
	<wpt lat="47.561790" lon="14.632736">
		<ele>2360.166748</ele>
		<name>New marker</name>
	</wpt>
	<wpt lat="47.561806" lon="14.633099">
		<ele>2347.066650</ele>
		<name>New marker</name>
	</wpt>
	<wpt lat="47.559960" lon="14.635949">
		<ele>2274.429199</ele>
		<name>New marker</name>
	</wpt>
	<wpt lat="47.558964" lon="14.638186">
		<ele>2260.302979</ele>
		<name>New marker</name>
	</wpt>
	<wpt lat="47.558685" lon="14.639711">
		<ele>2224.508545</ele>
		<name>New marker</name>
	</wpt>
	<wpt lat="47.558810" lon="14.640563">
		<ele>2159.061523</ele>
		<name>New marker</name>
	</wpt>
	<wpt lat="47.558056" lon="14.641376">
		<ele>2062.041260</ele>
		<name>New marker</name>
	</wpt>
	<wpt lat="47.557260" lon="14.643006">
		<ele>1993.800171</ele>
		<name>New marker</name>
	</wpt>
	<wpt lat="47.558130" lon="14.643832">
		<ele>1914.603882</ele>
		<name>New marker</name>
	</wpt>
	<wpt lat="47.558273" lon="14.644650">
		<ele>1834.061523</ele>
		<name>New marker</name>
	</wpt>
	<wpt lat="47.558660" lon="14.644986">
		<ele>1802.495117</ele>
		<name>New marker</name>
	</wpt>
	<wpt lat="47.560497" lon="14.645600">
		<ele>1747.449463</ele>
		<name>New marker</name>
	</wpt>
	<wpt lat="47.561214" lon="14.651358">
		<ele>1704.790039</ele>
		<name>New marker</name>
	</wpt>
	<wpt lat="47.561256" lon="14.652059">
		<ele>1695.241333</ele>
		<name>New marker</name>
	</wpt>
	<wpt lat="47.561350" lon="14.652134">
		<ele>1697.044312</ele>
		<name>New marker</name>
	</wpt>
	<wpt lat="47.561295" lon="14.652193">
		<ele>1695.596436</ele>
		<name>New marker</name>
	</wpt>
	<wpt lat="47.561370" lon="14.652585">
		<ele>1693.761597</ele>
		<name>New marker</name>
	</wpt>
	<wpt lat="47.556500" lon="14.654511">
		<ele>1643.489380</ele>
		<name>New marker</name>
	</wpt>
	<wpt lat="47.550766" lon="14.652259">
		<ele>1603.382690</ele>
		<name>New marker</name>
	</wpt>
	<wpt lat="47.544483" lon="14.641435">
		<ele>1454.537720</ele>
		<name>New marker</name>
	</wpt>
	<wpt lat="47.544468" lon="14.641177">
		<ele>1446.984619</ele>
		<name>New marker</name>
	</wpt>
	<wpt lat="47.544630" lon="14.640942">
		<ele>1437.992676</ele>
		<name>New marker</name>
	</wpt>
	<wpt lat="47.545080" lon="14.639418">
		<ele>1405.638794</ele>
		<name>New marker</name>
	</wpt>
	<wpt lat="47.543667" lon="14.626940">
		<ele>1207.250732</ele>
		<name>New marker</name>
	</wpt>
	<wpt lat="47.539234" lon="14.625175">
		<ele>1134.571533</ele>
		<name>New marker</name>
	</wpt>
	<wpt lat="47.534588" lon="14.621538">
		<ele>918.801636</ele>
		<name>New marker</name>
	</wpt>
	<wpt lat="47.533900" lon="14.620021">
		<ele>929.362061</ele>
		<name>New marker</name>
	</wpt>
	<wpt lat="47.532850" lon="14.618792">
		<ele>902.649292</ele>
		<name>New marker</name>
	</wpt>
	<wpt lat="47.531666" lon="14.616165">
		<ele>874.085571</ele>
		<name>New marker</name>
	</wpt>
	<wpt lat="47.531395" lon="14.615520">
		<ele>865.540161</ele>
		<name>New marker</name>
	</wpt>
	<wpt lat="47.531445" lon="14.614629">
		<ele>863.083435</ele>
		<name>New marker</name>
	</wpt>
	<wpt lat="47.531578" lon="14.614382">
		<ele>865.120239</ele>
		<name>New marker</name>
	</wpt>
	<wpt lat="47.531510" lon="14.613883">
		<ele>866.301880</ele>
		<name>New marker</name>
	</wpt>
	<wpt lat="47.531460" lon="14.613889">
		<ele>866.069092</ele>
		<name>New marker</name>
	</wpt>
	<wpt lat="47.531480" lon="14.613787">
		<ele>866.536499</ele>
		<name>New marker</name>
	</wpt>
	<wpt lat="47.531320" lon="14.613014">
		<ele>863.656067</ele>
		<name>New marker</name>
	</wpt>
	<wpt lat="47.532030" lon="14.609126">
		<ele>858.107178</ele>
		<name>New marker</name>
	</wpt>
	<wpt lat="47.532253" lon="14.608314">
		<ele>857.093933</ele>
		<name>New marker</name>
	</wpt>
	<wpt lat="47.532370" lon="14.607901">
		<ele>856.741394</ele>
		<name>New marker</name>
	</wpt>
	<wpt lat="47.532986" lon="14.605613">
		<ele>853.585388</ele>
		<name>New marker</name>
	</wpt>
	<wpt lat="47.533030" lon="14.605366">
		<ele>853.117798</ele>
		<name>New marker</name>
	</wpt>
	<wpt lat="47.533090" lon="14.605022">
		<ele>852.273804</ele>
		<name>New marker</name>
	</wpt>
	<wpt lat="47.533127" lon="14.604089">
		<ele>852.870422</ele>
		<name>New marker</name>
	</wpt>
	<wpt lat="47.533478" lon="14.599582">
		<ele>860.949097</ele>
		<name>New marker</name>
	</wpt>
	<wpt lat="47.533540" lon="14.598668">
		<ele>862.108032</ele>
		<name>New marker</name>
	</wpt>
	<wpt lat="47.534237" lon="14.596056">
		<ele>850.324585</ele>
		<name>New marker</name>
	</wpt>
	<wpt lat="47.535015" lon="14.594743">
		<ele>846.420410</ele>
		<name>New marker</name>
	</wpt>
	<wpt lat="47.535460" lon="14.593809">
		<ele>839.572510</ele>
		<name>New marker</name>
	</wpt>
	<wpt lat="47.536022" lon="14.592962">
		<ele>830.968750</ele>
		<name>New marker</name>
	</wpt>
	<wpt lat="47.537754" lon="14.591003">
		<ele>804.103943</ele>
		<name>New marker</name>
	</wpt>
	<wpt lat="47.537987" lon="14.590574">
		<ele>800.346069</ele>
		<name>New marker</name>
	</wpt>
	<wpt lat="47.538370" lon="14.589293">
		<ele>791.730103</ele>
		<name>New marker</name>
	</wpt>
	<wpt lat="47.537598" lon="14.589464">
		<ele>783.587524</ele>
		<name>New marker</name>
	</wpt>
	<wpt lat="47.537846" lon="14.588628">
		<ele>778.570251</ele>
		<name>New marker</name>
	</wpt>
	<wpt lat="47.539288" lon="14.584894">
		<ele>759.705200</ele>
		<name>New marker</name>
	</wpt>
	<wpt lat="47.539516" lon="14.584327">
		<ele>755.321167</ele>
		<name>New marker</name>
	</wpt>
	<wpt lat="47.539580" lon="14.584180">
		<ele>755.155151</ele>
		<name>New marker</name>
	</wpt>
	<wpt lat="47.539710" lon="14.584103">
		<ele>754.977295</ele>
		<name>New marker</name>
	</wpt>
	<wpt lat="47.539764" lon="14.584036">
		<ele>755.333496</ele>
		<name>New marker</name>
	</wpt>
	<wpt lat="47.540123" lon="14.583947">
		<ele>753.972778</ele>
		<name>New marker</name>
	</wpt>
	<wpt lat="47.540370" lon="14.583861">
		<ele>751.822998</ele>
		<name>New marker</name>
	</wpt>
	<wpt lat="47.540916" lon="14.583936">
		<ele>745.149109</ele>
		<name>New marker</name>
	</wpt>
	<wpt lat="47.541300" lon="14.584057">
		<ele>739.606506</ele>
		<name>New marker</name>
	</wpt>
	<wpt lat="47.542057" lon="14.584146">
		<ele>731.751709</ele>
		<name>New marker</name>
	</wpt>
	<wpt lat="47.542957" lon="14.584483">
		<ele>728.891663</ele>
		<name>New marker</name>
	</wpt>
	<wpt lat="47.543827" lon="14.584634">
		<ele>722.400330</ele>
		<name>New marker</name>
	</wpt>
	<wpt lat="47.544098" lon="14.584655">
		<ele>727.321289</ele>
		<name>New marker</name>
	</wpt>
	<wpt lat="47.544430" lon="14.584607">
		<ele>718.772827</ele>
		<name>New marker</name>
	</wpt>
	<wpt lat="47.547207" lon="14.584033">
		<ele>702.021423</ele>
		<name>New marker</name>
	</wpt>
	<wpt lat="47.556656" lon="14.582268">
		<ele>671.535767</ele>
		<name>New marker</name>
	</wpt>
	<wpt lat="47.561214" lon="14.579940">
		<ele>666.811890</ele>
		<name>New marker</name>
	</wpt>
	<wpt lat="47.561560" lon="14.579956">
		<ele>666.945923</ele>
		<name>New marker</name>
	</wpt>
	<wpt lat="47.567150" lon="14.581146">
		<ele>636.208008</ele>
		<name>New marker</name>
	</wpt>
	<wpt lat="47.568340" lon="14.583255">
		<ele>627.980164</ele>
		<name>New marker</name>
	</wpt>
	<wpt lat="47.573532" lon="14.584929">
		<ele>611.991821</ele>
		<name>New marker</name>
	</wpt>
	<wpt lat="47.574764" lon="14.586183">
		<ele>606.562195</ele>
		<name>New marker</name>
	</wpt>
	<wpt lat="47.580456" lon="14.590883">
		<ele>590.520020</ele>
		<name>New marker</name>
	</wpt>
	<wpt lat="47.580868" lon="14.590851">
		<ele>589.764771</ele>
		<name>New marker</name>
	</wpt>
	<wpt lat="47.580950" lon="14.590963">
		<ele>589.528198</ele>
		<name>New marker</name>
	</wpt>
	<wpt lat="47.581074" lon="14.590690">
		<ele>589.200012</ele>
		<name>New marker</name>
	</wpt>
	<wpt lat="47.580944" lon="14.590953">
		<ele>589.549683</ele>
		<name>New marker</name>
	</wpt>
	<wpt lat="47.580765" lon="14.591074">
		<ele>589.854980</ele>
		<name>New marker</name>
	</wpt>
</gpx>

