<?xml version="1.0" encoding="utf-8"?>
<gpx xmlns="http://www.topografix.com/GPX/1/1" version="1.1" creator="https://mapy.com/">
	<wpt lat="63.528430" lon="-19.498758">
		<ele>36.198772</ele>
		<name>New marker</name>
	</wpt>
	<wpt lat="63.528595" lon="-19.498983">
		<ele>37.192329</ele>
		<name>New marker</name>
	</wpt>
	<wpt lat="63.528416" lon="-19.498770">
		<ele>36.099903</ele>
		<name>New marker</name>
	</wpt>
	<wpt lat="63.528210" lon="-19.498758">
		<ele>34.973564</ele>
		<name>New marker</name>
	</wpt>
	<wpt lat="63.528060" lon="-19.498957">
		<ele>33.967819</ele>
		<name>New marker</name>
	</wpt>
	<wpt lat="63.529450" lon="-19.502820">
		<ele>36.654839</ele>
		<name>New marker</name>
	</wpt>
	<wpt lat="63.529564" lon="-19.503090">
		<ele>37.178646</ele>
		<name>New marker</name>
	</wpt>
	<wpt lat="63.529663" lon="-19.503262">
		<ele>37.870632</ele>
		<name>New marker</name>
	</wpt>
	<wpt lat="63.529835" lon="-19.503078">
		<ele>41.224953</ele>
		<name>New marker</name>
	</wpt>
	<wpt lat="63.529873" lon="-19.502708">
		<ele>42.752224</ele>
		<name>New marker</name>
	</wpt>
	<wpt lat="63.530390" lon="-19.500074">
		<ele>60.563625</ele>
		<name>New marker</name>
	</wpt>
	<wpt lat="63.532580" lon="-19.501421">
		<ele>114.524300</ele>
		<name>New marker</name>
	</wpt>
	<wpt lat="63.534286" lon="-19.499823">
		<ele>141.498993</ele>
		<name>New marker</name>
	</wpt>
	<wpt lat="63.534508" lon="-19.499914">
		<ele>141.279327</ele>
		<name>New marker</name>
	</wpt>
	<wpt lat="63.534718" lon="-19.500343">
		<ele>137.997360</ele>
		<name>New marker</name>
	</wpt>
	<wpt lat="63.534850" lon="-19.500998">
		<ele>138.704971</ele>
		<name>New marker</name>
	</wpt>
	<wpt lat="63.534970" lon="-19.501400">
		<ele>142.795029</ele>
		<name>New marker</name>
	</wpt>
	<wpt lat="63.535050" lon="-19.501690">
		<ele>145.263260</ele>
		<name>New marker</name>
	</wpt>
	<wpt lat="63.535107" lon="-19.501963">
		<ele>146.004364</ele>
		<name>New marker</name>
	</wpt>
	<wpt lat="63.539925" lon="-19.501154">
		<ele>192.351135</ele>
		<name>New marker</name>
	</wpt>
	<wpt lat="63.535072" lon="-19.502087">
		<ele>145.966599</ele>
		<name>New marker</name>
	</wpt>
	<wpt lat="63.531876" lon="-19.510593">
		<ele>95.277260</ele>
		<name>New marker</name>
	</wpt>
	<wpt lat="63.530136" lon="-19.511765">
		<ele>27.176468</ele>
		<name>New marker</name>
	</wpt>
	<wpt lat="63.530304" lon="-19.512120">
		<ele>26.066069</ele>
		<name>New marker</name>
	</wpt>
	<wpt lat="63.530370" lon="-19.512398">
		<ele>25.434347</ele>
		<name>New marker</name>
	</wpt>
	<wpt lat="63.530632" lon="-19.512783">
		<ele>25.045986</ele>
		<name>New marker</name>
	</wpt>
	<wpt lat="63.530870" lon="-19.513008">
		<ele>24.116968</ele>
		<name>New marker</name>
	</wpt>
	<wpt lat="63.531513" lon="-19.512634">
		<ele>31.471134</ele>
		<name>New marker</name>
	</wpt>
	<wpt lat="63.531280" lon="-19.512806">
		<ele>25.831230</ele>
		<name>New marker</name>
	</wpt>
	<wpt lat="63.530834" lon="-19.512999">
		<ele>24.168303</ele>
		<name>New marker</name>
	</wpt>
	<wpt lat="63.530567" lon="-19.512794">
		<ele>24.853249</ele>
		<name>New marker</name>
	</wpt>
	<wpt lat="63.530483" lon="-19.512634">
		<ele>25.076746</ele>
		<name>New marker</name>
	</wpt>
	<wpt lat="63.530293" lon="-19.512419">
		<ele>25.149384</ele>
		<name>New marker</name>
	</wpt>
	<wpt lat="63.530018" lon="-19.512419">
		<ele>25.027756</ele>
		<name>New marker</name>
	</wpt>
	<wpt lat="63.527820" lon="-19.512215">
		<ele>23.000000</ele>
		<name>New marker</name>
	</wpt>
	<wpt lat="63.527435" lon="-19.512096">
		<ele>23.025249</ele>
		<name>New marker</name>
	</wpt>
	<wpt lat="63.527370" lon="-19.511507">
		<ele>24.337690</ele>
		<name>New marker</name>
	</wpt>
	<wpt lat="63.527065" lon="-19.509619">
		<ele>25.897781</ele>
		<name>New marker</name>
	</wpt>
	<wpt lat="63.525574" lon="-19.510424">
		<ele>24.994587</ele>
		<name>New marker</name>
	</wpt>
	<wpt lat="63.525425" lon="-19.509909">
		<ele>25.000000</ele>
		<name>New marker</name>
	</wpt>
	<wpt lat="63.524765" lon="-19.507236">
		<ele>26.256357</ele>
		<name>New marker</name>
	</wpt>
	<wpt lat="63.524494" lon="-19.506260">
		<ele>27.000000</ele>
		<name>New marker</name>
	</wpt>
	<wpt lat="63.523970" lon="-19.503933">
		<ele>26.993507</ele>
		<name>New marker</name>
	</wpt>
	<wpt lat="63.524822" lon="-19.502806">
		<ele>28.000000</ele>
		<name>New marker</name>
	</wpt>
	<wpt lat="63.527325" lon="-19.499802">
		<ele>31.387310</ele>
		<name>New marker</name>
	</wpt>
	<wpt lat="63.528057" lon="-19.498890">
		<ele>33.945469</ele>
		<name>New marker</name>
	</wpt>
	<wpt lat="63.528206" lon="-19.498734">
		<ele>35.015579</ele>
		<name>New marker</name>
	</wpt>
	<wpt lat="63.528408" lon="-19.498777">
		<ele>36.046555</ele>
		<name>New marker</name>
	</wpt>
</gpx>

