<?xml version="1.0" encoding="utf-8"?>
<gpx xmlns="http://www.topografix.com/GPX/1/1" version="1.1" creator="https://mapy.com/">
	<wpt lat="65.591670" lon="-16.912315">
		<ele>310.206757</ele>
		<name>New marker</name>
	</wpt>
	<wpt lat="65.591736" lon="-16.911833">
		<ele>310.703613</ele>
		<name>New marker</name>
	</wpt>
	<wpt lat="65.591410" lon="-16.912632">
		<ele>309.732513</ele>
		<name>New marker</name>
	</wpt>
	<wpt lat="65.591380" lon="-16.912540">
		<ele>308.966858</ele>
		<name>New marker</name>
	</wpt>
	<wpt lat="65.591270" lon="-16.912958">
		<ele>309.581177</ele>
		<name>New marker</name>
	</wpt>
	<wpt lat="65.591240" lon="-16.913437">
		<ele>309.204163</ele>
		<name>New marker</name>
	</wpt>
	<wpt lat="65.591260" lon="-16.912964">
		<ele>309.530853</ele>
		<name>New marker</name>
	</wpt>
	<wpt lat="65.591360" lon="-16.912546">
		<ele>308.880219</ele>
		<name>New marker</name>
	</wpt>
	<wpt lat="65.591020" lon="-16.912025">
		<ele>304.041138</ele>
		<name>New marker</name>
	</wpt>
	<wpt lat="65.590996" lon="-16.910797">
		<ele>302.358063</ele>
		<name>New marker</name>
	</wpt>
	<wpt lat="65.591095" lon="-16.909939">
		<ele>301.007629</ele>
		<name>New marker</name>
	</wpt>
	<wpt lat="65.590904" lon="-16.909634">
		<ele>301.113403</ele>
		<name>New marker</name>
	</wpt>
	<wpt lat="65.591000" lon="-16.909426">
		<ele>300.897949</ele>
		<name>New marker</name>
	</wpt>
	<wpt lat="65.590904" lon="-16.909637">
		<ele>301.124542</ele>
		<name>New marker</name>
	</wpt>
	<wpt lat="65.590576" lon="-16.909037">
		<ele>301.603943</ele>
		<name>New marker</name>
	</wpt>
	<wpt lat="65.590880" lon="-16.909622">
		<ele>301.090912</ele>
		<name>New marker</name>
	</wpt>
	<wpt lat="65.591100" lon="-16.909895">
		<ele>301.000000</ele>
		<name>New marker</name>
	</wpt>
	<wpt lat="65.591034" lon="-16.907642">
		<ele>300.915955</ele>
		<name>New marker</name>
	</wpt>
	<wpt lat="65.590160" lon="-16.905752">
		<ele>298.569336</ele>
		<name>New marker</name>
	</wpt>
	<wpt lat="65.590164" lon="-16.904867">
		<ele>303.597717</ele>
		<name>New marker</name>
	</wpt>
	<wpt lat="65.590150" lon="-16.905834">
		<ele>298.306732</ele>
		<name>New marker</name>
	</wpt>
	<wpt lat="65.586680" lon="-16.901503">
		<ele>295.534271</ele>
		<name>New marker</name>
	</wpt>
	<wpt lat="65.585754" lon="-16.901660">
		<ele>292.859131</ele>
		<name>New marker</name>
	</wpt>
	<wpt lat="65.585720" lon="-16.901892">
		<ele>293.434448</ele>
		<name>New marker</name>
	</wpt>
	<wpt lat="65.585520" lon="-16.902208">
		<ele>294.999878</ele>
		<name>New marker</name>
	</wpt>
	<wpt lat="65.585640" lon="-16.902401">
		<ele>295.777008</ele>
		<name>New marker</name>
	</wpt>
	<wpt lat="65.585530" lon="-16.902332">
		<ele>295.681549</ele>
		<name>New marker</name>
	</wpt>
	<wpt lat="65.585440" lon="-16.902360">
		<ele>296.117371</ele>
		<name>New marker</name>
	</wpt>
	<wpt lat="65.585530" lon="-16.902323">
		<ele>295.625702</ele>
		<name>New marker</name>
	</wpt>
	<wpt lat="65.585640" lon="-16.902401">
		<ele>295.777008</ele>
		<name>New marker</name>
	</wpt>
	<wpt lat="65.585770" lon="-16.902240">
		<ele>294.703003</ele>
		<name>New marker</name>
	</wpt>
	<wpt lat="65.585850" lon="-16.902487">
		<ele>295.648041</ele>
		<name>New marker</name>
	</wpt>
	<wpt lat="65.585780" lon="-16.903524">
		<ele>298.112152</ele>
		<name>New marker</name>
	</wpt>
	<wpt lat="65.585790" lon="-16.904121">
		<ele>299.892944</ele>
		<name>New marker</name>
	</wpt>
	<wpt lat="65.585680" lon="-16.904438">
		<ele>301.334045</ele>
		<name>New marker</name>
	</wpt>
	<wpt lat="65.585580" lon="-16.904968">
		<ele>304.140564</ele>
		<name>New marker</name>
	</wpt>
	<wpt lat="65.585594" lon="-16.905703">
		<ele>305.619324</ele>
		<name>New marker</name>
	</wpt>
	<wpt lat="65.585550" lon="-16.906025">
		<ele>306.340179</ele>
		<name>New marker</name>
	</wpt>
	<wpt lat="65.585590" lon="-16.906353">
		<ele>306.384521</ele>
		<name>New marker</name>
	</wpt>
	<wpt lat="65.588980" lon="-16.914404">
		<ele>298.871002</ele>
		<name>New marker</name>
	</wpt>
	<wpt lat="65.589690" lon="-16.914093">
		<ele>298.863770</ele>
		<name>New marker</name>
	</wpt>
	<wpt lat="65.590110" lon="-16.913193">
		<ele>299.265015</ele>
		<name>New marker</name>
	</wpt>
	<wpt lat="65.590230" lon="-16.911453">
		<ele>298.629272</ele>
		<name>New marker</name>
	</wpt>
	<wpt lat="65.590454" lon="-16.911041">
		<ele>298.315918</ele>
		<name>New marker</name>
	</wpt>
	<wpt lat="65.590350" lon="-16.910654">
		<ele>299.038177</ele>
		<name>New marker</name>
	</wpt>
	<wpt lat="65.590440" lon="-16.911047">
		<ele>298.165100</ele>
		<name>New marker</name>
	</wpt>
	<wpt lat="65.590996" lon="-16.910816">
		<ele>302.289368</ele>
		<name>New marker</name>
	</wpt>
	<wpt lat="65.591010" lon="-16.912018">
		<ele>303.976898</ele>
		<name>New marker</name>
	</wpt>
	<wpt lat="65.591354" lon="-16.912560">
		<ele>308.892334</ele>
		<name>New marker</name>
	</wpt>
	<wpt lat="65.591400" lon="-16.912651">
		<ele>309.777069</ele>
		<name>New marker</name>
	</wpt>
	<wpt lat="65.591660" lon="-16.912315">
		<ele>310.139069</ele>
		<name>New marker</name>
	</wpt>
</gpx>

