<?xml version="1.0" encoding="utf-8"?>
<gpx xmlns="http://www.topografix.com/GPX/1/1" version="1.1" creator="https://mapy.com/">
	<wpt lat="63.906868" lon="-16.705510">
		<ele>54.598434</ele>
		<name>New marker</name>
	</wpt>
	<wpt lat="63.906788" lon="-16.705530">
		<ele>53.658554</ele>
		<name>New marker</name>
	</wpt>
	<wpt lat="63.906597" lon="-16.705648">
		<ele>51.959114</ele>
		<name>New marker</name>
	</wpt>
	<wpt lat="63.906490" lon="-16.705885">
		<ele>50.713390</ele>
		<name>New marker</name>
	</wpt>
	<wpt lat="63.906315" lon="-16.706572">
		<ele>46.692318</ele>
		<name>New marker</name>
	</wpt>
	<wpt lat="63.906704" lon="-16.707407">
		<ele>48.619759</ele>
		<name>New marker</name>
	</wpt>
	<wpt lat="63.906227" lon="-16.711699">
		<ele>42.614162</ele>
		<name>New marker</name>
	</wpt>
	<wpt lat="63.905800" lon="-16.714853">
		<ele>40.571243</ele>
		<name>New marker</name>
	</wpt>
	<wpt lat="63.905384" lon="-16.716442">
		<ele>38.810238</ele>
		<name>New marker</name>
	</wpt>
	<wpt lat="63.907646" lon="-16.723040">
		<ele>41.464184</ele>
		<name>New marker</name>
	</wpt>
	<wpt lat="63.908047" lon="-16.724789">
		<ele>41.019573</ele>
		<name>New marker</name>
	</wpt>
	<wpt lat="63.909264" lon="-16.729853">
		<ele>43.202385</ele>
		<name>New marker</name>
	</wpt>
	<wpt lat="63.909355" lon="-16.730120">
		<ele>43.470589</ele>
		<name>New marker</name>
	</wpt>
	<wpt lat="63.920270" lon="-16.780514">
		<ele>73.000000</ele>
		<name>New marker</name>
	</wpt>
	<wpt lat="63.927270" lon="-16.789656">
		<ele>84.896851</ele>
		<name>New marker</name>
	</wpt>
	<wpt lat="63.935524" lon="-16.793518">
		<ele>86.041908</ele>
		<name>New marker</name>
	</wpt>
	<wpt lat="63.943047" lon="-16.800385">
		<ele>76.926895</ele>
		<name>New marker</name>
	</wpt>
	<wpt lat="63.943817" lon="-16.794697">
		<ele>87.676208</ele>
		<name>New marker</name>
	</wpt>
	<wpt lat="63.944202" lon="-16.793673">
		<ele>91.371223</ele>
		<name>New marker</name>
	</wpt>
	<wpt lat="63.944324" lon="-16.793780">
		<ele>91.848106</ele>
		<name>New marker</name>
	</wpt>
	<wpt lat="63.944443" lon="-16.793910">
		<ele>92.413086</ele>
		<name>New marker</name>
	</wpt>
	<wpt lat="63.944485" lon="-16.794022">
		<ele>92.329262</ele>
		<name>New marker</name>
	</wpt>
</gpx>

