<?xml version="1.0" encoding="utf-8"?>
<gpx xmlns="http://www.topografix.com/GPX/1/1" version="1.1" creator="https://mapy.com/">
	<wpt lat="34.676330" lon="32.792446">
		<ele>22.090385</ele>
		<name>New marker</name>
	</wpt>
	<wpt lat="34.676290" lon="32.792580">
		<ele>22.198900</ele>
		<name>New marker</name>
	</wpt>
	<wpt lat="34.675510" lon="32.791760">
		<ele>21.048332</ele>
		<name>New marker</name>
	</wpt>
	<wpt lat="34.674713" lon="32.792343">
		<ele>18.723669</ele>
		<name>New marker</name>
	</wpt>
	<wpt lat="34.674300" lon="32.792470">
		<ele>17.643734</ele>
		<name>New marker</name>
	</wpt>
	<wpt lat="34.673340" lon="32.792732">
		<ele>16.700666</ele>
		<name>New marker</name>
	</wpt>
	<wpt lat="34.672688" lon="32.794926">
		<ele>15.000000</ele>
		<name>New marker</name>
	</wpt>
	<wpt lat="34.672623" lon="32.796210">
		<ele>15.464561</ele>
		<name>New marker</name>
	</wpt>
	<wpt lat="34.667213" lon="32.798973">
		<ele>6.000000</ele>
		<name>New marker</name>
	</wpt>
	<wpt lat="34.666770" lon="32.799430">
		<ele>6.000000</ele>
		<name>New marker</name>
	</wpt>
	<wpt lat="34.664585" lon="32.800926">
		<ele>4.000000</ele>
		<name>New marker</name>
	</wpt>
	<wpt lat="34.663120" lon="32.800503">
		<ele>2.560130</ele>
		<name>New marker</name>
	</wpt>
	<wpt lat="34.662910" lon="32.800420">
		<ele>1.699655</ele>
		<name>New marker</name>
	</wpt>
	<wpt lat="34.662735" lon="32.800346">
		<ele>1.339135</ele>
		<name>New marker</name>
	</wpt>
	<wpt lat="34.662530" lon="32.800247">
		<ele>1.048585</ele>
		<name>New marker</name>
	</wpt>
	<wpt lat="34.662704" lon="32.800354">
		<ele>1.361485</ele>
		<name>New marker</name>
	</wpt>
	<wpt lat="34.662888" lon="32.800465">
		<ele>1.766705</ele>
		<name>New marker</name>
	</wpt>
	<wpt lat="34.663100" lon="32.800530">
		<ele>2.582480</ele>
		<name>New marker</name>
	</wpt>
	<wpt lat="34.662395" lon="32.803200">
		<ele>4.761232</ele>
		<name>New marker</name>
	</wpt>
	<wpt lat="34.662148" lon="32.803920">
		<ele>7.690344</ele>
		<name>New marker</name>
	</wpt>
	<wpt lat="34.662178" lon="32.804382">
		<ele>4.683194</ele>
		<name>New marker</name>
	</wpt>
	<wpt lat="34.662490" lon="32.804173">
		<ele>9.113830</ele>
		<name>New marker</name>
	</wpt>
	<wpt lat="34.663074" lon="32.803833">
		<ele>17.680807</ele>
		<name>New marker</name>
	</wpt>
	<wpt lat="34.668682" lon="32.803513">
		<ele>36.883179</ele>
		<name>New marker</name>
	</wpt>
	<wpt lat="34.671350" lon="32.803696">
		<ele>43.056889</ele>
		<name>New marker</name>
	</wpt>
	<wpt lat="34.673115" lon="32.804170">
		<ele>55.048012</ele>
		<name>New marker</name>
	</wpt>
	<wpt lat="34.674503" lon="32.804348">
		<ele>69.455643</ele>
		<name>New marker</name>
	</wpt>
	<wpt lat="34.675110" lon="32.805310">
		<ele>73.152649</ele>
		<name>New marker</name>
	</wpt>
	<wpt lat="34.675335" lon="32.805866">
		<ele>76.225121</ele>
		<name>New marker</name>
	</wpt>
	<wpt lat="34.675404" lon="32.804947">
		<ele>80.247803</ele>
		<name>New marker</name>
	</wpt>
	<wpt lat="34.678450" lon="32.806908">
		<ele>107.647324</ele>
		<name>New marker</name>
	</wpt>
	<wpt lat="34.682533" lon="32.810030">
		<ele>142.814270</ele>
		<name>New marker</name>
	</wpt>
	<wpt lat="34.687782" lon="32.817566">
		<ele>169.226120</ele>
		<name>New marker</name>
	</wpt>
	<wpt lat="34.688946" lon="32.818314">
		<ele>171.444199</ele>
		<name>New marker</name>
	</wpt>
	<wpt lat="34.690460" lon="32.818560">
		<ele>172.225098</ele>
		<name>New marker</name>
	</wpt>
	<wpt lat="34.691658" lon="32.818580">
		<ele>178.637390</ele>
		<name>New marker</name>
	</wpt>
	<wpt lat="34.695156" lon="32.818740">
		<ele>189.297867</ele>
		<name>New marker</name>
	</wpt>
	<wpt lat="34.695786" lon="32.819210">
		<ele>190.127289</ele>
		<name>New marker</name>
	</wpt>
	<wpt lat="34.695960" lon="32.819460">
		<ele>190.599823</ele>
		<name>New marker</name>
	</wpt>
	<wpt lat="34.696224" lon="32.819885">
		<ele>190.589111</ele>
		<name>New marker</name>
	</wpt>
	<wpt lat="34.696888" lon="32.821070">
		<ele>194.756409</ele>
		<name>New marker</name>
	</wpt>
	<wpt lat="34.700226" lon="32.823580">
		<ele>222.411835</ele>
		<name>New marker</name>
	</wpt>
	<wpt lat="34.700493" lon="32.823765">
		<ele>222.538696</ele>
		<name>New marker</name>
	</wpt>
	<wpt lat="34.701782" lon="32.824680">
		<ele>232.213684</ele>
		<name>New marker</name>
	</wpt>
	<wpt lat="34.704308" lon="32.826290">
		<ele>266.902466</ele>
		<name>New marker</name>
	</wpt>
	<wpt lat="34.704918" lon="32.826332">
		<ele>270.341309</ele>
		<name>New marker</name>
	</wpt>
	<wpt lat="34.706200" lon="32.826280">
		<ele>280.231232</ele>
		<name>New marker</name>
	</wpt>
	<wpt lat="34.706356" lon="32.826275">
		<ele>281.136383</ele>
		<name>New marker</name>
	</wpt>
	<wpt lat="34.710190" lon="32.826590">
		<ele>297.953705</ele>
		<name>New marker</name>
	</wpt>
	<wpt lat="34.710710" lon="32.830270">
		<ele>298.841553</ele>
		<name>New marker</name>
	</wpt>
	<wpt lat="34.706360" lon="32.835873">
		<ele>287.060364</ele>
		<name>New marker</name>
	</wpt>
	<wpt lat="34.705532" lon="32.837643">
		<ele>288.614197</ele>
		<name>New marker</name>
	</wpt>
	<wpt lat="34.705666" lon="32.838688">
		<ele>292.193024</ele>
		<name>New marker</name>
	</wpt>
	<wpt lat="34.705570" lon="32.838700">
		<ele>291.354919</ele>
		<name>New marker</name>
	</wpt>
	<wpt lat="34.705578" lon="32.838974">
		<ele>291.421967</ele>
		<name>New marker</name>
	</wpt>
	<wpt lat="34.705580" lon="32.839287">
		<ele>290.214661</ele>
		<name>New marker</name>
	</wpt>
	<wpt lat="34.705593" lon="32.839527">
		<ele>288.085510</ele>
		<name>New marker</name>
	</wpt>
	<wpt lat="34.705570" lon="32.839703">
		<ele>285.828156</ele>
		<name>New marker</name>
	</wpt>
	<wpt lat="34.705650" lon="32.839752">
		<ele>285.951111</ele>
		<name>New marker</name>
	</wpt>
	<wpt lat="34.705933" lon="32.840520">
		<ele>285.462067</ele>
		<name>New marker</name>
	</wpt>
	<wpt lat="34.705580" lon="32.840977">
		<ele>285.756500</ele>
		<name>New marker</name>
	</wpt>
	<wpt lat="34.705390" lon="32.841170">
		<ele>280.399506</ele>
		<name>New marker</name>
	</wpt>
	<wpt lat="34.705116" lon="32.841183">
		<ele>277.894226</ele>
		<name>New marker</name>
	</wpt>
	<wpt lat="34.705390" lon="32.841164">
		<ele>280.609741</ele>
		<name>New marker</name>
	</wpt>
	<wpt lat="34.705578" lon="32.840954">
		<ele>286.440521</ele>
		<name>New marker</name>
	</wpt>
	<wpt lat="34.705925" lon="32.840412">
		<ele>285.814911</ele>
		<name>New marker</name>
	</wpt>
	<wpt lat="34.705647" lon="32.839750">
		<ele>285.962280</ele>
		<name>New marker</name>
	</wpt>
	<wpt lat="34.705692" lon="32.839195">
		<ele>291.991486</ele>
		<name>New marker</name>
	</wpt>
	<wpt lat="34.705673" lon="32.838730">
		<ele>292.260071</ele>
		<name>New marker</name>
	</wpt>
	<wpt lat="34.704773" lon="32.838818">
		<ele>284.348175</ele>
		<name>New marker</name>
	</wpt>
	<wpt lat="34.698757" lon="32.839207">
		<ele>238.629578</ele>
		<name>New marker</name>
	</wpt>
	<wpt lat="34.698273" lon="32.839344">
		<ele>234.911438</ele>
		<name>New marker</name>
	</wpt>
	<wpt lat="34.696377" lon="32.838380">
		<ele>217.392471</ele>
		<name>New marker</name>
	</wpt>
	<wpt lat="34.696075" lon="32.842830">
		<ele>158.214813</ele>
		<name>New marker</name>
	</wpt>
	<wpt lat="34.695812" lon="32.843014">
		<ele>155.888641</ele>
		<name>New marker</name>
	</wpt>
	<wpt lat="34.695152" lon="32.842472">
		<ele>148.456573</ele>
		<name>New marker</name>
	</wpt>
	<wpt lat="34.694527" lon="32.842556">
		<ele>143.037643</ele>
		<name>New marker</name>
	</wpt>
	<wpt lat="34.694027" lon="32.842762">
		<ele>138.841705</ele>
		<name>New marker</name>
	</wpt>
	<wpt lat="34.693250" lon="32.843143">
		<ele>131.016113</ele>
		<name>New marker</name>
	</wpt>
	<wpt lat="34.693153" lon="32.842365">
		<ele>138.552322</ele>
		<name>New marker</name>
	</wpt>
	<wpt lat="34.693142" lon="32.842230">
		<ele>138.906570</ele>
		<name>New marker</name>
	</wpt>
	<wpt lat="34.692330" lon="32.842240">
		<ele>123.776039</ele>
		<name>New marker</name>
	</wpt>
	<wpt lat="34.692207" lon="32.842434">
		<ele>123.735283</ele>
		<name>New marker</name>
	</wpt>
	<wpt lat="34.692610" lon="32.843082">
		<ele>127.018051</ele>
		<name>New marker</name>
	</wpt>
	<wpt lat="34.692425" lon="32.843270">
		<ele>122.947006</ele>
		<name>New marker</name>
	</wpt>
	<wpt lat="34.692566" lon="32.843370">
		<ele>125.280960</ele>
		<name>New marker</name>
	</wpt>
	<wpt lat="34.692333" lon="32.845444">
		<ele>130.308685</ele>
		<name>New marker</name>
	</wpt>
	<wpt lat="34.691430" lon="32.846764">
		<ele>113.028877</ele>
		<name>New marker</name>
	</wpt>
	<wpt lat="34.690950" lon="32.846775">
		<ele>119.923248</ele>
		<name>New marker</name>
	</wpt>
	<wpt lat="34.687210" lon="32.844070">
		<ele>171.471558</ele>
		<name>New marker</name>
	</wpt>
	<wpt lat="34.686417" lon="32.842537">
		<ele>168.835632</ele>
		<name>New marker</name>
	</wpt>
	<wpt lat="34.685510" lon="32.842182">
		<ele>169.931931</ele>
		<name>New marker</name>
	</wpt>
	<wpt lat="34.684288" lon="32.846700">
		<ele>193.643784</ele>
		<name>New marker</name>
	</wpt>
	<wpt lat="34.684530" lon="32.847054">
		<ele>195.311035</ele>
		<name>New marker</name>
	</wpt>
	<wpt lat="34.684616" lon="32.847355">
		<ele>194.685242</ele>
		<name>New marker</name>
	</wpt>
	<wpt lat="34.685040" lon="32.848286">
		<ele>193.179123</ele>
		<name>New marker</name>
	</wpt>
	<wpt lat="34.684387" lon="32.849007">
		<ele>187.288422</ele>
		<name>New marker</name>
	</wpt>
	<wpt lat="34.684500" lon="32.850647">
		<ele>177.933136</ele>
		<name>New marker</name>
	</wpt>
	<wpt lat="34.686424" lon="32.853672">
		<ele>188.599274</ele>
		<name>New marker</name>
	</wpt>
	<wpt lat="34.683030" lon="32.856762">
		<ele>176.478867</ele>
		<name>New marker</name>
	</wpt>
	<wpt lat="34.681915" lon="32.856785">
		<ele>173.822067</ele>
		<name>New marker</name>
	</wpt>
	<wpt lat="34.681230" lon="32.857900">
		<ele>169.874130</ele>
		<name>New marker</name>
	</wpt>
	<wpt lat="34.680637" lon="32.858448">
		<ele>166.497131</ele>
		<name>New marker</name>
	</wpt>
	<wpt lat="34.679974" lon="32.858555">
		<ele>166.263916</ele>
		<name>New marker</name>
	</wpt>
	<wpt lat="34.679510" lon="32.859970">
		<ele>157.992035</ele>
		<name>New marker</name>
	</wpt>
	<wpt lat="34.677830" lon="32.863350">
		<ele>149.612854</ele>
		<name>New marker</name>
	</wpt>
	<wpt lat="34.676640" lon="32.865860">
		<ele>140.734100</ele>
		<name>New marker</name>
	</wpt>
	<wpt lat="34.676376" lon="32.866417">
		<ele>138.301697</ele>
		<name>New marker</name>
	</wpt>
	<wpt lat="34.675810" lon="32.867535">
		<ele>131.719604</ele>
		<name>New marker</name>
	</wpt>
	<wpt lat="34.675396" lon="32.867214">
		<ele>130.498154</ele>
		<name>New marker</name>
	</wpt>
	<wpt lat="34.675323" lon="32.866740">
		<ele>131.023331</ele>
		<name>New marker</name>
	</wpt>
	<wpt lat="34.675274" lon="32.866280">
		<ele>130.732788</ele>
		<name>New marker</name>
	</wpt>
	<wpt lat="34.675360" lon="32.865894">
		<ele>131.246857</ele>
		<name>New marker</name>
	</wpt>
	<wpt lat="34.675377" lon="32.865517">
		<ele>130.589203</ele>
		<name>New marker</name>
	</wpt>
	<wpt lat="34.675194" lon="32.865260">
		<ele>127.776138</ele>
		<name>New marker</name>
	</wpt>
	<wpt lat="34.675080" lon="32.864937">
		<ele>124.588829</ele>
		<name>New marker</name>
	</wpt>
	<wpt lat="34.675000" lon="32.864820">
		<ele>123.448326</ele>
		<name>New marker</name>
	</wpt>
	<wpt lat="34.674118" lon="32.865505">
		<ele>116.226151</ele>
		<name>New marker</name>
	</wpt>
	<wpt lat="34.673340" lon="32.866740">
		<ele>112.289322</ele>
		<name>New marker</name>
	</wpt>
	<wpt lat="34.673050" lon="32.867085">
		<ele>112.143051</ele>
		<name>New marker</name>
	</wpt>
	<wpt lat="34.673050" lon="32.866665">
		<ele>110.816689</ele>
		<name>New marker</name>
	</wpt>
	<wpt lat="34.673225" lon="32.866364">
		<ele>112.138359</ele>
		<name>New marker</name>
	</wpt>
	<wpt lat="34.672962" lon="32.865967">
		<ele>116.945435</ele>
		<name>New marker</name>
	</wpt>
	<wpt lat="34.672714" lon="32.865776">
		<ele>118.961418</ele>
		<name>New marker</name>
	</wpt>
	<wpt lat="34.672768" lon="32.865433">
		<ele>121.978668</ele>
		<name>New marker</name>
	</wpt>
	<wpt lat="34.672714" lon="32.865260">
		<ele>122.727455</ele>
		<name>New marker</name>
	</wpt>
	<wpt lat="34.672436" lon="32.864853">
		<ele>123.451271</ele>
		<name>New marker</name>
	</wpt>
	<wpt lat="34.672516" lon="32.864326">
		<ele>125.973984</ele>
		<name>New marker</name>
	</wpt>
	<wpt lat="34.672688" lon="32.863827">
		<ele>129.038193</ele>
		<name>New marker</name>
	</wpt>
	<wpt lat="34.672966" lon="32.863860">
		<ele>130.405029</ele>
		<name>New marker</name>
	</wpt>
	<wpt lat="34.672867" lon="32.864070">
		<ele>128.606750</ele>
		<name>New marker</name>
	</wpt>
	<wpt lat="34.672940" lon="32.863853">
		<ele>130.293274</ele>
		<name>New marker</name>
	</wpt>
	<wpt lat="34.673360" lon="32.863630">
		<ele>133.035187</ele>
		<name>New marker</name>
	</wpt>
	<wpt lat="34.672760" lon="32.863426">
		<ele>130.875061</ele>
		<name>New marker</name>
	</wpt>
	<wpt lat="34.672794" lon="32.863186">
		<ele>132.296219</ele>
		<name>New marker</name>
	</wpt>
	<wpt lat="34.672817" lon="32.863040">
		<ele>133.168991</ele>
		<name>New marker</name>
	</wpt>
	<wpt lat="34.672882" lon="32.862984">
		<ele>133.419815</ele>
		<name>New marker</name>
	</wpt>
	<wpt lat="34.672813" lon="32.863020">
		<ele>133.167313</ele>
		<name>New marker</name>
	</wpt>
	<wpt lat="34.672794" lon="32.862960">
		<ele>133.126678</ele>
		<name>New marker</name>
	</wpt>
	<wpt lat="34.672718" lon="32.862960">
		<ele>132.665741</ele>
		<name>New marker</name>
	</wpt>
	<wpt lat="34.672756" lon="32.863422">
		<ele>130.863907</ele>
		<name>New marker</name>
	</wpt>
	<wpt lat="34.672684" lon="32.863857">
		<ele>128.860229</ele>
		<name>New marker</name>
	</wpt>
	<wpt lat="34.672504" lon="32.864334">
		<ele>125.875732</ele>
		<name>New marker</name>
	</wpt>
	<wpt lat="34.672447" lon="32.864742">
		<ele>124.102608</ele>
		<name>New marker</name>
	</wpt>
	<wpt lat="34.672012" lon="32.864567">
		<ele>122.153145</ele>
		<name>New marker</name>
	</wpt>
	<wpt lat="34.671394" lon="32.865450">
		<ele>116.938339</ele>
		<name>New marker</name>
	</wpt>
	<wpt lat="34.670765" lon="32.866634">
		<ele>109.547241</ele>
		<name>New marker</name>
	</wpt>
	<wpt lat="34.670628" lon="32.866770">
		<ele>108.825699</ele>
		<name>New marker</name>
	</wpt>
	<wpt lat="34.670307" lon="32.867283">
		<ele>105.962555</ele>
		<name>New marker</name>
	</wpt>
	<wpt lat="34.670460" lon="32.868713">
		<ele>102.798615</ele>
		<name>New marker</name>
	</wpt>
	<wpt lat="34.670467" lon="32.871000">
		<ele>112.114601</ele>
		<name>New marker</name>
	</wpt>
	<wpt lat="34.670230" lon="32.874485">
		<ele>107.399887</ele>
		<name>New marker</name>
	</wpt>
	<wpt lat="34.670208" lon="32.874830">
		<ele>107.805359</ele>
		<name>New marker</name>
	</wpt>
	<wpt lat="34.670105" lon="32.875504">
		<ele>108.338440</ele>
		<name>New marker</name>
	</wpt>
	<wpt lat="34.670000" lon="32.876170">
		<ele>107.870163</ele>
		<name>New marker</name>
	</wpt>
	<wpt lat="34.669586" lon="32.877686">
		<ele>102.446457</ele>
		<name>New marker</name>
	</wpt>
	<wpt lat="34.669342" lon="32.877457">
		<ele>95.422234</ele>
		<name>New marker</name>
	</wpt>
	<wpt lat="34.669170" lon="32.877440">
		<ele>86.638680</ele>
		<name>New marker</name>
	</wpt>
	<wpt lat="34.669340" lon="32.877460">
		<ele>95.154022</ele>
		<name>New marker</name>
	</wpt>
	<wpt lat="34.669570" lon="32.877697">
		<ele>101.689308</ele>
		<name>New marker</name>
	</wpt>
	<wpt lat="34.669334" lon="32.880610">
		<ele>91.645264</ele>
		<name>New marker</name>
	</wpt>
	<wpt lat="34.668648" lon="32.882130">
		<ele>85.482094</ele>
		<name>New marker</name>
	</wpt>
	<wpt lat="34.668777" lon="32.882900">
		<ele>88.224838</ele>
		<name>New marker</name>
	</wpt>
	<wpt lat="34.668953" lon="32.884155">
		<ele>74.726974</ele>
		<name>New marker</name>
	</wpt>
	<wpt lat="34.666065" lon="32.887520">
		<ele>58.763191</ele>
		<name>New marker</name>
	</wpt>
	<wpt lat="34.665173" lon="32.890910">
		<ele>30.935061</ele>
		<name>New marker</name>
	</wpt>
	<wpt lat="34.664818" lon="32.892548">
		<ele>22.005833</ele>
		<name>New marker</name>
	</wpt>
	<wpt lat="34.664370" lon="32.891953">
		<ele>23.428223</ele>
		<name>New marker</name>
	</wpt>
	<wpt lat="34.663890" lon="32.891610">
		<ele>20.060514</ele>
		<name>New marker</name>
	</wpt>
	<wpt lat="34.663240" lon="32.891850">
		<ele>16.218491</ele>
		<name>New marker</name>
	</wpt>
	<wpt lat="34.663136" lon="32.891884">
		<ele>15.807520</ele>
		<name>New marker</name>
	</wpt>
	<wpt lat="34.663013" lon="32.891900">
		<ele>15.449921</ele>
		<name>New marker</name>
	</wpt>
	<wpt lat="34.662900" lon="32.891922">
		<ele>15.114670</ele>
		<name>New marker</name>
	</wpt>
	<wpt lat="34.662743" lon="32.891834">
		<ele>15.000001</ele>
		<name>New marker</name>
	</wpt>
	<wpt lat="34.662630" lon="32.891624">
		<ele>15.265291</ele>
		<name>New marker</name>
	</wpt>
	<wpt lat="34.662560" lon="32.891495">
		<ele>15.645241</ele>
		<name>New marker</name>
	</wpt>
	<wpt lat="34.662290" lon="32.890934">
		<ele>15.518137</ele>
		<name>New marker</name>
	</wpt>
	<wpt lat="34.662167" lon="32.890730">
		<ele>14.204880</ele>
		<name>New marker</name>
	</wpt>
	<wpt lat="34.660840" lon="32.886818">
		<ele>3.052444</ele>
		<name>New marker</name>
	</wpt>
	<wpt lat="34.659843" lon="32.885525">
		<ele>2.000000</ele>
		<name>New marker</name>
	</wpt>
	<wpt lat="34.659780" lon="32.885418">
		<ele>2.000000</ele>
		<name>New marker</name>
	</wpt>
	<wpt lat="34.659710" lon="32.885338">
		<ele>2.000000</ele>
		<name>New marker</name>
	</wpt>
	<wpt lat="34.659763" lon="32.885406">
		<ele>2.000000</ele>
		<name>New marker</name>
	</wpt>
	<wpt lat="34.659832" lon="32.885494">
		<ele>2.000000</ele>
		<name>New marker</name>
	</wpt>
	<wpt lat="34.660350" lon="32.884853">
		<ele>2.000000</ele>
		<name>New marker</name>
	</wpt>
	<wpt lat="34.662400" lon="32.882744">
		<ele>2.000000</ele>
		<name>New marker</name>
	</wpt>
	<wpt lat="34.662735" lon="32.883404">
		<ele>2.413823</ele>
		<name>New marker</name>
	</wpt>
	<wpt lat="34.662840" lon="32.883698">
		<ele>5.430761</ele>
		<name>New marker</name>
	</wpt>
	<wpt lat="34.662888" lon="32.883892">
		<ele>10.028709</ele>
		<name>New marker</name>
	</wpt>
	<wpt lat="34.662860" lon="32.883755">
		<ele>6.424029</ele>
		<name>New marker</name>
	</wpt>
	<wpt lat="34.662796" lon="32.883556">
		<ele>3.254915</ele>
		<name>New marker</name>
	</wpt>
	<wpt lat="34.662834" lon="32.883390">
		<ele>2.562093</ele>
		<name>New marker</name>
	</wpt>
	<wpt lat="34.663190" lon="32.883034">
		<ele>3.512077</ele>
		<name>New marker</name>
	</wpt>
	<wpt lat="34.662750" lon="32.883457">
		<ele>2.549198</ele>
		<name>New marker</name>
	</wpt>
	<wpt lat="34.662400" lon="32.882763">
		<ele>2.000000</ele>
		<name>New marker</name>
	</wpt>
	<wpt lat="34.662987" lon="32.882170">
		<ele>2.000000</ele>
		<name>New marker</name>
	</wpt>
	<wpt lat="34.663242" lon="32.881920">
		<ele>2.000000</ele>
		<name>New marker</name>
	</wpt>
	<wpt lat="34.662937" lon="32.882076">
		<ele>2.000000</ele>
		<name>New marker</name>
	</wpt>
	<wpt lat="34.662370" lon="32.882656">
		<ele>2.000000</ele>
		<name>New marker</name>
	</wpt>
	<wpt lat="34.660290" lon="32.884834">
		<ele>2.000000</ele>
		<name>New marker</name>
	</wpt>
	<wpt lat="34.659840" lon="32.885548">
		<ele>2.000000</ele>
		<name>New marker</name>
	</wpt>
	<wpt lat="34.660805" lon="32.886864">
		<ele>2.979590</ele>
		<name>New marker</name>
	</wpt>
	<wpt lat="34.662140" lon="32.890760">
		<ele>14.265199</ele>
		<name>New marker</name>
	</wpt>
	<wpt lat="34.662327" lon="32.890636">
		<ele>14.348781</ele>
		<name>New marker</name>
	</wpt>
	<wpt lat="34.663788" lon="32.889847">
		<ele>26.256367</ele>
		<name>New marker</name>
	</wpt>
	<wpt lat="34.663452" lon="32.887867">
		<ele>39.730133</ele>
		<name>New marker</name>
	</wpt>
	<wpt lat="34.663586" lon="32.887690">
		<ele>44.912296</ele>
		<name>New marker</name>
	</wpt>
	<wpt lat="34.663715" lon="32.887646">
		<ele>47.414265</ele>
		<name>New marker</name>
	</wpt>
	<wpt lat="34.664536" lon="32.886642">
		<ele>58.736778</ele>
		<name>New marker</name>
	</wpt>
	<wpt lat="34.664726" lon="32.886517">
		<ele>62.526222</ele>
		<name>New marker</name>
	</wpt>
	<wpt lat="34.664787" lon="32.886790">
		<ele>65.118622</ele>
		<name>New marker</name>
	</wpt>
	<wpt lat="34.664300" lon="32.887524">
		<ele>58.107803</ele>
		<name>New marker</name>
	</wpt>
	<wpt lat="34.664074" lon="32.887836">
		<ele>55.599083</ele>
		<name>New marker</name>
	</wpt>
	<wpt lat="34.663868" lon="32.888157">
		<ele>48.170647</ele>
		<name>New marker</name>
	</wpt>
	<wpt lat="34.663890" lon="32.888218">
		<ele>48.225716</ele>
		<name>New marker</name>
	</wpt>
	<wpt lat="34.664130" lon="32.888226">
		<ele>56.820652</ele>
		<name>New marker</name>
	</wpt>
	<wpt lat="34.664066" lon="32.888184">
		<ele>54.772316</ele>
		<name>New marker</name>
	</wpt>
	<wpt lat="34.664127" lon="32.888233">
		<ele>56.641232</ele>
		<name>New marker</name>
	</wpt>
	<wpt lat="34.664387" lon="32.888230">
		<ele>64.267731</ele>
		<name>New marker</name>
	</wpt>
	<wpt lat="34.664284" lon="32.888657">
		<ele>59.741783</ele>
		<name>New marker</name>
	</wpt>
	<wpt lat="34.664196" lon="32.888620">
		<ele>56.628044</ele>
		<name>New marker</name>
	</wpt>
	<wpt lat="34.664146" lon="32.888737">
		<ele>52.675625</ele>
		<name>New marker</name>
	</wpt>
	<wpt lat="34.664127" lon="32.888733">
		<ele>51.702396</ele>
		<name>New marker</name>
	</wpt>
	<wpt lat="34.664230" lon="32.888790">
		<ele>56.454605</ele>
		<name>New marker</name>
	</wpt>
	<wpt lat="34.664430" lon="32.888740">
		<ele>63.920670</ele>
		<name>New marker</name>
	</wpt>
	<wpt lat="34.664600" lon="32.888626">
		<ele>69.394890</ele>
		<name>New marker</name>
	</wpt>
	<wpt lat="34.664585" lon="32.888245">
		<ele>69.058731</ele>
		<name>New marker</name>
	</wpt>
	<wpt lat="34.665546" lon="32.885970">
		<ele>72.653847</ele>
		<name>New marker</name>
	</wpt>
	<wpt lat="34.665848" lon="32.885654">
		<ele>74.505898</ele>
		<name>New marker</name>
	</wpt>
	<wpt lat="34.665936" lon="32.885483">
		<ele>74.985176</ele>
		<name>New marker</name>
	</wpt>
	<wpt lat="34.665936" lon="32.885265">
		<ele>74.997887</ele>
		<name>New marker</name>
	</wpt>
	<wpt lat="34.665880" lon="32.885080">
		<ele>74.987068</ele>
		<name>New marker</name>
	</wpt>
	<wpt lat="34.665930" lon="32.885273">
		<ele>74.997597</ele>
		<name>New marker</name>
	</wpt>
	<wpt lat="34.665966" lon="32.885395">
		<ele>74.903419</ele>
		<name>New marker</name>
	</wpt>
	<wpt lat="34.666504" lon="32.884754">
		<ele>79.330795</ele>
		<name>New marker</name>
	</wpt>
	<wpt lat="34.666428" lon="32.884666">
		<ele>79.392883</ele>
		<name>New marker</name>
	</wpt>
	<wpt lat="34.666393" lon="32.884537">
		<ele>79.701950</ele>
		<name>New marker</name>
	</wpt>
	<wpt lat="34.666370" lon="32.884407">
		<ele>79.567856</ele>
		<name>New marker</name>
	</wpt>
	<wpt lat="34.666412" lon="32.884254">
		<ele>79.813698</ele>
		<name>New marker</name>
	</wpt>
	<wpt lat="34.666470" lon="32.884197">
		<ele>80.148956</ele>
		<name>New marker</name>
	</wpt>
	<wpt lat="34.666355" lon="32.883910">
		<ele>79.478455</ele>
		<name>New marker</name>
	</wpt>
	<wpt lat="34.666270" lon="32.883957">
		<ele>78.973511</ele>
		<name>New marker</name>
	</wpt>
	<wpt lat="34.666230" lon="32.883892">
		<ele>78.481819</ele>
		<name>New marker</name>
	</wpt>
	<wpt lat="34.666172" lon="32.883873">
		<ele>77.811295</ele>
		<name>New marker</name>
	</wpt>
	<wpt lat="34.666110" lon="32.883682">
		<ele>76.058342</ele>
		<name>New marker</name>
	</wpt>
	<wpt lat="34.665880" lon="32.883800">
		<ele>73.340767</ele>
		<name>New marker</name>
	</wpt>
	<wpt lat="34.665950" lon="32.883970">
		<ele>75.218704</ele>
		<name>New marker</name>
	</wpt>
	<wpt lat="34.665910" lon="32.883995">
		<ele>74.574768</ele>
		<name>New marker</name>
	</wpt>
	<wpt lat="34.666060" lon="32.884400">
		<ele>76.514999</ele>
		<name>New marker</name>
	</wpt>
	<wpt lat="34.666065" lon="32.884598">
		<ele>76.592796</ele>
		<name>New marker</name>
	</wpt>
	<wpt lat="34.666496" lon="32.884777">
		<ele>79.188896</ele>
		<name>New marker</name>
	</wpt>
	<wpt lat="34.666832" lon="32.884506">
		<ele>81.074974</ele>
		<name>New marker</name>
	</wpt>
	<wpt lat="34.667194" lon="32.884235">
		<ele>82.609009</ele>
		<name>New marker</name>
	</wpt>
	<wpt lat="34.667220" lon="32.884342">
		<ele>82.374336</ele>
		<name>New marker</name>
	</wpt>
	<wpt lat="34.667286" lon="32.884686">
		<ele>79.563332</ele>
		<name>New marker</name>
	</wpt>
	<wpt lat="34.667410" lon="32.884640">
		<ele>80.085983</ele>
		<name>New marker</name>
	</wpt>
	<wpt lat="34.667340" lon="32.884327">
		<ele>82.800484</ele>
		<name>New marker</name>
	</wpt>
	<wpt lat="34.667217" lon="32.884335">
		<ele>82.385513</ele>
		<name>New marker</name>
	</wpt>
	<wpt lat="34.667175" lon="32.884220">
		<ele>82.597839</ele>
		<name>New marker</name>
	</wpt>
	<wpt lat="34.667170" lon="32.884144">
		<ele>82.810165</ele>
		<name>New marker</name>
	</wpt>
	<wpt lat="34.667100" lon="32.883762">
		<ele>83.542595</ele>
		<name>New marker</name>
	</wpt>
	<wpt lat="34.667553" lon="32.883350">
		<ele>86.613770</ele>
		<name>New marker</name>
	</wpt>
	<wpt lat="34.667650" lon="32.883500">
		<ele>87.988930</ele>
		<name>New marker</name>
	</wpt>
	<wpt lat="34.667538" lon="32.883350">
		<ele>86.457146</ele>
		<name>New marker</name>
	</wpt>
	<wpt lat="34.667960" lon="32.882984">
		<ele>86.915955</ele>
		<name>New marker</name>
	</wpt>
	<wpt lat="34.668186" lon="32.882656">
		<ele>84.621925</ele>
		<name>New marker</name>
	</wpt>
	<wpt lat="34.668350" lon="32.882385">
		<ele>83.678680</ele>
		<name>New marker</name>
	</wpt>
	<wpt lat="34.668175" lon="32.882652">
		<ele>84.374619</ele>
		<name>New marker</name>
	</wpt>
	<wpt lat="34.667904" lon="32.882935">
		<ele>85.557526</ele>
		<name>New marker</name>
	</wpt>
	<wpt lat="34.667473" lon="32.883293">
		<ele>85.542328</ele>
		<name>New marker</name>
	</wpt>
	<wpt lat="34.667034" lon="32.883730">
		<ele>83.316620</ele>
		<name>New marker</name>
	</wpt>
	<wpt lat="34.666840" lon="32.883880">
		<ele>82.284348</ele>
		<name>New marker</name>
	</wpt>
	<wpt lat="34.666428" lon="32.883575">
		<ele>79.439911</ele>
		<name>New marker</name>
	</wpt>
	<wpt lat="34.665760" lon="32.883858">
		<ele>71.418655</ele>
		<name>New marker</name>
	</wpt>
	<wpt lat="34.665455" lon="32.884743">
		<ele>70.778847</ele>
		<name>New marker</name>
	</wpt>
	<wpt lat="34.664450" lon="32.885120">
		<ele>69.418999</ele>
		<name>New marker</name>
	</wpt>
	<wpt lat="34.664337" lon="32.885098">
		<ele>70.375504</ele>
		<name>New marker</name>
	</wpt>
	<wpt lat="34.663826" lon="32.884777">
		<ele>73.949448</ele>
		<name>New marker</name>
	</wpt>
	<wpt lat="34.663498" lon="32.884964">
		<ele>73.928627</ele>
		<name>New marker</name>
	</wpt>
	<wpt lat="34.663470" lon="32.885056">
		<ele>73.074638</ele>
		<name>New marker</name>
	</wpt>
	<wpt lat="34.663414" lon="32.885090">
		<ele>72.155617</ele>
		<name>New marker</name>
	</wpt>
	<wpt lat="34.663315" lon="32.885100">
		<ele>70.830170</ele>
		<name>New marker</name>
	</wpt>
	<wpt lat="34.663242" lon="32.885075">
		<ele>69.988983</ele>
		<name>New marker</name>
	</wpt>
	<wpt lat="34.662850" lon="32.885143">
		<ele>56.937153</ele>
		<name>New marker</name>
	</wpt>
	<wpt lat="34.663006" lon="32.885597">
		<ele>54.921703</ele>
		<name>New marker</name>
	</wpt>
	<wpt lat="34.663895" lon="32.885517">
		<ele>70.223824</ele>
		<name>New marker</name>
	</wpt>
	<wpt lat="34.664326" lon="32.885113">
		<ele>70.334534</ele>
		<name>New marker</name>
	</wpt>
	<wpt lat="34.664448" lon="32.885140">
		<ele>69.313690</ele>
		<name>New marker</name>
	</wpt>
	<wpt lat="34.664600" lon="32.885338">
		<ele>67.009232</ele>
		<name>New marker</name>
	</wpt>
	<wpt lat="34.664654" lon="32.885260">
		<ele>67.508820</ele>
		<name>New marker</name>
	</wpt>
	<wpt lat="34.664597" lon="32.885323">
		<ele>67.139565</ele>
		<name>New marker</name>
	</wpt>
	<wpt lat="34.664642" lon="32.885468">
		<ele>65.993141</ele>
		<name>New marker</name>
	</wpt>
	<wpt lat="34.664494" lon="32.886612">
		<ele>58.161438</ele>
		<name>New marker</name>
	</wpt>
	<wpt lat="34.663708" lon="32.887665">
		<ele>47.205318</ele>
		<name>New marker</name>
	</wpt>
	<wpt lat="34.663334" lon="32.888140">
		<ele>31.694637</ele>
		<name>New marker</name>
	</wpt>
	<wpt lat="34.663770" lon="32.889866">
		<ele>25.809366</ele>
		<name>New marker</name>
	</wpt>
	<wpt lat="34.662292" lon="32.890650">
		<ele>14.261750</ele>
		<name>New marker</name>
	</wpt>
	<wpt lat="34.662280" lon="32.890957">
		<ele>15.625395</ele>
		<name>New marker</name>
	</wpt>
	<wpt lat="34.662360" lon="32.891110">
		<ele>16.000000</ele>
		<name>New marker</name>
	</wpt>
</gpx>

