<?xml version="1.0" encoding="utf-8"?>
<gpx xmlns="http://www.topografix.com/GPX/1/1" version="1.1" creator="https://mapy.com/">
	<wpt lat="64.255650" lon="-21.132458">
		<ele>134.937759</ele>
		<name>New marker</name>
	</wpt>
	<wpt lat="64.255890" lon="-21.130170">
		<ele>136.000000</ele>
		<name>New marker</name>
	</wpt>
	<wpt lat="64.255930" lon="-21.129646">
		<ele>136.742340</ele>
		<name>New marker</name>
	</wpt>
	<wpt lat="64.255820" lon="-21.129711">
		<ele>136.429459</ele>
		<name>New marker</name>
	</wpt>
	<wpt lat="64.255580" lon="-21.129223">
		<ele>135.781891</ele>
		<name>New marker</name>
	</wpt>
	<wpt lat="64.255360" lon="-21.128782">
		<ele>132.353790</ele>
		<name>New marker</name>
	</wpt>
	<wpt lat="64.255410" lon="-21.128044">
		<ele>118.046379</ele>
		<name>New marker</name>
	</wpt>
	<wpt lat="64.255740" lon="-21.128181">
		<ele>125.674873</ele>
		<name>New marker</name>
	</wpt>
	<wpt lat="64.255550" lon="-21.128610">
		<ele>134.499405</ele>
		<name>New marker</name>
	</wpt>
	<wpt lat="64.256850" lon="-21.127045">
		<ele>117.317856</ele>
		<name>New marker</name>
	</wpt>
	<wpt lat="64.259190" lon="-21.123407">
		<ele>111.708969</ele>
		<name>New marker</name>
	</wpt>
	<wpt lat="64.259290" lon="-21.123333">
		<ele>111.567146</ele>
		<name>New marker</name>
	</wpt>
	<wpt lat="64.259460" lon="-21.122347">
		<ele>103.473900</ele>
		<name>New marker</name>
	</wpt>
	<wpt lat="64.260220" lon="-21.122532">
		<ele>109.741188</ele>
		<name>New marker</name>
	</wpt>
	<wpt lat="64.261566" lon="-21.120752">
		<ele>102.582138</ele>
		<name>New marker</name>
	</wpt>
	<wpt lat="64.262330" lon="-21.119785">
		<ele>102.577759</ele>
		<name>New marker</name>
	</wpt>
	<wpt lat="64.263180" lon="-21.118101">
		<ele>101.997215</ele>
		<name>New marker</name>
	</wpt>
	<wpt lat="64.265100" lon="-21.115747">
		<ele>102.000000</ele>
		<name>New marker</name>
	</wpt>
	<wpt lat="64.266080" lon="-21.115265">
		<ele>104.007858</ele>
		<name>New marker</name>
	</wpt>
	<wpt lat="64.267050" lon="-21.115713">
		<ele>116.418457</ele>
		<name>New marker</name>
	</wpt>
	<wpt lat="64.265750" lon="-21.117130">
		<ele>118.547325</ele>
		<name>New marker</name>
	</wpt>
	<wpt lat="64.267020" lon="-21.115671">
		<ele>115.903473</ele>
		<name>New marker</name>
	</wpt>
	<wpt lat="64.266060" lon="-21.115295">
		<ele>104.044739</ele>
		<name>New marker</name>
	</wpt>
	<wpt lat="64.265090" lon="-21.115742">
		<ele>102.000008</ele>
		<name>New marker</name>
	</wpt>
	<wpt lat="64.264854" lon="-21.114641">
		<ele>103.000000</ele>
		<name>New marker</name>
	</wpt>
	<wpt lat="64.264630" lon="-21.114325">
		<ele>103.308022</ele>
		<name>New marker</name>
	</wpt>
	<wpt lat="64.263460" lon="-21.116150">
		<ele>103.210083</ele>
		<name>New marker</name>
	</wpt>
	<wpt lat="64.263214" lon="-21.116310">
		<ele>103.913391</ele>
		<name>New marker</name>
	</wpt>
	<wpt lat="64.261024" lon="-21.117811">
		<ele>102.193329</ele>
		<name>New marker</name>
	</wpt>
	<wpt lat="64.258390" lon="-21.118086">
		<ele>105.053596</ele>
		<name>New marker</name>
	</wpt>
	<wpt lat="64.258514" lon="-21.116976">
		<ele>105.757935</ele>
		<name>New marker</name>
	</wpt>
	<wpt lat="64.258380" lon="-21.118128">
		<ele>105.105438</ele>
		<name>New marker</name>
	</wpt>
	<wpt lat="64.258354" lon="-21.118322">
		<ele>104.542099</ele>
		<name>New marker</name>
	</wpt>
	<wpt lat="64.257770" lon="-21.120350">
		<ele>104.498955</ele>
		<name>New marker</name>
	</wpt>
	<wpt lat="64.257650" lon="-21.121052">
		<ele>103.700165</ele>
		<name>New marker</name>
	</wpt>
	<wpt lat="64.257280" lon="-21.121395">
		<ele>103.000000</ele>
		<name>New marker</name>
	</wpt>
	<wpt lat="64.257360" lon="-21.121262">
		<ele>103.080765</ele>
		<name>New marker</name>
	</wpt>
	<wpt lat="64.257370" lon="-21.120980">
		<ele>103.881920</ele>
		<name>New marker</name>
	</wpt>
	<wpt lat="64.257416" lon="-21.120766">
		<ele>104.000000</ele>
		<name>New marker</name>
	</wpt>
	<wpt lat="64.257420" lon="-21.120626">
		<ele>104.000000</ele>
		<name>New marker</name>
	</wpt>
	<wpt lat="64.257416" lon="-21.120762">
		<ele>104.000000</ele>
		<name>New marker</name>
	</wpt>
	<wpt lat="64.257360" lon="-21.121023">
		<ele>103.740189</ele>
		<name>New marker</name>
	</wpt>
	<wpt lat="64.257350" lon="-21.121237">
		<ele>103.142273</ele>
		<name>New marker</name>
	</wpt>
	<wpt lat="64.257280" lon="-21.121387">
		<ele>102.999992</ele>
		<name>New marker</name>
	</wpt>
	<wpt lat="64.257140" lon="-21.121466">
		<ele>103.000000</ele>
		<name>New marker</name>
	</wpt>
	<wpt lat="64.257270" lon="-21.121430">
		<ele>103.000000</ele>
		<name>New marker</name>
	</wpt>
	<wpt lat="64.257650" lon="-21.121082">
		<ele>103.610764</ele>
		<name>New marker</name>
	</wpt>
	<wpt lat="64.257040" lon="-21.122316">
		<ele>101.000000</ele>
		<name>New marker</name>
	</wpt>
	<wpt lat="64.255844" lon="-21.122498">
		<ele>100.762207</ele>
		<name>New marker</name>
	</wpt>
	<wpt lat="64.255800" lon="-21.123468">
		<ele>100.604187</ele>
		<name>New marker</name>
	</wpt>
	<wpt lat="64.255740" lon="-21.125090">
		<ele>102.000000</ele>
		<name>New marker</name>
	</wpt>
	<wpt lat="64.255770" lon="-21.125916">
		<ele>104.219353</ele>
		<name>New marker</name>
	</wpt>
	<wpt lat="64.256200" lon="-21.125969">
		<ele>105.860283</ele>
		<name>New marker</name>
	</wpt>
	<wpt lat="64.256570" lon="-21.126268">
		<ele>112.185913</ele>
		<name>New marker</name>
	</wpt>
	<wpt lat="64.256840" lon="-21.127052">
		<ele>117.320915</ele>
		<name>New marker</name>
	</wpt>
	<wpt lat="64.255530" lon="-21.128613">
		<ele>134.320602</ele>
		<name>New marker</name>
	</wpt>
	<wpt lat="64.255580" lon="-21.129198">
		<ele>135.761124</ele>
		<name>New marker</name>
	</wpt>
	<wpt lat="64.255745" lon="-21.129255">
		<ele>136.205948</ele>
		<name>New marker</name>
	</wpt>
	<wpt lat="64.255960" lon="-21.129766">
		<ele>136.831757</ele>
		<name>New marker</name>
	</wpt>
	<wpt lat="64.255880" lon="-21.130142">
		<ele>136.042664</ele>
		<name>New marker</name>
	</wpt>
	<wpt lat="64.255650" lon="-21.132444">
		<ele>134.937744</ele>
		<name>New marker</name>
	</wpt>
</gpx>

