<?xml version="1.0" encoding="utf-8"?>
<gpx xmlns="http://www.topografix.com/GPX/1/1" version="1.1" creator="https://mapy.com/">
	<wpt lat="63.529465" lon="-19.371580">
		<ele>99.709366</ele>
		<name>New marker</name>
	</wpt>
	<wpt lat="63.530678" lon="-19.370968">
		<ele>101.375351</ele>
		<name>New marker</name>
	</wpt>
	<wpt lat="63.532856" lon="-19.362917">
		<ele>128.387848</ele>
		<name>New marker</name>
	</wpt>
	<wpt lat="63.534565" lon="-19.356607">
		<ele>113.232346</ele>
		<name>New marker</name>
	</wpt>
	<wpt lat="63.535020" lon="-19.349377">
		<ele>159.341370</ele>
		<name>New marker</name>
	</wpt>
	<wpt lat="63.535316" lon="-19.348421">
		<ele>163.735992</ele>
		<name>New marker</name>
	</wpt>
	<wpt lat="63.535374" lon="-19.347305">
		<ele>171.310791</ele>
		<name>New marker</name>
	</wpt>
	<wpt lat="63.535263" lon="-19.346619">
		<ele>172.927933</ele>
		<name>New marker</name>
	</wpt>
	<wpt lat="63.535065" lon="-19.346330">
		<ele>173.355927</ele>
		<name>New marker</name>
	</wpt>
	<wpt lat="63.534855" lon="-19.347027">
		<ele>168.550720</ele>
		<name>New marker</name>
	</wpt>
	<wpt lat="63.534870" lon="-19.347992">
		<ele>165.241318</ele>
		<name>New marker</name>
	</wpt>
	<wpt lat="63.535015" lon="-19.349173">
		<ele>160.609283</ele>
		<name>New marker</name>
	</wpt>
	<wpt lat="63.535072" lon="-19.350460">
		<ele>153.687744</ele>
		<name>New marker</name>
	</wpt>
	<wpt lat="63.534554" lon="-19.356598">
		<ele>113.294327</ele>
		<name>New marker</name>
	</wpt>
	<wpt lat="63.534050" lon="-19.359097">
		<ele>126.335297</ele>
		<name>New marker</name>
	</wpt>
	<wpt lat="63.533810" lon="-19.361070">
		<ele>115.074913</ele>
		<name>New marker</name>
	</wpt>
	<wpt lat="63.533670" lon="-19.362509">
		<ele>106.416908</ele>
		<name>New marker</name>
	</wpt>
	<wpt lat="63.533566" lon="-19.363894">
		<ele>100.877884</ele>
		<name>New marker</name>
	</wpt>
	<wpt lat="63.533455" lon="-19.365042">
		<ele>99.331589</ele>
		<name>New marker</name>
	</wpt>
	<wpt lat="63.533150" lon="-19.367144">
		<ele>100.038261</ele>
		<name>New marker</name>
	</wpt>
	<wpt lat="63.533000" lon="-19.368517">
		<ele>99.163727</ele>
		<name>New marker</name>
	</wpt>
	<wpt lat="63.532750" lon="-19.369429">
		<ele>100.564018</ele>
		<name>New marker</name>
	</wpt>
	<wpt lat="63.530697" lon="-19.370947">
		<ele>101.527863</ele>
		<name>New marker</name>
	</wpt>
	<wpt lat="63.529460" lon="-19.371521">
		<ele>99.882584</ele>
		<name>New marker</name>
	</wpt>
</gpx>

