<?xml version="1.0" encoding="utf-8"?>
<gpx xmlns="http://www.topografix.com/GPX/1/1" version="1.1" creator="https://mapy.com/">
	<wpt lat="49.557163" lon="17.736431">
		<ele>260.812866</ele>
		<name>New marker</name>
	</wpt>
	<wpt lat="49.556930" lon="17.735530">
		<ele>261.799988</ele>
		<name>New marker</name>
	</wpt>
	<wpt lat="49.556740" lon="17.735558">
		<ele>262.164093</ele>
		<name>New marker</name>
	</wpt>
	<wpt lat="49.556630" lon="17.735289">
		<ele>262.022339</ele>
		<name>New marker</name>
	</wpt>
	<wpt lat="49.556637" lon="17.735075">
		<ele>261.843811</ele>
		<name>New marker</name>
	</wpt>
	<wpt lat="49.555810" lon="17.735167">
		<ele>262.107056</ele>
		<name>New marker</name>
	</wpt>
	<wpt lat="49.554860" lon="17.735170">
		<ele>261.206482</ele>
		<name>New marker</name>
	</wpt>
	<wpt lat="49.554787" lon="17.735224">
		<ele>261.356995</ele>
		<name>New marker</name>
	</wpt>
	<wpt lat="49.554153" lon="17.735249">
		<ele>261.000031</ele>
		<name>New marker</name>
	</wpt>
	<wpt lat="49.553913" lon="17.735252">
		<ele>260.799988</ele>
		<name>New marker</name>
	</wpt>
	<wpt lat="49.553837" lon="17.735035">
		<ele>260.600067</ele>
		<name>New marker</name>
	</wpt>
	<wpt lat="49.553894" lon="17.735235">
		<ele>260.799988</ele>
		<name>New marker</name>
	</wpt>
	<wpt lat="49.553448" lon="17.735262">
		<ele>260.400024</ele>
		<name>New marker</name>
	</wpt>
	<wpt lat="49.552307" lon="17.735176">
		<ele>259.238922</ele>
		<name>New marker</name>
	</wpt>
	<wpt lat="49.551315" lon="17.734945">
		<ele>258.593201</ele>
		<name>New marker</name>
	</wpt>
	<wpt lat="49.551170" lon="17.734970">
		<ele>259.000000</ele>
		<name>New marker</name>
	</wpt>
	<wpt lat="49.550700" lon="17.735080">
		<ele>259.600037</ele>
		<name>New marker</name>
	</wpt>
	<wpt lat="49.550507" lon="17.735096">
		<ele>259.367798</ele>
		<name>New marker</name>
	</wpt>
	<wpt lat="49.549930" lon="17.734995">
		<ele>258.600037</ele>
		<name>New marker</name>
	</wpt>
	<wpt lat="49.549560" lon="17.735037">
		<ele>258.400024</ele>
		<name>New marker</name>
	</wpt>
	<wpt lat="49.549310" lon="17.735107">
		<ele>258.199310</ele>
		<name>New marker</name>
	</wpt>
	<wpt lat="49.548622" lon="17.734999">
		<ele>257.460541</ele>
		<name>New marker</name>
	</wpt>
	<wpt lat="49.548160" lon="17.735058">
		<ele>257.000000</ele>
		<name>New marker</name>
	</wpt>
	<wpt lat="49.548023" lon="17.734500">
		<ele>256.972931</ele>
		<name>New marker</name>
	</wpt>
	<wpt lat="49.547455" lon="17.734362">
		<ele>255.799988</ele>
		<name>New marker</name>
	</wpt>
	<wpt lat="49.546406" lon="17.734232">
		<ele>252.815430</ele>
		<name>New marker</name>
	</wpt>
	<wpt lat="49.546104" lon="17.734243">
		<ele>251.699738</ele>
		<name>New marker</name>
	</wpt>
	<wpt lat="49.545830" lon="17.734371">
		<ele>247.111557</ele>
		<name>New marker</name>
	</wpt>
	<wpt lat="49.545700" lon="17.734264">
		<ele>246.107605</ele>
		<name>New marker</name>
	</wpt>
	<wpt lat="49.545593" lon="17.734173">
		<ele>246.478424</ele>
		<name>New marker</name>
	</wpt>
	<wpt lat="49.545490" lon="17.734093">
		<ele>246.441376</ele>
		<name>New marker</name>
	</wpt>
	<wpt lat="49.545220" lon="17.733776">
		<ele>245.400009</ele>
		<name>New marker</name>
	</wpt>
	<wpt lat="49.545155" lon="17.733698">
		<ele>245.542603</ele>
		<name>New marker</name>
	</wpt>
	<wpt lat="49.545795" lon="17.731926">
		<ele>246.486862</ele>
		<name>New marker</name>
	</wpt>
	<wpt lat="49.545050" lon="17.731443">
		<ele>246.180573</ele>
		<name>New marker</name>
	</wpt>
	<wpt lat="49.544850" lon="17.732027">
		<ele>244.577667</ele>
		<name>New marker</name>
	</wpt>
	<wpt lat="49.544810" lon="17.732193">
		<ele>244.477585</ele>
		<name>New marker</name>
	</wpt>
	<wpt lat="49.544750" lon="17.732334">
		<ele>244.588943</ele>
		<name>New marker</name>
	</wpt>
	<wpt lat="49.544502" lon="17.732930">
		<ele>244.400009</ele>
		<name>New marker</name>
	</wpt>
	<wpt lat="49.544453" lon="17.733004">
		<ele>244.443497</ele>
		<name>New marker</name>
	</wpt>
	<wpt lat="49.544277" lon="17.733300">
		<ele>244.600006</ele>
		<name>New marker</name>
	</wpt>
	<wpt lat="49.543827" lon="17.733915">
		<ele>244.850769</ele>
		<name>New marker</name>
	</wpt>
	<wpt lat="49.543270" lon="17.734312">
		<ele>244.979919</ele>
		<name>New marker</name>
	</wpt>
	<wpt lat="49.542000" lon="17.735224">
		<ele>245.442108</ele>
		<name>New marker</name>
	</wpt>
	<wpt lat="49.541160" lon="17.736362">
		<ele>245.092651</ele>
		<name>New marker</name>
	</wpt>
	<wpt lat="49.540220" lon="17.737514">
		<ele>248.001602</ele>
		<name>New marker</name>
	</wpt>
	<wpt lat="49.540200" lon="17.736984">
		<ele>249.018768</ele>
		<name>New marker</name>
	</wpt>
	<wpt lat="49.539050" lon="17.738417">
		<ele>255.465485</ele>
		<name>New marker</name>
	</wpt>
	<wpt lat="49.537815" lon="17.742037">
		<ele>252.573547</ele>
		<name>New marker</name>
	</wpt>
	<wpt lat="49.536890" lon="17.743319">
		<ele>250.051483</ele>
		<name>New marker</name>
	</wpt>
	<wpt lat="49.536736" lon="17.743433">
		<ele>251.698608</ele>
		<name>New marker</name>
	</wpt>
	<wpt lat="49.536290" lon="17.743664">
		<ele>255.531158</ele>
		<name>New marker</name>
	</wpt>
	<wpt lat="49.535877" lon="17.743840">
		<ele>258.697327</ele>
		<name>New marker</name>
	</wpt>
	<wpt lat="49.535640" lon="17.743990">
		<ele>259.322235</ele>
		<name>New marker</name>
	</wpt>
	<wpt lat="49.534855" lon="17.745079">
		<ele>255.324921</ele>
		<name>New marker</name>
	</wpt>
	<wpt lat="49.534443" lon="17.744747">
		<ele>260.637268</ele>
		<name>New marker</name>
	</wpt>
	<wpt lat="49.534330" lon="17.744768">
		<ele>261.230743</ele>
		<name>New marker</name>
	</wpt>
	<wpt lat="49.534225" lon="17.744757">
		<ele>261.705597</ele>
		<name>New marker</name>
	</wpt>
	<wpt lat="49.533820" lon="17.744747">
		<ele>262.481262</ele>
		<name>New marker</name>
	</wpt>
	<wpt lat="49.533722" lon="17.744795">
		<ele>262.724457</ele>
		<name>New marker</name>
	</wpt>
	<wpt lat="49.533207" lon="17.745230">
		<ele>261.999756</ele>
		<name>New marker</name>
	</wpt>
	<wpt lat="49.533134" lon="17.745380">
		<ele>262.510956</ele>
		<name>New marker</name>
	</wpt>
	<wpt lat="49.532948" lon="17.745707">
		<ele>261.840759</ele>
		<name>New marker</name>
	</wpt>
	<wpt lat="49.532257" lon="17.745792">
		<ele>263.652039</ele>
		<name>New marker</name>
	</wpt>
	<wpt lat="49.531940" lon="17.745754">
		<ele>265.032471</ele>
		<name>New marker</name>
	</wpt>
	<wpt lat="49.531730" lon="17.745754">
		<ele>265.800018</ele>
		<name>New marker</name>
	</wpt>
	<wpt lat="49.531612" lon="17.746214">
		<ele>247.233124</ele>
		<name>New marker</name>
	</wpt>
	<wpt lat="49.532150" lon="17.746310">
		<ele>246.306122</ele>
		<name>New marker</name>
	</wpt>
	<wpt lat="49.532646" lon="17.746418">
		<ele>246.038422</ele>
		<name>New marker</name>
	</wpt>
	<wpt lat="49.532463" lon="17.746264">
		<ele>248.854645</ele>
		<name>New marker</name>
	</wpt>
	<wpt lat="49.532623" lon="17.746414">
		<ele>245.950577</ele>
		<name>New marker</name>
	</wpt>
	<wpt lat="49.533590" lon="17.746426">
		<ele>246.756149</ele>
		<name>New marker</name>
	</wpt>
	<wpt lat="49.533775" lon="17.746440">
		<ele>246.390518</ele>
		<name>New marker</name>
	</wpt>
	<wpt lat="49.533850" lon="17.747349">
		<ele>248.536957</ele>
		<name>New marker</name>
	</wpt>
	<wpt lat="49.533870" lon="17.747679">
		<ele>249.242844</ele>
		<name>New marker</name>
	</wpt>
	<wpt lat="49.533657" lon="17.747477">
		<ele>247.678482</ele>
		<name>New marker</name>
	</wpt>
	<wpt lat="49.533226" lon="17.747494">
		<ele>247.000031</ele>
		<name>New marker</name>
	</wpt>
	<wpt lat="49.532856" lon="17.747450">
		<ele>247.000031</ele>
		<name>New marker</name>
	</wpt>
	<wpt lat="49.532513" lon="17.747300">
		<ele>246.994019</ele>
		<name>New marker</name>
	</wpt>
	<wpt lat="49.532368" lon="17.747220">
		<ele>246.913361</ele>
		<name>New marker</name>
	</wpt>
	<wpt lat="49.531696" lon="17.747065">
		<ele>247.101898</ele>
		<name>New marker</name>
	</wpt>
	<wpt lat="49.531230" lon="17.746962">
		<ele>246.831131</ele>
		<name>New marker</name>
	</wpt>
	<wpt lat="49.530724" lon="17.746876">
		<ele>246.567856</ele>
		<name>New marker</name>
	</wpt>
	<wpt lat="49.530445" lon="17.747787">
		<ele>247.674728</ele>
		<name>New marker</name>
	</wpt>
	<wpt lat="49.530094" lon="17.747873">
		<ele>247.800278</ele>
		<name>New marker</name>
	</wpt>
	<wpt lat="49.530106" lon="17.748035">
		<ele>249.452072</ele>
		<name>New marker</name>
	</wpt>
	<wpt lat="49.530094" lon="17.748201">
		<ele>250.800385</ele>
		<name>New marker</name>
	</wpt>
	<wpt lat="49.530148" lon="17.748577">
		<ele>254.199997</ele>
		<name>New marker</name>
	</wpt>
	<wpt lat="49.531765" lon="17.748571">
		<ele>256.563568</ele>
		<name>New marker</name>
	</wpt>
	<wpt lat="49.532017" lon="17.749542">
		<ele>278.636780</ele>
		<name>New marker</name>
	</wpt>
	<wpt lat="49.531864" lon="17.750887">
		<ele>297.522644</ele>
		<name>New marker</name>
	</wpt>
	<wpt lat="49.531845" lon="17.751028">
		<ele>299.495087</ele>
		<name>New marker</name>
	</wpt>
	<wpt lat="49.531807" lon="17.751240">
		<ele>302.967194</ele>
		<name>New marker</name>
	</wpt>
	<wpt lat="49.531800" lon="17.751305">
		<ele>304.290161</ele>
		<name>New marker</name>
	</wpt>
	<wpt lat="49.531800" lon="17.751251">
		<ele>303.203644</ele>
		<name>New marker</name>
	</wpt>
	<wpt lat="49.531910" lon="17.751225">
		<ele>302.949951</ele>
		<name>New marker</name>
	</wpt>
	<wpt lat="49.532017" lon="17.751170">
		<ele>303.541687</ele>
		<name>New marker</name>
	</wpt>
	<wpt lat="49.531900" lon="17.751226">
		<ele>302.957489</ele>
		<name>New marker</name>
	</wpt>
	<wpt lat="49.532220" lon="17.751286">
		<ele>306.836731</ele>
		<name>New marker</name>
	</wpt>
	<wpt lat="49.532513" lon="17.750141">
		<ele>298.059784</ele>
		<name>New marker</name>
	</wpt>
	<wpt lat="49.535210" lon="17.751570">
		<ele>311.504669</ele>
		<name>New marker</name>
	</wpt>
	<wpt lat="49.536266" lon="17.748922">
		<ele>315.127258</ele>
		<name>New marker</name>
	</wpt>
	<wpt lat="49.536877" lon="17.748713">
		<ele>318.760071</ele>
		<name>New marker</name>
	</wpt>
	<wpt lat="49.537342" lon="17.748154">
		<ele>310.876190</ele>
		<name>New marker</name>
	</wpt>
	<wpt lat="49.537193" lon="17.747643">
		<ele>302.125427</ele>
		<name>New marker</name>
	</wpt>
	<wpt lat="49.537070" lon="17.747583">
		<ele>298.271057</ele>
		<name>New marker</name>
	</wpt>
	<wpt lat="49.537300" lon="17.747820">
		<ele>307.557983</ele>
		<name>New marker</name>
	</wpt>
	<wpt lat="49.537285" lon="17.748154">
		<ele>310.799988</ele>
		<name>New marker</name>
	</wpt>
	<wpt lat="49.538360" lon="17.745798">
		<ele>298.692261</ele>
		<name>New marker</name>
	</wpt>
	<wpt lat="49.538227" lon="17.745497">
		<ele>286.473969</ele>
		<name>New marker</name>
	</wpt>
	<wpt lat="49.538360" lon="17.745852">
		<ele>299.462402</ele>
		<name>New marker</name>
	</wpt>
	<wpt lat="49.540092" lon="17.743030">
		<ele>268.513794</ele>
		<name>New marker</name>
	</wpt>
	<wpt lat="49.541832" lon="17.741972">
		<ele>259.885071</ele>
		<name>New marker</name>
	</wpt>
	<wpt lat="49.541664" lon="17.741657">
		<ele>261.493134</ele>
		<name>New marker</name>
	</wpt>
	<wpt lat="49.541054" lon="17.740503">
		<ele>250.434875</ele>
		<name>New marker</name>
	</wpt>
	<wpt lat="49.541157" lon="17.740080">
		<ele>248.445282</ele>
		<name>New marker</name>
	</wpt>
	<wpt lat="49.541355" lon="17.739870">
		<ele>248.203903</ele>
		<name>New marker</name>
	</wpt>
	<wpt lat="49.542300" lon="17.739017">
		<ele>252.398727</ele>
		<name>New marker</name>
	</wpt>
	<wpt lat="49.543090" lon="17.738260">
		<ele>256.138489</ele>
		<name>New marker</name>
	</wpt>
	<wpt lat="49.544052" lon="17.737247">
		<ele>252.135056</ele>
		<name>New marker</name>
	</wpt>
	<wpt lat="49.544807" lon="17.736357">
		<ele>247.088348</ele>
		<name>New marker</name>
	</wpt>
	<wpt lat="49.545770" lon="17.735857">
		<ele>246.000015</ele>
		<name>New marker</name>
	</wpt>
	<wpt lat="49.546013" lon="17.735874">
		<ele>246.844437</ele>
		<name>New marker</name>
	</wpt>
	<wpt lat="49.546734" lon="17.735579">
		<ele>251.152863</ele>
		<name>New marker</name>
	</wpt>
	<wpt lat="49.547382" lon="17.735342">
		<ele>255.062149</ele>
		<name>New marker</name>
	</wpt>
	<wpt lat="49.547530" lon="17.735176">
		<ele>255.763733</ele>
		<name>New marker</name>
	</wpt>
	<wpt lat="49.547604" lon="17.734957">
		<ele>255.990570</ele>
		<name>New marker</name>
	</wpt>
	<wpt lat="49.548046" lon="17.734919">
		<ele>256.921112</ele>
		<name>New marker</name>
	</wpt>
	<wpt lat="49.548584" lon="17.734623">
		<ele>257.400024</ele>
		<name>New marker</name>
	</wpt>
	<wpt lat="49.548717" lon="17.734630">
		<ele>257.600037</ele>
		<name>New marker</name>
	</wpt>
	<wpt lat="49.548580" lon="17.734667">
		<ele>257.400024</ele>
		<name>New marker</name>
	</wpt>
	<wpt lat="49.548607" lon="17.735025">
		<ele>257.417542</ele>
		<name>New marker</name>
	</wpt>
	<wpt lat="49.549305" lon="17.735085">
		<ele>258.235382</ele>
		<name>New marker</name>
	</wpt>
	<wpt lat="49.549732" lon="17.734999">
		<ele>258.399994</ele>
		<name>New marker</name>
	</wpt>
	<wpt lat="49.550488" lon="17.735117">
		<ele>259.316681</ele>
		<name>New marker</name>
	</wpt>
	<wpt lat="49.550980" lon="17.735070">
		<ele>259.418365</ele>
		<name>New marker</name>
	</wpt>
	<wpt lat="49.551170" lon="17.735016">
		<ele>259.000000</ele>
		<name>New marker</name>
	</wpt>
	<wpt lat="49.551310" lon="17.735294">
		<ele>257.799988</ele>
		<name>New marker</name>
	</wpt>
	<wpt lat="49.551453" lon="17.735632">
		<ele>256.272278</ele>
		<name>New marker</name>
	</wpt>
	<wpt lat="49.551850" lon="17.736443">
		<ele>252.453247</ele>
		<name>New marker</name>
	</wpt>
	<wpt lat="49.552273" lon="17.737387">
		<ele>251.786407</ele>
		<name>New marker</name>
	</wpt>
	<wpt lat="49.552635" lon="17.737999">
		<ele>253.368286</ele>
		<name>New marker</name>
	</wpt>
	<wpt lat="49.553555" lon="17.738884">
		<ele>260.505035</ele>
		<name>New marker</name>
	</wpt>
	<wpt lat="49.553684" lon="17.739200">
		<ele>262.615295</ele>
		<name>New marker</name>
	</wpt>
	<wpt lat="49.553875" lon="17.740723">
		<ele>269.153442</ele>
		<name>New marker</name>
	</wpt>
	<wpt lat="49.554054" lon="17.741678">
		<ele>272.140747</ele>
		<name>New marker</name>
	</wpt>
	<wpt lat="49.554314" lon="17.742317">
		<ele>272.488892</ele>
		<name>New marker</name>
	</wpt>
	<wpt lat="49.554940" lon="17.743803">
		<ele>276.131104</ele>
		<name>New marker</name>
	</wpt>
	<wpt lat="49.555412" lon="17.744816">
		<ele>278.400055</ele>
		<name>New marker</name>
	</wpt>
	<wpt lat="49.555890" lon="17.745945">
		<ele>280.903595</ele>
		<name>New marker</name>
	</wpt>
	<wpt lat="49.557026" lon="17.748142">
		<ele>286.480408</ele>
		<name>New marker</name>
	</wpt>
	<wpt lat="49.557480" lon="17.748710">
		<ele>286.455933</ele>
		<name>New marker</name>
	</wpt>
	<wpt lat="49.558110" lon="17.750326">
		<ele>287.059845</ele>
		<name>New marker</name>
	</wpt>
	<wpt lat="49.558350" lon="17.750729">
		<ele>287.534882</ele>
		<name>New marker</name>
	</wpt>
	<wpt lat="49.558290" lon="17.750948">
		<ele>286.399292</ele>
		<name>New marker</name>
	</wpt>
	<wpt lat="49.558660" lon="17.751818">
		<ele>285.567017</ele>
		<name>New marker</name>
	</wpt>
	<wpt lat="49.558914" lon="17.752256">
		<ele>285.321747</ele>
		<name>New marker</name>
	</wpt>
	<wpt lat="49.559870" lon="17.754000">
		<ele>285.854950</ele>
		<name>New marker</name>
	</wpt>
	<wpt lat="49.561420" lon="17.757116">
		<ele>275.977539</ele>
		<name>New marker</name>
	</wpt>
	<wpt lat="49.561817" lon="17.757986">
		<ele>282.881439</ele>
		<name>New marker</name>
	</wpt>
	<wpt lat="49.561996" lon="17.757980">
		<ele>283.345947</ele>
		<name>New marker</name>
	</wpt>
	<wpt lat="49.562260" lon="17.758540">
		<ele>283.369751</ele>
		<name>New marker</name>
	</wpt>
	<wpt lat="49.562706" lon="17.759445">
		<ele>283.740356</ele>
		<name>New marker</name>
	</wpt>
	<wpt lat="49.563450" lon="17.760990">
		<ele>284.600037</ele>
		<name>New marker</name>
	</wpt>
	<wpt lat="49.564680" lon="17.763592">
		<ele>288.490692</ele>
		<name>New marker</name>
	</wpt>
	<wpt lat="49.568330" lon="17.769642">
		<ele>308.636261</ele>
		<name>New marker</name>
	</wpt>
	<wpt lat="49.568996" lon="17.770447">
		<ele>312.210083</ele>
		<name>New marker</name>
	</wpt>
	<wpt lat="49.569650" lon="17.771166">
		<ele>316.349823</ele>
		<name>New marker</name>
	</wpt>
	<wpt lat="49.570923" lon="17.772497">
		<ele>322.894592</ele>
		<name>New marker</name>
	</wpt>
	<wpt lat="49.570656" lon="17.776546">
		<ele>335.593689</ele>
		<name>New marker</name>
	</wpt>
	<wpt lat="49.570920" lon="17.772533">
		<ele>322.701233</ele>
		<name>New marker</name>
	</wpt>
	<wpt lat="49.572110" lon="17.773655">
		<ele>328.014465</ele>
		<name>New marker</name>
	</wpt>
	<wpt lat="49.574394" lon="17.776052">
		<ele>335.801727</ele>
		<name>New marker</name>
	</wpt>
	<wpt lat="49.574380" lon="17.776316">
		<ele>336.793579</ele>
		<name>New marker</name>
	</wpt>
	<wpt lat="49.574303" lon="17.776573">
		<ele>338.956665</ele>
		<name>New marker</name>
	</wpt>
	<wpt lat="49.574240" lon="17.776825">
		<ele>340.112457</ele>
		<name>New marker</name>
	</wpt>
	<wpt lat="49.574116" lon="17.777105">
		<ele>340.799988</ele>
		<name>New marker</name>
	</wpt>
	<wpt lat="49.574013" lon="17.777280">
		<ele>341.524231</ele>
		<name>New marker</name>
	</wpt>
	<wpt lat="49.573883" lon="17.777529">
		<ele>342.329834</ele>
		<name>New marker</name>
	</wpt>
	<wpt lat="49.573730" lon="17.777662">
		<ele>342.531311</ele>
		<name>New marker</name>
	</wpt>
	<wpt lat="49.573580" lon="17.777893">
		<ele>342.988037</ele>
		<name>New marker</name>
	</wpt>
	<wpt lat="49.573486" lon="17.778027">
		<ele>342.921387</ele>
		<name>New marker</name>
	</wpt>
	<wpt lat="49.573578" lon="17.778137">
		<ele>342.911224</ele>
		<name>New marker</name>
	</wpt>
	<wpt lat="49.573700" lon="17.778082">
		<ele>342.876648</ele>
		<name>New marker</name>
	</wpt>
	<wpt lat="49.573860" lon="17.777977">
		<ele>342.603027</ele>
		<name>New marker</name>
	</wpt>
	<wpt lat="49.573948" lon="17.777945">
		<ele>342.355988</ele>
		<name>New marker</name>
	</wpt>
	<wpt lat="49.574110" lon="17.777864">
		<ele>341.819092</ele>
		<name>New marker</name>
	</wpt>
	<wpt lat="49.574303" lon="17.777710">
		<ele>341.548828</ele>
		<name>New marker</name>
	</wpt>
	<wpt lat="49.574510" lon="17.777596">
		<ele>340.597900</ele>
		<name>New marker</name>
	</wpt>
	<wpt lat="49.574630" lon="17.777430">
		<ele>340.253967</ele>
		<name>New marker</name>
	</wpt>
	<wpt lat="49.574730" lon="17.777222">
		<ele>339.748932</ele>
		<name>New marker</name>
	</wpt>
	<wpt lat="49.574940" lon="17.776987">
		<ele>338.035828</ele>
		<name>New marker</name>
	</wpt>
	<wpt lat="49.575146" lon="17.776922">
		<ele>336.600739</ele>
		<name>New marker</name>
	</wpt>
	<wpt lat="49.575985" lon="17.777530">
		<ele>337.368256</ele>
		<name>New marker</name>
	</wpt>
	<wpt lat="49.576153" lon="17.777430">
		<ele>337.379486</ele>
		<name>New marker</name>
	</wpt>
	<wpt lat="49.576280" lon="17.777237">
		<ele>336.810425</ele>
		<name>New marker</name>
	</wpt>
	<wpt lat="49.576492" lon="17.777065">
		<ele>336.200012</ele>
		<name>New marker</name>
	</wpt>
	<wpt lat="49.576817" lon="17.776571">
		<ele>333.799988</ele>
		<name>New marker</name>
	</wpt>
	<wpt lat="49.576645" lon="17.776802">
		<ele>335.039978</ele>
		<name>New marker</name>
	</wpt>
	<wpt lat="49.576466" lon="17.777102">
		<ele>336.200012</ele>
		<name>New marker</name>
	</wpt>
	<wpt lat="49.576250" lon="17.777277">
		<ele>336.948547</ele>
		<name>New marker</name>
	</wpt>
	<wpt lat="49.576130" lon="17.777400">
		<ele>337.396698</ele>
		<name>New marker</name>
	</wpt>
	<wpt lat="49.576240" lon="17.777292">
		<ele>337.013031</ele>
		<name>New marker</name>
	</wpt>
	<wpt lat="49.576460" lon="17.777105">
		<ele>336.200012</ele>
		<name>New marker</name>
	</wpt>
	<wpt lat="49.576633" lon="17.776810">
		<ele>335.067291</ele>
		<name>New marker</name>
	</wpt>
	<wpt lat="49.576904" lon="17.776537">
		<ele>333.860809</ele>
		<name>New marker</name>
	</wpt>
	<wpt lat="49.579903" lon="17.781176">
		<ele>307.459930</ele>
		<name>New marker</name>
	</wpt>
	<wpt lat="49.580135" lon="17.781294">
		<ele>306.373505</ele>
		<name>New marker</name>
	</wpt>
	<wpt lat="49.580460" lon="17.781010">
		<ele>306.689178</ele>
		<name>New marker</name>
	</wpt>
	<wpt lat="49.580845" lon="17.781954">
		<ele>302.488220</ele>
		<name>New marker</name>
	</wpt>
	<wpt lat="49.581398" lon="17.785430">
		<ele>301.611267</ele>
		<name>New marker</name>
	</wpt>
	<wpt lat="49.581787" lon="17.787222">
		<ele>298.515289</ele>
		<name>New marker</name>
	</wpt>
	<wpt lat="49.582626" lon="17.791454">
		<ele>292.800079</ele>
		<name>New marker</name>
	</wpt>
	<wpt lat="49.582905" lon="17.791416">
		<ele>292.339752</ele>
		<name>New marker</name>
	</wpt>
	<wpt lat="49.582745" lon="17.792028">
		<ele>292.573334</ele>
		<name>New marker</name>
	</wpt>
	<wpt lat="49.583107" lon="17.792635">
		<ele>291.191254</ele>
		<name>New marker</name>
	</wpt>
	<wpt lat="49.583744" lon="17.793724">
		<ele>289.720642</ele>
		<name>New marker</name>
	</wpt>
	<wpt lat="49.583572" lon="17.794050">
		<ele>288.826599</ele>
		<name>New marker</name>
	</wpt>
	<wpt lat="49.583702" lon="17.795070">
		<ele>288.009979</ele>
		<name>New marker</name>
	</wpt>
	<wpt lat="49.584090" lon="17.798048">
		<ele>289.000000</ele>
		<name>New marker</name>
	</wpt>
	<wpt lat="49.584187" lon="17.798445">
		<ele>291.101685</ele>
		<name>New marker</name>
	</wpt>
	<wpt lat="49.584213" lon="17.798616">
		<ele>291.675354</ele>
		<name>New marker</name>
	</wpt>
	<wpt lat="49.583940" lon="17.799270">
		<ele>290.112885</ele>
		<name>New marker</name>
	</wpt>
	<wpt lat="49.584198" lon="17.798595">
		<ele>291.530273</ele>
		<name>New marker</name>
	</wpt>
	<wpt lat="49.584167" lon="17.798445">
		<ele>291.021790</ele>
		<name>New marker</name>
	</wpt>
	<wpt lat="49.584057" lon="17.798016">
		<ele>288.719330</ele>
		<name>New marker</name>
	</wpt>
	<wpt lat="49.583670" lon="17.795080">
		<ele>288.000000</ele>
		<name>New marker</name>
	</wpt>
	<wpt lat="49.584152" lon="17.794846">
		<ele>288.375183</ele>
		<name>New marker</name>
	</wpt>
	<wpt lat="49.583670" lon="17.795048">
		<ele>288.074432</ele>
		<name>New marker</name>
	</wpt>
	<wpt lat="49.584090" lon="17.798122">
		<ele>289.002991</ele>
		<name>New marker</name>
	</wpt>
	<wpt lat="49.584156" lon="17.798454">
		<ele>291.002838</ele>
		<name>New marker</name>
	</wpt>
	<wpt lat="49.584194" lon="17.798653">
		<ele>291.670044</ele>
		<name>New marker</name>
	</wpt>
	<wpt lat="49.583935" lon="17.799260">
		<ele>289.974792</ele>
		<name>New marker</name>
	</wpt>
</gpx>

