<?xml version="1.0" encoding="utf-8"?>
<gpx xmlns="http://www.topografix.com/GPX/1/1" version="1.1" creator="https://mapy.com/">
	<wpt lat="63.718730" lon="-19.893257">
		<ele>75.044304</ele>
		<name>New marker</name>
	</wpt>
	<wpt lat="63.719270" lon="-19.892754">
		<ele>76.619972</ele>
		<name>New marker</name>
	</wpt>
	<wpt lat="63.719430" lon="-19.892715">
		<ele>77.000008</ele>
		<name>New marker</name>
	</wpt>
	<wpt lat="63.719654" lon="-19.892801">
		<ele>77.140572</ele>
		<name>New marker</name>
	</wpt>
	<wpt lat="63.719820" lon="-19.892860">
		<ele>77.278244</ele>
		<name>New marker</name>
	</wpt>
	<wpt lat="63.721035" lon="-19.892351">
		<ele>91.257614</ele>
		<name>New marker</name>
	</wpt>
	<wpt lat="63.719820" lon="-19.892822">
		<ele>77.192101</ele>
		<name>New marker</name>
	</wpt>
	<wpt lat="63.719635" lon="-19.892754">
		<ele>77.033302</ele>
		<name>New marker</name>
	</wpt>
	<wpt lat="63.719402" lon="-19.892727">
		<ele>76.999992</ele>
		<name>New marker</name>
	</wpt>
	<wpt lat="63.719368" lon="-19.892008">
		<ele>77.910522</ele>
		<name>New marker</name>
	</wpt>
	<wpt lat="63.720290" lon="-19.890694">
		<ele>86.662132</ele>
		<name>New marker</name>
	</wpt>
	<wpt lat="63.721516" lon="-19.891407">
		<ele>128.902130</ele>
		<name>New marker</name>
	</wpt>
	<wpt lat="63.722576" lon="-19.889900">
		<ele>178.180511</ele>
		<name>New marker</name>
	</wpt>
	<wpt lat="63.723470" lon="-19.889395">
		<ele>213.840195</ele>
		<name>New marker</name>
	</wpt>
	<wpt lat="63.723694" lon="-19.888676">
		<ele>221.485519</ele>
		<name>New marker</name>
	</wpt>
	<wpt lat="63.723650" lon="-19.887678">
		<ele>227.560669</ele>
		<name>New marker</name>
	</wpt>
	<wpt lat="63.723630" lon="-19.887130">
		<ele>231.467224</ele>
		<name>New marker</name>
	</wpt>
	<wpt lat="63.723570" lon="-19.886390">
		<ele>234.591843</ele>
		<name>New marker</name>
	</wpt>
	<wpt lat="63.723495" lon="-19.885597">
		<ele>237.912476</ele>
		<name>New marker</name>
	</wpt>
	<wpt lat="63.723396" lon="-19.884878">
		<ele>240.717896</ele>
		<name>New marker</name>
	</wpt>
	<wpt lat="63.723267" lon="-19.884266">
		<ele>241.816315</ele>
		<name>New marker</name>
	</wpt>
	<wpt lat="63.723125" lon="-19.883667">
		<ele>240.112457</ele>
		<name>New marker</name>
	</wpt>
	<wpt lat="63.722996" lon="-19.882904">
		<ele>239.448242</ele>
		<name>New marker</name>
	</wpt>
	<wpt lat="63.722916" lon="-19.882057">
		<ele>243.270035</ele>
		<name>New marker</name>
	</wpt>
	<wpt lat="63.722840" lon="-19.881113">
		<ele>246.972702</ele>
		<name>New marker</name>
	</wpt>
	<wpt lat="63.722828" lon="-19.880243">
		<ele>247.981522</ele>
		<name>New marker</name>
	</wpt>
	<wpt lat="63.722794" lon="-19.879750">
		<ele>247.782730</ele>
		<name>New marker</name>
	</wpt>
	<wpt lat="63.722610" lon="-19.879911">
		<ele>246.142075</ele>
		<name>New marker</name>
	</wpt>
	<wpt lat="63.722355" lon="-19.880152">
		<ele>244.136963</ele>
		<name>New marker</name>
	</wpt>
	<wpt lat="63.722595" lon="-19.879900">
		<ele>245.958893</ele>
		<name>New marker</name>
	</wpt>
	<wpt lat="63.722790" lon="-19.879713">
		<ele>247.738037</ele>
		<name>New marker</name>
	</wpt>
	<wpt lat="63.722700" lon="-19.879122">
		<ele>246.959869</ele>
		<name>New marker</name>
	</wpt>
	<wpt lat="63.722576" lon="-19.878645">
		<ele>244.348099</ele>
		<name>New marker</name>
	</wpt>
	<wpt lat="63.722343" lon="-19.878956">
		<ele>240.996445</ele>
		<name>New marker</name>
	</wpt>
	<wpt lat="63.722000" lon="-19.879272">
		<ele>235.904556</ele>
		<name>New marker</name>
	</wpt>
	<wpt lat="63.721832" lon="-19.879417">
		<ele>232.887299</ele>
		<name>New marker</name>
	</wpt>
	<wpt lat="63.721535" lon="-19.879890">
		<ele>224.579285</ele>
		<name>New marker</name>
	</wpt>
	<wpt lat="63.721310" lon="-19.880447">
		<ele>216.183716</ele>
		<name>New marker</name>
	</wpt>
	<wpt lat="63.721046" lon="-19.881273">
		<ele>204.240402</ele>
		<name>New marker</name>
	</wpt>
	<wpt lat="63.720830" lon="-19.882336">
		<ele>187.360687</ele>
		<name>New marker</name>
	</wpt>
	<wpt lat="63.720440" lon="-19.882528">
		<ele>165.538788</ele>
		<name>New marker</name>
	</wpt>
	<wpt lat="63.720370" lon="-19.883602">
		<ele>151.637711</ele>
		<name>New marker</name>
	</wpt>
	<wpt lat="63.720560" lon="-19.885040">
		<ele>149.791504</ele>
		<name>New marker</name>
	</wpt>
	<wpt lat="63.720615" lon="-19.886251">
		<ele>132.822418</ele>
		<name>New marker</name>
	</wpt>
	<wpt lat="63.720690" lon="-19.887604">
		<ele>117.436768</ele>
		<name>New marker</name>
	</wpt>
	<wpt lat="63.720660" lon="-19.889610">
		<ele>102.959320</ele>
		<name>New marker</name>
	</wpt>
	<wpt lat="63.720660" lon="-19.890522">
		<ele>96.415657</ele>
		<name>New marker</name>
	</wpt>
	<wpt lat="63.719975" lon="-19.891455">
		<ele>79.520348</ele>
		<name>New marker</name>
	</wpt>
	<wpt lat="63.719353" lon="-19.892035">
		<ele>77.865829</ele>
		<name>New marker</name>
	</wpt>
	<wpt lat="63.719418" lon="-19.892538">
		<ele>77.000000</ele>
		<name>New marker</name>
	</wpt>
	<wpt lat="63.718820" lon="-19.892980">
		<ele>75.501862</ele>
		<name>New marker</name>
	</wpt>
</gpx>

