<?xml version="1.0" encoding="utf-8"?>
<gpx xmlns="http://www.topografix.com/GPX/1/1" version="1.1" creator="https://mapy.com/">
	<wpt lat="64.753530" lon="-23.895279">
		<ele>20.455002</ele>
		<name>New marker</name>
	</wpt>
	<wpt lat="64.753456" lon="-23.898680">
		<ele>10.290695</ele>
		<name>New marker</name>
	</wpt>
	<wpt lat="64.753240" lon="-23.899073">
		<ele>8.676277</ele>
		<name>New marker</name>
	</wpt>
	<wpt lat="64.753720" lon="-23.899513">
		<ele>3.042408</ele>
		<name>New marker</name>
	</wpt>
	<wpt lat="64.754030" lon="-23.898794">
		<ele>3.542106</ele>
		<name>New marker</name>
	</wpt>
	<wpt lat="64.754000" lon="-23.898611">
		<ele>4.302163</ele>
		<name>New marker</name>
	</wpt>
	<wpt lat="64.754005" lon="-23.898312">
		<ele>6.101102</ele>
		<name>New marker</name>
	</wpt>
	<wpt lat="64.753980" lon="-23.898611">
		<ele>4.389251</ele>
		<name>New marker</name>
	</wpt>
	<wpt lat="64.754000" lon="-23.898815">
		<ele>3.595699</ele>
		<name>New marker</name>
	</wpt>
	<wpt lat="64.753700" lon="-23.899470">
		<ele>3.106597</ele>
		<name>New marker</name>
	</wpt>
	<wpt lat="64.753350" lon="-23.899630">
		<ele>5.162798</ele>
		<name>New marker</name>
	</wpt>
	<wpt lat="64.753020" lon="-23.899824">
		<ele>7.059201</ele>
		<name>New marker</name>
	</wpt>
	<wpt lat="64.752780" lon="-23.900145">
		<ele>7.757650</ele>
		<name>New marker</name>
	</wpt>
	<wpt lat="64.752600" lon="-23.901112">
		<ele>8.184898</ele>
		<name>New marker</name>
	</wpt>
	<wpt lat="64.752160" lon="-23.901337">
		<ele>4.295996</ele>
		<name>New marker</name>
	</wpt>
	<wpt lat="64.751560" lon="-23.899685">
		<ele>8.674299</ele>
		<name>New marker</name>
	</wpt>
	<wpt lat="64.751570" lon="-23.898998">
		<ele>16.255117</ele>
		<name>New marker</name>
	</wpt>
	<wpt lat="64.751420" lon="-23.898901">
		<ele>18.260122</ele>
		<name>New marker</name>
	</wpt>
	<wpt lat="64.751274" lon="-23.898815">
		<ele>19.264931</ele>
		<name>New marker</name>
	</wpt>
	<wpt lat="64.751140" lon="-23.898567">
		<ele>19.562904</ele>
		<name>New marker</name>
	</wpt>
	<wpt lat="64.752100" lon="-23.898085">
		<ele>18.743614</ele>
		<name>New marker</name>
	</wpt>
	<wpt lat="64.753410" lon="-23.895521">
		<ele>20.097401</ele>
		<name>New marker</name>
	</wpt>
	<wpt lat="64.753365" lon="-23.896034">
		<ele>20.484556</ele>
		<name>New marker</name>
	</wpt>
	<wpt lat="64.752900" lon="-23.898256">
		<ele>24.169998</ele>
		<name>New marker</name>
	</wpt>
	<wpt lat="64.753430" lon="-23.896788">
		<ele>19.718777</ele>
		<name>New marker</name>
	</wpt>
	<wpt lat="64.753410" lon="-23.895483">
		<ele>20.097401</ele>
		<name>New marker</name>
	</wpt>
	<wpt lat="64.753540" lon="-23.895323">
		<ele>20.477352</ele>
		<name>New marker</name>
	</wpt>
</gpx>

